{"type":"FeatureCollection","features":[{"type":"Feature","properties":{"AreaType":"準防火地域","AreaCode":25,"Pref":"熊本県","Citycode":"43100","Cityname":"熊本市"},"geometry":{"type":"Polygon","coordinates":[[[130.714183,32.808216],[130.714152,32.807988],[130.714085,32.807372],[130.714044,32.807196],[130.71396,32.806926],[130.713884,32.806674],[130.713776,32.806435],[130.713854,32.806413],[130.713624,32.805806],[130.712622,32.806052],[130.712946,32.806651],[130.713245,32.807253],[130.713305,32.807532],[130.713401,32.807869],[130.713475,32.808285],[130.714183,32.808216]]]}},{"type":"Feature","properties":{"AreaType":"準防火地域","AreaCode":25,"Pref":"熊本県","Citycode":"43100","Cityname":"熊本市"},"geometry":{"type":"Polygon","coordinates":[[[130.72541,32.812733],[130.725395,32.812352],[130.725371,32.812327],[130.724892,32.812353],[130.724539,32.812388],[130.724349,32.81262],[130.72431,32.812653],[130.724257,32.812668],[130.724188,32.812666],[130.724071,32.812733],[130.723881,32.81284],[130.723848,32.812858],[130.723642,32.812895],[130.723524,32.812918],[130.723431,32.812942],[130.723373,32.812949],[130.72329,32.812965],[130.72318,32.812971],[130.723076,32.81297],[130.723047,32.812964],[130.72299,32.812941],[130.722944,32.812916],[130.722777,32.81282],[130.722764,32.812818],[130.722727,32.812818],[130.722394,32.812458],[130.722281,32.812389],[130.722025,32.812244],[130.721771,32.81217],[130.721702,32.812143],[130.72154,32.812053],[130.721361,32.811955],[130.721245,32.811883],[130.721177,32.811832],[130.721049,32.811733],[130.720939,32.811632],[130.720753,32.811431],[130.720584,32.81121],[130.720564,32.811218],[130.720373,32.810931],[130.720255,32.810721],[130.720231,32.810673],[130.720228,32.810646],[130.720229,32.810609],[130.720221,32.810548],[130.720202,32.810486],[130.720133,32.810336],[130.72005,32.810196],[130.719995,32.810108],[130.719961,32.810047],[130.719936,32.810003],[130.719864,32.809858],[130.71973,32.809591],[130.719636,32.809391],[130.719572,32.80916],[130.719457,32.808923],[130.719373,32.808848],[130.719359,32.808834],[130.719354,32.808817],[130.71931,32.808633],[130.719279,32.808621],[130.719122,32.808141],[130.719114,32.808124],[130.719017,32.807919],[130.718996,32.807878],[130.718985,32.807858],[130.7189,32.807728],[130.718696,32.807433],[130.718434,32.807095],[130.718417,32.807093],[130.718404,32.807089],[130.71839,32.807081],[130.718344,32.807039],[130.718272,32.806975],[130.71826,32.806962],[130.718243,32.806944],[130.718064,32.806718],[130.718064,32.806717],[130.718017,32.806641],[130.717979,32.806579],[130.717762,32.806302],[130.717596,32.806067],[130.717438,32.80584],[130.717282,32.805625],[130.717126,32.805417],[130.716986,32.805226],[130.716927,32.805145],[130.71685,32.805039],[130.716826,32.80501],[130.716762,32.804927],[130.716619,32.80472],[130.71647,32.804488],[130.71635,32.804333],[130.716184,32.804116],[130.715962,32.803833],[130.715736,32.803548],[130.715525,32.803289],[130.715184,32.802872],[130.715016,32.802952],[130.714912,32.803002],[130.714899,32.803006],[130.714878,32.803009],[130.714865,32.803011],[130.714303,32.803175],[130.714471,32.803634],[130.714794,32.804504],[130.713971,32.804729],[130.71415,32.805239],[130.71453,32.806235],[130.715328,32.806047],[130.715495,32.8072],[130.715533,32.807529],[130.715534,32.807536],[130.715534,32.807541],[130.715569,32.807837],[130.715659,32.80857],[130.714221,32.808698],[130.714276,32.80924],[130.71393,32.80927],[130.713522,32.809306],[130.712817,32.809362],[130.712783,32.809007],[130.712432,32.809055],[130.711967,32.809109],[130.711907,32.808589],[130.711659,32.808644],[130.711592,32.808342],[130.711419,32.807545],[130.711355,32.807358],[130.711284,32.807181],[130.711124,32.806734],[130.710807,32.805873],[130.710668,32.805724],[130.70959,32.806034],[130.709666,32.806114],[130.709807,32.806235],[130.709912,32.806364],[130.70994,32.806418],[130.709958,32.806455],[130.709976,32.806514],[130.709989,32.806573],[130.709994,32.806629],[130.709993,32.806675],[130.709988,32.806719],[130.709975,32.806767],[130.709952,32.806826],[130.709916,32.806885],[130.709654,32.807352],[130.709615,32.807424],[130.709576,32.807513],[130.709554,32.807578],[130.70937,32.807526],[130.709342,32.807595],[130.709219,32.80757],[130.709178,32.807558],[130.709104,32.807526],[130.708818,32.807386],[130.708595,32.807273],[130.708411,32.807199],[130.70828,32.807155],[130.708134,32.807133],[130.707987,32.807135],[130.707897,32.807146],[130.707832,32.807179],[130.707781,32.807236],[130.707743,32.807342],[130.707715,32.807502],[130.707724,32.807688],[130.707707,32.807763],[130.70766,32.807815],[130.70759,32.807839],[130.707499,32.807855],[130.707187,32.807865],[130.707109,32.807864],[130.707035,32.807893],[130.707003,32.807941],[130.707006,32.808008],[130.707067,32.808162],[130.707088,32.808209],[130.707148,32.808273],[130.707328,32.808483],[130.707355,32.808546],[130.707357,32.80862],[130.70731,32.808791],[130.707244,32.808912],[130.707165,32.80898],[130.707091,32.809016],[130.706986,32.809019],[130.706783,32.808989],[130.706378,32.808924],[130.706294,32.808917],[130.706151,32.80895],[130.706028,32.809009],[130.705872,32.809107],[130.705792,32.809169],[130.705749,32.809222],[130.705708,32.809383],[130.705707,32.809549],[130.705435,32.809589],[130.705317,32.809612],[130.705184,32.809647],[130.705204,32.809757],[130.705014,32.809802],[130.704857,32.809833],[130.704878,32.810014],[130.704928,32.810512],[130.705005,32.811131],[130.704795,32.811145],[130.704823,32.811679],[130.704837,32.812355],[130.704782,32.812354],[130.704869,32.813639],[130.704914,32.814136],[130.704938,32.814439],[130.704939,32.814452],[130.704656,32.814485],[130.704674,32.814623],[130.704681,32.81469],[130.704685,32.814718],[130.704693,32.814766],[130.704698,32.814814],[130.704699,32.81482],[130.704704,32.814863],[130.704711,32.814928],[130.704712,32.814932],[130.704721,32.815008],[130.704737,32.815137],[130.704737,32.815142],[130.704738,32.815149],[130.704742,32.815182],[130.704757,32.815331],[130.704761,32.815374],[130.704763,32.815393],[130.704779,32.815513],[130.704786,32.815563],[130.704812,32.815799],[130.704812,32.815801],[130.704827,32.815931],[130.704836,32.816026],[130.704837,32.816039],[130.704844,32.816102],[130.704845,32.816104],[130.704854,32.816186],[130.704855,32.816189],[130.704865,32.816271],[130.704874,32.816352],[130.704875,32.816355],[130.70488,32.816397],[130.70488,32.816398],[130.70488,32.816399],[130.704893,32.816513],[130.704906,32.816623],[130.704914,32.816709],[130.704916,32.816721],[130.704926,32.816803],[130.704928,32.816817],[130.704935,32.816865],[130.704936,32.816874],[130.704936,32.816874],[130.704939,32.816912],[130.70494,32.816924],[130.704956,32.817057],[130.704956,32.817057],[130.704963,32.817119],[130.70498,32.817264],[130.70498,32.817267],[130.70499,32.817349],[130.704991,32.817359],[130.704996,32.817461],[130.704999,32.81749],[130.705013,32.81761],[130.705034,32.817793],[130.705038,32.817829],[130.705038,32.81783],[130.705032,32.817916],[130.705018,32.817978],[130.705016,32.817987],[130.705014,32.817997],[130.705014,32.817997],[130.704987,32.81811],[130.704981,32.818136],[130.704971,32.818171],[130.704964,32.818199],[130.70495,32.818271],[130.70495,32.818272],[130.704949,32.818275],[130.70494,32.818357],[130.704937,32.818475],[130.704937,32.818482],[130.704936,32.81849],[130.704934,32.81851],[130.704933,32.818544],[130.704934,32.818576],[130.70494,32.818673],[130.704941,32.818685],[130.704946,32.818729],[130.704952,32.818818],[130.704955,32.818869],[130.704956,32.818876],[130.704958,32.818905],[130.704958,32.818931],[130.704962,32.818969],[130.704964,32.818995],[130.704969,32.819065],[130.704971,32.819085],[130.704973,32.819105],[130.704983,32.819187],[130.704995,32.819296],[130.704995,32.819296],[130.705006,32.819394],[130.70502,32.819515],[130.70502,32.819517],[130.705026,32.819568],[130.705026,32.819568],[130.705032,32.819622],[130.705032,32.819623],[130.705045,32.81974],[130.705047,32.819754],[130.705047,32.819755],[130.705048,32.819765],[130.705052,32.819799],[130.705059,32.819862],[130.70506,32.819866],[130.70507,32.819951],[130.70507,32.819957],[130.705074,32.819982],[130.705081,32.820051],[130.705082,32.820063],[130.705094,32.82015],[130.705095,32.820159],[130.705102,32.820205],[130.705107,32.820247],[130.705114,32.820307],[130.705114,32.820309],[130.705123,32.82038],[130.705129,32.820431],[130.705133,32.820474],[130.705134,32.82049],[130.705146,32.820587],[130.705147,32.820592],[130.705154,32.820645],[130.705155,32.820649],[130.705167,32.820734],[130.705184,32.820867],[130.705188,32.8209],[130.705195,32.820973],[130.705196,32.82098],[130.705206,32.821075],[130.705216,32.82119],[130.705218,32.821208],[130.705228,32.821285],[130.705235,32.821352],[130.705235,32.821353],[130.705247,32.821449],[130.70525,32.821485],[130.705253,32.821508],[130.705259,32.821554],[130.705259,32.821555],[130.705263,32.821583],[130.705264,32.821591],[130.705264,32.821591],[130.705274,32.821675],[130.705278,32.82171],[130.70528,32.821726],[130.705287,32.821776],[130.705287,32.821776],[130.70529,32.821802],[130.705292,32.821821],[130.705294,32.821844],[130.705301,32.821891],[130.705303,32.821915],[130.705303,32.821915],[130.705309,32.821964],[130.705309,32.821966],[130.705314,32.822004],[130.705314,32.822008],[130.70532,32.822058],[130.705327,32.822114],[130.705328,32.822124],[130.705412,32.822846],[130.705924,32.823289],[130.706176,32.822993],[130.706206,32.823072],[130.706216,32.823105],[130.706265,32.823248],[130.706392,32.823222],[130.706404,32.823266],[130.706651,32.823223],[130.706656,32.823249],[130.707001,32.823185],[130.706858,32.822707],[130.706774,32.822587],[130.706721,32.822067],[130.706718,32.82204],[130.706706,32.821918],[130.706704,32.821903],[130.706694,32.821826],[130.706693,32.821822],[130.706686,32.82177],[130.706679,32.821713],[130.706679,32.821712],[130.706677,32.821702],[130.706667,32.821617],[130.706667,32.821614],[130.706662,32.82158],[130.706662,32.821576],[130.706662,32.821575],[130.706655,32.821523],[130.706647,32.821441],[130.706646,32.821426],[130.706641,32.821394],[130.706641,32.821392],[130.706638,32.821368],[130.706636,32.821357],[130.706631,32.821329],[130.70662,32.82123],[130.706611,32.821132],[130.706609,32.821116],[130.706595,32.821001],[130.706588,32.820946],[130.706577,32.820852],[130.706571,32.820786],[130.706569,32.820773],[130.706562,32.820717],[130.706559,32.820695],[130.706558,32.82069],[130.706548,32.820606],[130.706547,32.820596],[130.706536,32.820512],[130.706524,32.820402],[130.706524,32.820401],[130.706511,32.820287],[130.706511,32.820284],[130.706493,32.820139],[130.706492,32.820134],[130.706473,32.819988],[130.706467,32.819936],[130.706467,32.819936],[130.706465,32.819916],[130.706465,32.819916],[130.706459,32.819866],[130.706459,32.819863],[130.706444,32.819746],[130.706444,32.819744],[130.706431,32.819642],[130.706431,32.819641],[130.70643,32.819627],[130.706413,32.81943],[130.706412,32.819418],[130.706403,32.819332],[130.706403,32.819332],[130.706391,32.819225],[130.706391,32.819225],[130.706375,32.819076],[130.706369,32.819021],[130.706369,32.819013],[130.706352,32.818571],[130.706375,32.818471],[130.706377,32.818462],[130.706385,32.818421],[130.706387,32.818402],[130.706396,32.818365],[130.7064,32.818351],[130.706409,32.818316],[130.706419,32.818268],[130.706434,32.8182],[130.706437,32.818189],[130.706441,32.818173],[130.706441,32.818172],[130.706454,32.81812],[130.70646,32.818099],[130.706469,32.818055],[130.706475,32.818023],[130.706481,32.817961],[130.706482,32.817953],[130.706483,32.817927],[130.706483,32.817916],[130.706483,32.817902],[130.706483,32.817899],[130.706483,32.817862],[130.706483,32.817861],[130.706483,32.817836],[130.706481,32.817804],[130.70648,32.817791],[130.706475,32.81773],[130.706473,32.817706],[130.706467,32.81766],[130.706467,32.81766],[130.706466,32.817657],[130.706428,32.817354],[130.706426,32.817338],[130.706426,32.817338],[130.706426,32.817332],[130.706418,32.817264],[130.706417,32.817259],[130.706415,32.817243],[130.706415,32.817243],[130.70639,32.817048],[130.706377,32.816885],[130.706375,32.816866],[130.70636,32.816749],[130.706346,32.816619],[130.706326,32.816401],[130.706326,32.816393],[130.706317,32.816311],[130.707543,32.81617],[130.708178,32.816115],[130.708915,32.816091],[130.709627,32.816046],[130.710304,32.816005],[130.710602,32.815997],[130.710953,32.815984],[130.711448,32.815955],[130.712012,32.815919],[130.712812,32.815857],[130.713672,32.815793],[130.715306,32.816334],[130.716061,32.816721],[130.716107,32.816801],[130.716203,32.816968],[130.716306,32.817137],[130.716414,32.817266],[130.716517,32.817268],[130.71708,32.81727],[130.717222,32.817263],[130.717498,32.817276],[130.718159,32.817354],[130.718321,32.817378],[130.718585,32.817406],[130.718867,32.817446],[130.719297,32.817523],[130.719971,32.817669],[130.720311,32.817733],[130.720388,32.817963],[130.72043,32.818199],[130.720501,32.818608],[130.720519,32.818722],[130.721092,32.818608],[130.72111,32.81866],[130.721486,32.818631],[130.721403,32.818418],[130.721293,32.81813],[130.721166,32.817817],[130.72103,32.817504],[130.720953,32.817324],[130.72085,32.817101],[130.720633,32.816666],[130.720942,32.816604],[130.721272,32.816546],[130.721404,32.81653],[130.721797,32.816489],[130.724242,32.816126],[130.724658,32.816067],[130.724743,32.81607],[130.724805,32.815009],[130.72506,32.814103],[130.725181,32.814009],[130.725237,32.813686],[130.725288,32.813389],[130.725339,32.813139],[130.72541,32.812733]]]}},{"type":"Feature","properties":{"AreaType":"準防火地域","AreaCode":25,"Pref":"熊本県","Citycode":"43100","Cityname":"熊本市"},"geometry":{"type":"Polygon","coordinates":[[[130.781275,32.77805],[130.780827,32.77794],[130.779946,32.777723],[130.779872,32.777707],[130.77937,32.777603],[130.77911,32.77756],[130.778638,32.777482],[130.778354,32.777447],[130.777829,32.777385],[130.777462,32.777358],[130.777156,32.777337],[130.77671,32.777312],[130.776176,32.7773],[130.774862,32.777314],[130.774253,32.777322],[130.774253,32.77718],[130.774194,32.775068],[130.770917,32.775188],[130.76915,32.775226],[130.768421,32.775236],[130.766991,32.775321],[130.765352,32.77539],[130.765634,32.774338],[130.765059,32.774339],[130.764289,32.774348],[130.764281,32.773185],[130.764263,32.771557],[130.763464,32.771554],[130.762816,32.771576],[130.762106,32.771579],[130.761776,32.77158],[130.761355,32.771568],[130.761355,32.771531],[130.761452,32.771054],[130.761477,32.770932],[130.761461,32.770908],[130.761377,32.770899],[130.761423,32.770602],[130.761474,32.770392],[130.761578,32.769842],[130.761647,32.76936],[130.761068,32.769343],[130.761066,32.769312],[130.761099,32.768924],[130.761125,32.768453],[130.761471,32.768425],[130.761447,32.767943],[130.761421,32.767517],[130.761418,32.767471],[130.761413,32.767461],[130.761401,32.767409],[130.761223,32.767432],[130.760835,32.767489],[130.760716,32.767512],[130.760637,32.767534],[130.760524,32.767571],[130.760427,32.767598],[130.760379,32.767633],[130.760317,32.767662],[130.75998,32.767714],[130.759777,32.767737],[130.759559,32.767744],[130.759426,32.76776],[130.759359,32.767773],[130.759324,32.767782],[130.759277,32.767806],[130.759257,32.767827],[130.759189,32.767889],[130.759112,32.767913],[130.759112,32.767913],[130.758846,32.76802],[130.758823,32.768025],[130.75864,32.768071],[130.758493,32.768113],[130.758242,32.768201],[130.758059,32.768286],[130.757899,32.76838],[130.757674,32.768565],[130.75753,32.768668],[130.757388,32.768733],[130.75719,32.768808],[130.756981,32.768888],[130.756917,32.768957],[130.757379,32.769141],[130.757512,32.768936],[130.758273,32.769191],[130.758268,32.769321],[130.758112,32.769567],[130.757904,32.769926],[130.757744,32.770228],[130.757657,32.770423],[130.757561,32.770628],[130.757492,32.770786],[130.7574,32.770925],[130.757313,32.771078],[130.757345,32.771172],[130.758595,32.771278],[130.758893,32.773174],[130.758906,32.773272],[130.759139,32.774729],[130.75794,32.774894],[130.756893,32.775046],[130.75401,32.775753],[130.753981,32.775652],[130.752477,32.775992],[130.752135,32.776223],[130.752507,32.7766],[130.752579,32.776676],[130.75261,32.776707],[130.752633,32.776733],[130.752651,32.776766],[130.752667,32.776794],[130.752682,32.776829],[130.752697,32.776881],[130.752721,32.776973],[130.752817,32.777259],[130.752802,32.777298],[130.752293,32.777502],[130.751589,32.777806],[130.751143,32.777992],[130.75043,32.77828],[130.749495,32.77866],[130.748485,32.779062],[130.747402,32.779512],[130.74669,32.779829],[130.746442,32.779941],[130.745759,32.780262],[130.745398,32.78046],[130.745259,32.780536],[130.745247,32.780542],[130.744224,32.781067],[130.744245,32.781174],[130.744064,32.781284],[130.744156,32.781559],[130.7442,32.781692],[130.744228,32.781775],[130.744253,32.781836],[130.744287,32.781906],[130.74433,32.781984],[130.744268,32.782069],[130.74424,32.782091],[130.744206,32.782115],[130.744033,32.782232],[130.743997,32.782262],[130.743981,32.782269],[130.743958,32.782275],[130.743938,32.782278],[130.743767,32.782588],[130.743564,32.782566],[130.743522,32.782561],[130.743476,32.782561],[130.743448,32.782565],[130.743417,32.782583],[130.743393,32.782602],[130.743365,32.782637],[130.743334,32.782691],[130.743324,32.782718],[130.743311,32.782755],[130.743298,32.782825],[130.743296,32.782874],[130.743284,32.783152],[130.743209,32.783153],[130.7432,32.783153],[130.743159,32.783155],[130.74264,32.783159],[130.742602,32.783158],[130.742599,32.783158],[130.742582,32.783159],[130.742533,32.78316],[130.741984,32.783173],[130.741963,32.783174],[130.74179,32.783184],[130.74178,32.783184],[130.741649,32.783194],[130.741644,32.783194],[130.741578,32.7832],[130.741568,32.783201],[130.74146,32.783211],[130.74144,32.783214],[130.741395,32.78322],[130.741373,32.783223],[130.741331,32.78323],[130.741304,32.783235],[130.741269,32.783243],[130.741246,32.783248],[130.741231,32.783252],[130.741212,32.783257],[130.741175,32.783268],[130.741145,32.783277],[130.741108,32.78329],[130.741082,32.7833],[130.741074,32.783303],[130.741046,32.783314],[130.74102,32.783326],[130.740975,32.783346],[130.740965,32.783351],[130.740949,32.783359],[130.740889,32.78339],[130.740872,32.7834],[130.740808,32.783437],[130.74077,32.78346],[130.740722,32.783494],[130.740715,32.783498],[130.740498,32.783653],[130.740445,32.783691],[130.740287,32.783803],[130.740092,32.783942],[130.740091,32.783943],[130.739702,32.784221],[130.739701,32.784221],[130.739171,32.784601],[130.739165,32.784606],[130.738962,32.784756],[130.738466,32.78511],[130.738158,32.785328],[130.738148,32.785335],[130.737854,32.785555],[130.737387,32.785885],[130.737199,32.786018],[130.737192,32.786023],[130.737103,32.786088],[130.736831,32.786277],[130.73673,32.786165],[130.736003,32.786654],[130.73589,32.78673],[130.735704,32.786845],[130.735654,32.786844],[130.735485,32.786831],[130.735171,32.786791],[130.734976,32.786762],[130.734806,32.786738],[130.734474,32.786816],[130.73421,32.786868],[130.734165,32.786922],[130.734165,32.786952],[130.733792,32.786919],[130.733763,32.786885],[130.733781,32.786777],[130.733299,32.786716],[130.733058,32.786675],[130.733068,32.786648],[130.733631,32.785112],[130.733061,32.784966],[130.732466,32.786572],[130.732359,32.786554],[130.732321,32.786648],[130.732245,32.786827],[130.731772,32.786739],[130.731677,32.786712],[130.73161,32.786687],[130.731535,32.786656],[130.731515,32.786645],[130.731307,32.786525],[130.731268,32.786644],[130.730984,32.78753],[130.73086,32.788221],[130.729784,32.788894],[130.728481,32.78975],[130.727189,32.790625],[130.72613,32.791343],[130.724953,32.792154],[130.724697,32.792337],[130.723906,32.791619],[130.723332,32.791106],[130.722816,32.79064],[130.722252,32.790134],[130.721836,32.789772],[130.721447,32.789463],[130.720975,32.789127],[130.720559,32.788872],[130.720064,32.78864],[130.719678,32.788445],[130.718782,32.788066],[130.718111,32.787779],[130.718126,32.788211],[130.718143,32.788503],[130.718131,32.788858],[130.718128,32.789056],[130.718251,32.789236],[130.71824,32.789386],[130.718235,32.790212],[130.718228,32.790545],[130.718157,32.790635],[130.717819,32.790494],[130.717382,32.79032],[130.716698,32.790044],[130.715751,32.789668],[130.715133,32.789422],[130.713935,32.788944],[130.712437,32.788352],[130.712761,32.786602],[130.71278,32.786513],[130.712829,32.786275],[130.712865,32.786099],[130.71287,32.786054],[130.712871,32.786036],[130.712869,32.786026],[130.712866,32.786015],[130.712857,32.785999],[130.71284,32.785981],[130.71282,32.785966],[130.7128,32.785957],[130.712784,32.785955],[130.712679,32.785945],[130.712269,32.785904],[130.712077,32.785883],[130.712189,32.785271],[130.711898,32.785136],[130.710759,32.784662],[130.709968,32.784324],[130.709217,32.784003],[130.708814,32.783832],[130.70851,32.783702],[130.708244,32.783587],[130.708114,32.784056],[130.707825,32.78496],[130.707603,32.785686],[130.707472,32.78595],[130.707178,32.785837],[130.706739,32.785663],[130.706271,32.78549],[130.705886,32.785371],[130.705455,32.785273],[130.70521,32.78522],[130.704731,32.785112],[130.704384,32.78503],[130.704385,32.785044],[130.704385,32.785047],[130.704388,32.785126],[130.704401,32.785423],[130.704222,32.785384],[130.703798,32.785295],[130.703409,32.785212],[130.703211,32.785168],[130.702532,32.785022],[130.701918,32.784884],[130.70125,32.784737],[130.700318,32.784532],[130.699445,32.784339],[130.698862,32.78421],[130.698875,32.78335],[130.698877,32.782823],[130.698879,32.782412],[130.699325,32.782415],[130.69933,32.782414],[130.699327,32.782053],[130.699318,32.781566],[130.698978,32.78155],[130.698978,32.781485],[130.698734,32.781472],[130.697349,32.781427],[130.697381,32.781634],[130.69743,32.781902],[130.697478,32.782198],[130.697537,32.782524],[130.697559,32.78268],[130.697435,32.782564],[130.69721,32.782319],[130.697146,32.782747],[130.697102,32.783092],[130.69705,32.783503],[130.697026,32.783717],[130.696942,32.78372],[130.696545,32.78373],[130.696545,32.78373],[130.696157,32.78374],[130.696154,32.78374],[130.695683,32.783757],[130.694959,32.78377],[130.69495,32.783771],[130.694556,32.783779],[130.694556,32.783781],[130.694575,32.783911],[130.694588,32.784004],[130.694611,32.784262],[130.694619,32.78434],[130.694626,32.784496],[130.694626,32.784583],[130.69462,32.785008],[130.694603,32.785388],[130.694591,32.785644],[130.694591,32.785815],[130.694596,32.786012],[130.694578,32.786163],[130.694563,32.786266],[130.694544,32.786394],[130.694529,32.786559],[130.694413,32.787139],[130.694273,32.788029],[130.694216,32.788388],[130.69417,32.78866],[130.694147,32.788933],[130.69414,32.78929],[130.694117,32.789464],[130.694096,32.78992],[130.694098,32.79001],[130.694121,32.790086],[130.69415,32.790194],[130.694232,32.790432],[130.694265,32.79051],[130.694401,32.79075],[130.69466,32.790982],[130.694866,32.79114],[130.695162,32.791292],[130.695265,32.79134],[130.695624,32.791463],[130.695819,32.791506],[130.696019,32.791546],[130.696265,32.791582],[130.696581,32.791597],[130.696637,32.791595],[130.696908,32.79156],[130.696989,32.79156],[130.697709,32.791541],[130.698044,32.791563],[130.698248,32.791585],[130.698421,32.791614],[130.698699,32.791643],[130.69892,32.791675],[130.699148,32.791715],[130.69932,32.791754],[130.699482,32.791797],[130.699635,32.791838],[130.69986,32.791914],[130.70004,32.791992],[130.700213,32.792071],[130.700533,32.79224],[130.700935,32.792471],[130.701081,32.792547],[130.70166,32.792899],[130.702221,32.793232],[130.702342,32.793311],[130.702656,32.79352],[130.702677,32.793565],[130.703187,32.79383],[130.703821,32.794156],[130.704392,32.794433],[130.704482,32.794473],[130.704503,32.794431],[130.704891,32.794619],[130.705391,32.794849],[130.705705,32.794992],[130.70608,32.795165],[130.706541,32.795374],[130.7071,32.795606],[130.707446,32.795741],[130.707732,32.795835],[130.708626,32.796147],[130.708993,32.796282],[130.709313,32.796399],[130.709607,32.796502],[130.709662,32.796518],[130.70964,32.796562],[130.709722,32.796594],[130.709802,32.796631],[130.710142,32.796784],[130.710308,32.796867],[130.710404,32.796919],[130.710617,32.797043],[130.710834,32.797179],[130.710846,32.797187],[130.711162,32.797397],[130.711493,32.797628],[130.712027,32.79801],[130.712266,32.798196],[130.712421,32.798312],[130.712588,32.79844],[130.712621,32.798469],[130.712653,32.798498],[130.712683,32.79853],[130.712704,32.798555],[130.712715,32.798575],[130.712745,32.798636],[130.712757,32.798647],[130.712889,32.798739],[130.712926,32.798769],[130.713227,32.799013],[130.713435,32.799235],[130.713579,32.799383],[130.713527,32.799422],[130.713482,32.79947],[130.713471,32.799495],[130.713468,32.799512],[130.713468,32.799534],[130.713476,32.799559],[130.713496,32.799593],[130.713871,32.800032],[130.713955,32.800132],[130.714044,32.80023],[130.714115,32.80029],[130.714235,32.800412],[130.714291,32.800478],[130.714373,32.800597],[130.714433,32.800677],[130.714488,32.800757],[130.714539,32.800814],[130.714672,32.800969],[130.714917,32.80125],[130.714976,32.801328],[130.715157,32.801632],[130.715544,32.80212],[130.716017,32.802747],[130.716392,32.803264],[130.716562,32.80349],[130.716968,32.804045],[130.717117,32.80423],[130.717272,32.804435],[130.717301,32.80447],[130.717872,32.805078],[130.718003,32.805248],[130.718194,32.805488],[130.718316,32.805743],[130.718447,32.805997],[130.718461,32.806018],[130.718468,32.80603],[130.718554,32.806177],[130.718559,32.806244],[130.718628,32.806332],[130.71891,32.806689],[130.718978,32.80679],[130.718947,32.80682],[130.719079,32.807006],[130.71937,32.807392],[130.719504,32.807495],[130.719699,32.807705],[130.719774,32.807756],[130.720002,32.807901],[130.720077,32.80797],[130.720101,32.808007],[130.720519,32.809047],[130.72058,32.809174],[130.72078,32.809571],[130.72089,32.80976],[130.720964,32.809865],[130.721045,32.809979],[130.721195,32.810152],[130.721455,32.810437],[130.721606,32.810585],[130.72171,32.810664],[130.721921,32.8108],[130.722152,32.810923],[130.722282,32.810981],[130.72238,32.811017],[130.722501,32.81105],[130.72267,32.811086],[130.722858,32.811113],[130.722961,32.811122],[130.723057,32.811116],[130.723236,32.811089],[130.723433,32.811046],[130.723591,32.811003],[130.723749,32.810949],[130.723894,32.810881],[130.724057,32.810792],[130.724207,32.810694],[130.725013,32.810073],[130.725217,32.80993],[130.725313,32.80988],[130.725493,32.809796],[130.725653,32.809744],[130.725794,32.809711],[130.72589,32.809691],[130.726022,32.809668],[130.726246,32.809646],[130.726581,32.80963],[130.726849,32.809628],[130.726981,32.809629],[130.727001,32.809629],[130.727132,32.809635],[130.727228,32.809644],[130.727353,32.809663],[130.727469,32.809688],[130.727517,32.809703],[130.727931,32.809076],[130.728214,32.809047],[130.728306,32.809009],[130.728429,32.809064],[130.728584,32.809096],[130.728872,32.809184],[130.729169,32.809279],[130.729234,32.809297],[130.729345,32.809312],[130.729474,32.809314],[130.729639,32.809313],[130.729991,32.809298],[130.73007,32.809294],[130.730276,32.809226],[130.730406,32.809178],[130.730603,32.80914],[130.730796,32.809135],[130.73121,32.80914],[130.731756,32.80915],[130.732119,32.809162],[130.732533,32.809186],[130.733019,32.809205],[130.733303,32.80922],[130.733394,32.809246],[130.733664,32.809355],[130.733949,32.809486],[130.734207,32.809599],[130.734472,32.809695],[130.734841,32.808916],[130.734974,32.808698],[130.73509,32.808528],[130.735256,32.808323],[130.735288,32.808287],[130.735392,32.808252],[130.735541,32.808207],[130.735778,32.808146],[130.735882,32.808169],[130.736192,32.808225],[130.736636,32.808315],[130.736831,32.808349],[130.737077,32.808381],[130.737326,32.808408],[130.737229,32.808507],[130.737217,32.808547],[130.737222,32.808564],[130.737241,32.80858],[130.737273,32.808591],[130.737401,32.808599],[130.737431,32.808591],[130.737461,32.808566],[130.737638,32.80845],[130.737821,32.808355],[130.738206,32.808328],[130.738788,32.808289],[130.739169,32.808342],[130.73972,32.808328],[130.739733,32.808258],[130.739865,32.808244],[130.739934,32.808238],[130.74003,32.808238],[130.740077,32.808247],[130.740109,32.808257],[130.740166,32.80828],[130.740264,32.808337],[130.74057,32.808484],[130.740632,32.808506],[130.740775,32.808532],[130.740954,32.808556],[130.741011,32.808538],[130.741059,32.808519],[130.741358,32.808425],[130.741416,32.808417],[130.741613,32.808417],[130.741838,32.808483],[130.742069,32.808466],[130.742125,32.808449],[130.742331,32.808381],[130.742537,32.808299],[130.742752,32.808275],[130.742968,32.80826],[130.743257,32.808237],[130.743534,32.808203],[130.743627,32.80819],[130.743716,32.808183],[130.743871,32.808175],[130.744076,32.808162],[130.74436,32.808141],[130.744574,32.808129],[130.744887,32.808106],[130.74532,32.808077],[130.745773,32.808048],[130.746064,32.808029],[130.746196,32.808022],[130.746285,32.808015],[130.746494,32.808004],[130.746575,32.807999],[130.746559,32.808115],[130.746558,32.808119],[130.746855,32.808306],[130.74679,32.80841],[130.746781,32.808611],[130.747045,32.808754],[130.747315,32.808893],[130.747555,32.809024],[130.747838,32.809182],[130.747955,32.809257],[130.74803,32.809511],[130.748387,32.810715],[130.748485,32.810772],[130.749408,32.811329],[130.749722,32.811524],[130.750264,32.81186],[130.749974,32.810893],[130.749112,32.808],[130.749054,32.807812],[130.748865,32.807174],[130.748728,32.806731],[130.74857,32.806203],[130.748279,32.806272],[130.748247,32.806178],[130.748164,32.80591],[130.748066,32.80559],[130.748011,32.805402],[130.747996,32.805352],[130.748068,32.805287],[130.748002,32.805065],[130.747919,32.804821],[130.747865,32.804658],[130.747798,32.80446],[130.747711,32.804196],[130.747639,32.803976],[130.747581,32.803801],[130.747505,32.803569],[130.747413,32.803284],[130.747342,32.803063],[130.747276,32.802868],[130.747219,32.802689],[130.747136,32.80242],[130.74706,32.802177],[130.746983,32.801935],[130.746915,32.801739],[130.746825,32.801472],[130.746766,32.801286],[130.746639,32.800908],[130.746634,32.800892],[130.746558,32.800672],[130.746529,32.800593],[130.746665,32.800514],[130.746491,32.800022],[130.746488,32.800015],[130.746263,32.799413],[130.745924,32.798427],[130.745795,32.798073],[130.745768,32.798059],[130.745587,32.797969],[130.745336,32.797903],[130.745464,32.797545],[130.745057,32.797543],[130.745123,32.797026],[130.744956,32.796765],[130.744791,32.796323],[130.744756,32.796224],[130.744734,32.796134],[130.744727,32.796042],[130.744725,32.795956],[130.744741,32.795842],[130.744787,32.795642],[130.744897,32.795219],[130.745529,32.794956],[130.745455,32.793743],[130.745973,32.793716],[130.745923,32.79332],[130.745864,32.793264],[130.74568,32.79323],[130.745809,32.792048],[130.745828,32.791202],[130.746083,32.790177],[130.746245,32.789705],[130.746557,32.789244],[130.746604,32.789248],[130.74683,32.788448],[130.747576,32.788471],[130.747576,32.788451],[130.748813,32.78847],[130.749146,32.788477],[130.749146,32.788447],[130.749328,32.788449],[130.749644,32.78847],[130.750019,32.788482],[130.750678,32.788507],[130.752601,32.78859],[130.753305,32.788626],[130.753943,32.788652],[130.754332,32.788673],[130.756465,32.788763],[130.757971,32.788836],[130.75864,32.788864],[130.759074,32.788885],[130.759749,32.78892],[130.76002,32.787474],[130.760089,32.787109],[130.760163,32.786699],[130.760297,32.786049],[130.760511,32.785007],[130.760774,32.783607],[130.760892,32.783015],[130.761054,32.782124],[130.761229,32.781265],[130.76136,32.78057],[130.761358,32.780392],[130.761664,32.780425],[130.761775,32.77945],[130.761864,32.778642],[130.762345,32.77861],[130.762799,32.778587],[130.767158,32.778272],[130.768207,32.778209],[130.770161,32.778107],[130.770727,32.778101],[130.771656,32.778082],[130.77211,32.778084],[130.77364,32.778073],[130.773644,32.77824],[130.774259,32.77823],[130.77488,32.778219],[130.774887,32.778219],[130.774898,32.778219],[130.776241,32.778195],[130.77624,32.778043],[130.776723,32.778056],[130.776973,32.778071],[130.777301,32.778088],[130.777937,32.778145],[130.778586,32.778229],[130.778871,32.778276],[130.77966,32.778425],[130.781157,32.778793],[130.782589,32.779153],[130.782686,32.778797],[130.782659,32.778784],[130.782782,32.77843],[130.781275,32.77805]],[[130.747579,32.787437],[130.74719,32.78743],[130.747286,32.787094],[130.747392,32.786678],[130.747525,32.78625],[130.747538,32.786187],[130.747587,32.78598],[130.747606,32.785857],[130.747613,32.785792],[130.747619,32.78568],[130.747617,32.785597],[130.747612,32.785503],[130.747589,32.785337],[130.747566,32.78525],[130.747513,32.785098],[130.747426,32.784839],[130.747034,32.783851],[130.748357,32.783463],[130.749566,32.783033],[130.753028,32.781755],[130.753769,32.781485],[130.754159,32.781338],[130.75747,32.780116],[130.75746,32.780089],[130.758095,32.779897],[130.757956,32.779744],[130.758912,32.779383],[130.759415,32.779192],[130.760152,32.778965],[130.760412,32.778905],[130.760933,32.778792],[130.760924,32.779311],[130.760927,32.780089],[130.760924,32.780143],[130.760843,32.780531],[130.760747,32.781047],[130.760615,32.7812],[130.760388,32.781188],[130.760395,32.781609],[130.760395,32.781639],[130.760384,32.781674],[130.760358,32.781709],[130.760312,32.781757],[130.760253,32.78181],[130.760216,32.781852],[130.760193,32.781887],[130.76017,32.781939],[130.760159,32.781969],[130.760152,32.781998],[130.760144,32.782032],[130.760141,32.782085],[130.760156,32.78234],[130.760178,32.782638],[130.760181,32.782725],[130.76018,32.782753],[130.760175,32.782792],[130.760159,32.782891],[130.760424,32.782992],[130.760294,32.783762],[130.760306,32.783777],[130.76023,32.78423],[130.760088,32.785026],[130.759927,32.786],[130.759793,32.786702],[130.759736,32.787102],[130.759635,32.787074],[130.759502,32.787749],[130.759502,32.787751],[130.759476,32.787892],[130.75788,32.78782],[130.753789,32.787632],[130.752984,32.787595],[130.750669,32.787495],[130.749237,32.787439],[130.749235,32.787474],[130.747579,32.787437]],[[130.739868,32.787314],[130.737638,32.787157],[130.737864,32.786992],[130.738758,32.786351],[130.739339,32.785933],[130.73965,32.78571],[130.739767,32.785626],[130.740096,32.78539],[130.740607,32.785022],[130.740909,32.784804],[130.741428,32.784421],[130.741696,32.784223],[130.742265,32.784255],[130.743355,32.784296],[130.744716,32.784352],[130.745688,32.784401],[130.745986,32.785178],[130.746096,32.785514],[130.746132,32.785642],[130.746124,32.785727],[130.74585,32.786675],[130.745825,32.786757],[130.7458,32.786849],[130.745614,32.78751],[130.743965,32.787481],[130.742514,32.787465],[130.74205,32.787457],[130.741644,32.787445],[130.741419,32.787431],[130.739868,32.787314]],[[130.741185,32.792775],[130.741101,32.792764],[130.739597,32.790414],[130.739366,32.790067],[130.739095,32.789651],[130.738911,32.78937],[130.738248,32.788359],[130.737975,32.787916],[130.739795,32.788054],[130.740986,32.788136],[130.741402,32.788168],[130.741639,32.788179],[130.741853,32.78819],[130.742113,32.788202],[130.743718,32.788222],[130.743932,32.788225],[130.745531,32.788243],[130.745516,32.788358],[130.744416,32.79254],[130.742649,32.792693],[130.74239,32.792711],[130.742053,32.792735],[130.741403,32.792774],[130.741324,32.792781],[130.741258,32.792782],[130.741185,32.792775]],[[130.737167,32.80729],[130.73696,32.807256],[130.737164,32.805402],[130.739337,32.805586],[130.739395,32.805542],[130.737885,32.80418],[130.73695,32.803349],[130.734688,32.801313],[130.73502,32.801033],[130.735181,32.800876],[130.735539,32.800406],[130.736396,32.800218],[130.736555,32.800183],[130.738512,32.799747],[130.739252,32.799588],[130.740164,32.799388],[130.741386,32.799126],[130.744695,32.798413],[130.74471,32.798436],[130.744443,32.798705],[130.744841,32.79977],[130.745006,32.8002],[130.745076,32.800407],[130.745161,32.800647],[130.745288,32.801005],[130.745423,32.801396],[130.745555,32.801777],[130.745665,32.802088],[130.745802,32.802473],[130.745932,32.802852],[130.746047,32.803173],[130.746165,32.803514],[130.746169,32.803525],[130.746279,32.803849],[130.74638,32.804112],[130.746435,32.804273],[130.746489,32.804424],[130.746573,32.80467],[130.74665,32.804921],[130.746699,32.805091],[130.746758,32.805275],[130.746815,32.805465],[130.746881,32.805684],[130.746926,32.805834],[130.747015,32.806123],[130.747059,32.806269],[130.747036,32.806297],[130.746894,32.806494],[130.746754,32.806666],[130.746585,32.806873],[130.746424,32.806882],[130.746012,32.806914],[130.745519,32.806951],[130.745068,32.806984],[130.744728,32.807012],[130.744335,32.807036],[130.744007,32.80706],[130.743776,32.807079],[130.743582,32.807093],[130.743502,32.807092],[130.743347,32.807091],[130.743062,32.807099],[130.742736,32.80712],[130.742374,32.807146],[130.742045,32.80717],[130.741805,32.807188],[130.741565,32.807204],[130.741362,32.807209],[130.741001,32.807216],[130.740171,32.807238],[130.739876,32.807251],[130.739146,32.807279],[130.7389,32.807293],[130.738189,32.807325],[130.737942,32.807327],[130.737445,32.807313],[130.737167,32.80729]]]}},{"type":"Feature","properties":{"AreaType":"準防火地域","AreaCode":25,"Pref":"熊本県","Citycode":"43100","Cityname":"熊本市"},"geometry":{"type":"Polygon","coordinates":[[[130.712301,32.805158],[130.713297,32.804902],[130.713085,32.804336],[130.712934,32.803937],[130.71259,32.803025],[130.711932,32.803213],[130.711488,32.80334],[130.711679,32.803666],[130.711698,32.803717],[130.711892,32.803666],[130.711903,32.803698],[130.711939,32.803793],[130.711941,32.803799],[130.71199,32.803935],[130.711991,32.803938],[130.712002,32.803968],[130.712043,32.803958],[130.712074,32.804045],[130.712107,32.804136],[130.712133,32.80421],[130.712143,32.804233],[130.712147,32.804244],[130.712078,32.804262],[130.712227,32.804775],[130.712238,32.804828],[130.712301,32.805158]]]}},{"type":"Feature","properties":{"AreaType":"準防火地域","AreaCode":25,"Pref":"熊本県","Citycode":"43100","Cityname":"熊本市"},"geometry":{"type":"Polygon","coordinates":[[[130.703518,32.802824],[130.703309,32.802749],[130.703189,32.802691],[130.703014,32.802609],[130.702701,32.802445],[130.702047,32.8021],[130.702314,32.801738],[130.701495,32.801257],[130.701439,32.80122],[130.701364,32.801155],[130.700674,32.800416],[130.700374,32.800101],[130.700351,32.800073],[130.700009,32.799657],[130.699874,32.799481],[130.699767,32.799301],[130.699729,32.799215],[130.699692,32.799096],[130.699666,32.799003],[130.69964,32.798848],[130.699619,32.798558],[130.70106,32.79836],[130.70204,32.798231],[130.701823,32.797054],[130.701792,32.796878],[130.701761,32.796709],[130.701738,32.796581],[130.701715,32.796444],[130.701684,32.796299],[130.701645,32.796109],[130.701611,32.795938],[130.701549,32.795956],[130.701298,32.794693],[130.701203,32.794221],[130.7012,32.794203],[130.701304,32.794058],[130.700692,32.793707],[130.700372,32.793547],[130.700177,32.793462],[130.69995,32.793361],[130.69981,32.793304],[130.699717,32.793269],[130.699654,32.793246],[130.699484,32.793185],[130.699366,32.793144],[130.699268,32.793113],[130.699164,32.793085],[130.699019,32.793046],[130.698845,32.793006],[130.698694,32.79298],[130.69835,32.792936],[130.698136,32.792915],[130.698063,32.792909],[130.697944,32.792905],[130.697793,32.792906],[130.697439,32.792914],[130.697239,32.792923],[130.697006,32.792933],[130.696711,32.792993],[130.696362,32.793055],[130.696173,32.793045],[130.695985,32.793007],[130.695896,32.793005],[130.695692,32.793002],[130.695512,32.792955],[130.695286,32.792884],[130.694585,32.792649],[130.694196,32.792519],[130.693958,32.792466],[130.693868,32.792436],[130.693611,32.792447],[130.693351,32.792179],[130.693088,32.79192],[130.69269,32.791529],[130.692657,32.791492],[130.692508,32.791211],[130.692401,32.790988],[130.692327,32.790811],[130.692241,32.79061],[130.692205,32.790488],[130.69221,32.790146],[130.692219,32.79001],[130.692211,32.789811],[130.692232,32.789788],[130.692307,32.789672],[130.692341,32.789601],[130.692368,32.789497],[130.692392,32.789394],[130.692405,32.789109],[130.69239,32.788985],[130.692469,32.788735],[130.692485,32.788398],[130.69251,32.788115],[130.692559,32.787737],[130.69253,32.787636],[130.692649,32.786903],[130.692722,32.786554],[130.692736,32.786324],[130.69279,32.785893],[130.692823,32.785586],[130.692848,32.785325],[130.692852,32.78522],[130.692851,32.78477],[130.692863,32.784428],[130.692854,32.784199],[130.692852,32.784132],[130.69285,32.784098],[130.692822,32.783937],[130.692816,32.783905],[130.692742,32.783499],[130.692696,32.783281],[130.692647,32.783068],[130.69255,32.782686],[130.692478,32.782451],[130.692457,32.782383],[130.692391,32.782153],[130.692367,32.782029],[130.692224,32.781649],[130.692073,32.781273],[130.692004,32.781112],[130.691961,32.781012],[130.691844,32.780733],[130.691751,32.780521],[130.691662,32.780328],[130.691534,32.780055],[130.691425,32.779838],[130.691317,32.779625],[130.691166,32.779338],[130.691165,32.779338],[130.690938,32.77941],[130.690582,32.779526],[130.690189,32.779651],[130.689802,32.779779],[130.689405,32.779902],[130.689093,32.780004],[130.688828,32.780084],[130.688828,32.780084],[130.688774,32.7801],[130.688442,32.780205],[130.688273,32.780267],[130.688025,32.780365],[130.687799,32.780475],[130.68756,32.78061],[130.687437,32.780685],[130.687355,32.780737],[130.687351,32.78074],[130.687187,32.780869],[130.687143,32.780908],[130.687033,32.781006],[130.686919,32.781106],[130.686804,32.781221],[130.686738,32.781292],[130.686625,32.781417],[130.686545,32.781517],[130.686459,32.781649],[130.686357,32.781815],[130.686299,32.781937],[130.686237,32.782083],[130.686184,32.78223],[130.686143,32.782357],[130.686105,32.782512],[130.686079,32.782627],[130.68604,32.782802],[130.685995,32.783031],[130.685954,32.783233],[130.685925,32.783445],[130.685908,32.783657],[130.685896,32.783803],[130.68589,32.783976],[130.685889,32.784034],[130.685797,32.784031],[130.684983,32.784012],[130.684481,32.784005],[130.684467,32.783663],[130.684435,32.783025],[130.684411,32.782321],[130.684383,32.781918],[130.68431,32.781386],[130.684243,32.780861],[130.684176,32.780336],[130.684145,32.780176],[130.684095,32.77988],[130.684028,32.77947],[130.683957,32.77912],[130.683897,32.778669],[130.683851,32.778253],[130.68332,32.778317],[130.683145,32.778339],[130.683191,32.778688],[130.683245,32.779079],[130.683288,32.779407],[130.683334,32.779761],[130.683378,32.780062],[130.683424,32.780369],[130.683468,32.780628],[130.683513,32.780935],[130.683558,32.781171],[130.683607,32.781511],[130.683648,32.781796],[130.683704,32.782183],[130.683334,32.782195],[130.683204,32.782203],[130.683051,32.78222],[130.682784,32.782263],[130.682752,32.782268],[130.682694,32.782279],[130.682568,32.782297],[130.682456,32.78231],[130.682336,32.782324],[130.682113,32.782349],[130.681967,32.782358],[130.681766,32.782364],[130.681468,32.782372],[130.681239,32.78237],[130.680889,32.782363],[130.680447,32.782358],[130.680416,32.782364],[130.680394,32.782371],[130.680395,32.782408],[130.680446,32.782568],[130.68046,32.782702],[130.680491,32.783054],[130.680514,32.783322],[130.680542,32.783607],[130.680558,32.783785],[130.680545,32.783842],[130.680516,32.783988],[130.680473,32.784162],[130.680467,32.784342],[130.680489,32.78458],[130.680873,32.784601],[130.681003,32.784607],[130.681271,32.784622],[130.6816,32.784639],[130.681944,32.784653],[130.68238,32.784674],[130.682605,32.784687],[130.682844,32.784693],[130.682921,32.784712],[130.683202,32.784751],[130.683449,32.784784],[130.683431,32.784869],[130.68337,32.785084],[130.683326,32.785251],[130.683302,32.785358],[130.68331,32.785394],[130.683395,32.785347],[130.683798,32.785103],[130.683822,32.785147],[130.683892,32.785278],[130.683967,32.785399],[130.684051,32.785493],[130.684122,32.785563],[130.684236,32.785668],[130.68428,32.785699],[130.684363,32.78575],[130.684443,32.785794],[130.684545,32.785848],[130.684635,32.785891],[130.684731,32.785919],[130.684892,32.785966],[130.685055,32.786013],[130.68521,32.786053],[130.685344,32.785843],[130.685463,32.785914],[130.685571,32.785992],[130.685703,32.786111],[130.68582,32.78624],[130.685915,32.786379],[130.68599,32.786523],[130.686049,32.786671],[130.686084,32.786823],[130.686099,32.786937],[130.686107,32.787068],[130.686125,32.787274],[130.686142,32.787473],[130.686153,32.787548],[130.68618,32.787698],[130.686244,32.788025],[130.6863,32.788352],[130.686351,32.788617],[130.686496,32.789218],[130.686528,32.789358],[130.686542,32.789506],[130.686538,32.789648],[130.686508,32.78985],[130.686468,32.790146],[130.686431,32.790408],[130.686422,32.790565],[130.686418,32.790753],[130.68643,32.790922],[130.686447,32.791046],[130.68648,32.791163],[130.686527,32.791287],[130.686578,32.791404],[130.686634,32.791523],[130.68672,32.791696],[130.686834,32.791943],[130.686903,32.79208],[130.68711,32.792499],[130.687207,32.792666],[130.687283,32.792781],[130.687363,32.792883],[130.687478,32.793025],[130.687511,32.793057],[130.687559,32.7931],[130.687614,32.793137],[130.687676,32.793174],[130.687718,32.793194],[130.687767,32.793207],[130.688065,32.793246],[130.688875,32.79332],[130.6894,32.793376],[130.689588,32.793394],[130.689781,32.793416],[130.689868,32.793423],[130.689909,32.793424],[130.689953,32.79342],[130.690004,32.793403],[130.690395,32.793292],[130.690462,32.793276],[130.690524,32.79327],[130.690584,32.793272],[130.69063,32.793275],[130.69073,32.793296],[130.690866,32.79333],[130.691256,32.793447],[130.691319,32.793459],[130.691561,32.793415],[130.691744,32.793586],[130.69188,32.793714],[130.692013,32.793838],[130.692182,32.793985],[130.692373,32.794175],[130.692579,32.794401],[130.692707,32.794556],[130.69288,32.794806],[130.693081,32.795182],[130.693108,32.795248],[130.693258,32.795636],[130.693331,32.795893],[130.693643,32.79707],[130.693818,32.797706],[130.693916,32.798096],[130.694046,32.798592],[130.69422,32.799262],[130.694264,32.79944],[130.694317,32.799764],[130.694351,32.800085],[130.694358,32.802195],[130.694353,32.802981],[130.694351,32.803493],[130.694342,32.804764],[130.694346,32.804956],[130.694355,32.805211],[130.694375,32.805578],[130.694407,32.805803],[130.694435,32.805962],[130.694514,32.806278],[130.694621,32.806619],[130.694752,32.806945],[130.69487,32.807281],[130.694995,32.807584],[130.695302,32.808318],[130.695535,32.808896],[130.695705,32.809328],[130.695912,32.809826],[130.696142,32.810386],[130.696231,32.810621],[130.696438,32.81113],[130.696725,32.811825],[130.697142,32.812844],[130.69732,32.813297],[130.69742,32.813547],[130.6972,32.81362],[130.695671,32.814111],[130.69458,32.814462],[130.693567,32.814773],[130.692642,32.815053],[130.692533,32.815093],[130.692527,32.815143],[130.692513,32.815213],[130.692499,32.815261],[130.692475,32.815307],[130.692437,32.815364],[130.692491,32.815484],[130.692505,32.815516],[130.692507,32.815546],[130.692505,32.815566],[130.692453,32.815763],[130.692758,32.815672],[130.693538,32.815453],[130.694828,32.81504],[130.695927,32.814696],[130.697693,32.814141],[130.698125,32.815215],[130.698615,32.816389],[130.699334,32.81811],[130.699589,32.818779],[130.699687,32.819077],[130.699768,32.819372],[130.699804,32.819627],[130.699824,32.819909],[130.699823,32.820681],[130.700693,32.820834],[130.700752,32.820549],[130.700772,32.820436],[130.700803,32.820147],[130.70082,32.819903],[130.700824,32.819856],[130.700826,32.819828],[130.700818,32.819794],[130.700802,32.819755],[130.700754,32.819675],[130.700675,32.819451],[130.700636,32.819369],[130.700581,32.819299],[130.700526,32.819224],[130.700486,32.81918],[130.70044,32.819154],[130.700416,32.819141],[130.700401,32.819117],[130.70038,32.81906],[130.700358,32.819024],[130.700325,32.818991],[130.700281,32.818958],[130.70019,32.818906],[130.700124,32.818887],[130.700046,32.818871],[130.699962,32.818597],[130.6999,32.818397],[130.699968,32.818239],[130.700033,32.818046],[130.700176,32.817722],[130.700196,32.817696],[130.700089,32.817583],[130.699815,32.817327],[130.699612,32.817129],[130.699559,32.817069],[130.699539,32.817034],[130.699511,32.816955],[130.699478,32.816811],[130.699467,32.816698],[130.699466,32.816588],[130.699481,32.816511],[130.69949,32.816479],[130.699625,32.816183],[130.699877,32.815611],[130.700261,32.814762],[130.700645,32.813893],[130.700764,32.813629],[130.701584,32.811702],[130.70196,32.810842],[130.702131,32.810461],[130.702239,32.810213],[130.702206,32.810223],[130.698632,32.811367],[130.69828,32.811479],[130.698055,32.81093],[130.696632,32.807409],[130.696598,32.807319],[130.696593,32.807306],[130.696375,32.806783],[130.696374,32.806778],[130.696344,32.80671],[130.697106,32.805938],[130.69865,32.805891],[130.698771,32.805888],[130.698651,32.805474],[130.698486,32.804902],[130.698572,32.804079],[130.698656,32.804078],[130.698895,32.804073],[130.698993,32.804256],[130.699094,32.804393],[130.699224,32.804503],[130.699395,32.804605],[130.699539,32.804674],[130.699696,32.804756],[130.699893,32.804837],[130.700044,32.804906],[130.70024,32.804976],[130.700454,32.805036],[130.70062,32.805053],[130.700746,32.805067],[130.700911,32.805081],[130.701058,32.805094],[130.70122,32.80509],[130.701444,32.80504],[130.701684,32.804979],[130.70191,32.804895],[130.702184,32.804757],[130.702364,32.804638],[130.702595,32.804508],[130.702777,32.804375],[130.702886,32.80423],[130.702588,32.804074],[130.703518,32.802824]]]}},{"type":"Feature","properties":{"AreaType":"防火地域","AreaCode":24,"Pref":"熊本県","Citycode":"43100","Cityname":"熊本市"},"geometry":{"type":"Polygon","coordinates":[[[130.714221,32.808698],[130.715659,32.80857],[130.715569,32.807837],[130.715534,32.807541],[130.715534,32.807536],[130.715533,32.807529],[130.715495,32.8072],[130.715328,32.806047],[130.71453,32.806235],[130.71415,32.805239],[130.713971,32.804729],[130.714794,32.804504],[130.714471,32.803634],[130.714303,32.803175],[130.714865,32.803011],[130.714878,32.803009],[130.714899,32.803006],[130.714912,32.803002],[130.715016,32.802952],[130.715184,32.802872],[130.714979,32.80262],[130.714826,32.802433],[130.714668,32.802234],[130.714455,32.801965],[130.714419,32.801913],[130.714396,32.801885],[130.714372,32.801869],[130.714353,32.801857],[130.714329,32.80184],[130.714297,32.801815],[130.71428,32.801798],[130.71427,32.801776],[130.714258,32.801746],[130.714245,32.801695],[130.71342,32.80073],[130.713362,32.800658],[130.713199,32.800493],[130.713143,32.800434],[130.713086,32.800375],[130.713024,32.800297],[130.712967,32.800229],[130.712799,32.800166],[130.712766,32.80013],[130.71239,32.799767],[130.712104,32.799508],[130.71208,32.799467],[130.711985,32.799393],[130.711954,32.799369],[130.711861,32.799353],[130.711836,32.799356],[130.711757,32.799299],[130.711617,32.799166],[130.71134,32.798907],[130.711063,32.798661],[130.71062,32.798257],[130.710489,32.798158],[130.710203,32.797954],[130.710139,32.797907],[130.710074,32.797864],[130.709976,32.797811],[130.709915,32.797781],[130.709834,32.797741],[130.709719,32.797693],[130.709469,32.797587],[130.709466,32.797574],[130.709439,32.797554],[130.7094,32.79754],[130.70927,32.797485],[130.709247,32.797489],[130.709034,32.797406],[130.70864,32.797246],[130.708484,32.797185],[130.708237,32.797097],[130.707958,32.797027],[130.707753,32.796969],[130.707557,32.796912],[130.707294,32.796835],[130.707197,32.796807],[130.707185,32.796804],[130.707136,32.796774],[130.706937,32.79668],[130.70692,32.796675],[130.706896,32.796716],[130.706754,32.796687],[130.706245,32.796545],[130.705452,32.796299],[130.705393,32.796278],[130.705454,32.796149],[130.70543,32.796121],[130.7054,32.796098],[130.704661,32.795809],[130.704316,32.795708],[130.702963,32.795039],[130.702928,32.795004],[130.702571,32.794837],[130.702347,32.794727],[130.702289,32.794673],[130.70226,32.794622],[130.702245,32.794558],[130.701953,32.794443],[130.701706,32.794294],[130.701683,32.79428],[130.701654,32.79426],[130.701596,32.794228],[130.701512,32.794183],[130.701304,32.794058],[130.7012,32.794203],[130.701203,32.794221],[130.701298,32.794693],[130.701549,32.795956],[130.701611,32.795938],[130.701645,32.796109],[130.701684,32.796299],[130.701715,32.796444],[130.701738,32.796581],[130.701761,32.796709],[130.701792,32.796878],[130.701823,32.797054],[130.70204,32.798231],[130.70106,32.79836],[130.699619,32.798558],[130.69964,32.798848],[130.699666,32.799003],[130.699692,32.799096],[130.699729,32.799215],[130.699767,32.799301],[130.699874,32.799481],[130.700009,32.799657],[130.700351,32.800073],[130.700374,32.800101],[130.700674,32.800416],[130.701364,32.801155],[130.701439,32.80122],[130.701495,32.801257],[130.702314,32.801738],[130.702454,32.801817],[130.703335,32.802262],[130.703672,32.802427],[130.703891,32.802537],[130.704499,32.802775],[130.705196,32.802955],[130.706477,32.803359],[130.70664,32.80341],[130.707115,32.803553],[130.707174,32.803577],[130.707223,32.803604],[130.707275,32.803632],[130.707317,32.803659],[130.707355,32.803692],[130.707389,32.803727],[130.707455,32.80379],[130.707561,32.803893],[130.707725,32.804056],[130.707981,32.804342],[130.70803,32.804394],[130.708094,32.804452],[130.708178,32.804529],[130.70816,32.804567],[130.708136,32.804689],[130.70813,32.804934],[130.708131,32.805195],[130.708117,32.805927],[130.708118,32.806202],[130.707891,32.806555],[130.707757,32.806685],[130.707629,32.806759],[130.707429,32.806829],[130.707063,32.806952],[130.706757,32.807031],[130.706366,32.80714],[130.706165,32.807205],[130.706079,32.807247],[130.70601,32.807331],[130.70592,32.807574],[130.70584,32.807785],[130.705743,32.807912],[130.705607,32.808024],[130.705445,32.808167],[130.705322,32.808289],[130.70523,32.808445],[130.705148,32.808629],[130.705082,32.808829],[130.705047,32.809063],[130.705077,32.809254],[130.705144,32.809489],[130.705184,32.809647],[130.705317,32.809612],[130.705435,32.809589],[130.705707,32.809549],[130.705708,32.809383],[130.705749,32.809222],[130.705792,32.809169],[130.705872,32.809107],[130.706028,32.809009],[130.706151,32.80895],[130.706294,32.808917],[130.706378,32.808924],[130.706783,32.808989],[130.706986,32.809019],[130.707091,32.809016],[130.707165,32.80898],[130.707244,32.808912],[130.70731,32.808791],[130.707357,32.80862],[130.707355,32.808546],[130.707328,32.808483],[130.707148,32.808273],[130.707088,32.808209],[130.707067,32.808162],[130.707006,32.808008],[130.707003,32.807941],[130.707035,32.807893],[130.707109,32.807864],[130.707187,32.807865],[130.707499,32.807855],[130.70759,32.807839],[130.70766,32.807815],[130.707707,32.807763],[130.707724,32.807688],[130.707715,32.807502],[130.707743,32.807342],[130.707781,32.807236],[130.707832,32.807179],[130.707897,32.807146],[130.707987,32.807135],[130.708134,32.807133],[130.70828,32.807155],[130.708411,32.807199],[130.708595,32.807273],[130.708818,32.807386],[130.709104,32.807526],[130.709178,32.807558],[130.709219,32.80757],[130.709342,32.807595],[130.70937,32.807526],[130.709554,32.807578],[130.709576,32.807513],[130.709615,32.807424],[130.709654,32.807352],[130.709916,32.806885],[130.709952,32.806826],[130.709975,32.806767],[130.709988,32.806719],[130.709993,32.806675],[130.709994,32.806629],[130.709989,32.806573],[130.709976,32.806514],[130.709958,32.806455],[130.70994,32.806418],[130.709912,32.806364],[130.709807,32.806235],[130.709666,32.806114],[130.70959,32.806034],[130.710668,32.805724],[130.710807,32.805873],[130.711124,32.806734],[130.711284,32.807181],[130.711355,32.807358],[130.711419,32.807545],[130.711592,32.808342],[130.711659,32.808644],[130.711907,32.808589],[130.711967,32.809109],[130.712432,32.809055],[130.712783,32.809007],[130.712817,32.809362],[130.713522,32.809306],[130.71393,32.80927],[130.714276,32.80924],[130.714221,32.808698]],[[130.712301,32.805158],[130.712238,32.804828],[130.712227,32.804775],[130.712078,32.804262],[130.712147,32.804244],[130.712143,32.804233],[130.712133,32.80421],[130.712107,32.804136],[130.712074,32.804045],[130.712043,32.803958],[130.712002,32.803968],[130.711991,32.803938],[130.71199,32.803935],[130.711941,32.803799],[130.711939,32.803793],[130.711903,32.803698],[130.711892,32.803666],[130.711698,32.803717],[130.711679,32.803666],[130.711488,32.80334],[130.711932,32.803213],[130.71259,32.803025],[130.712934,32.803937],[130.713085,32.804336],[130.713297,32.804902],[130.712301,32.805158]],[[130.714183,32.808216],[130.713475,32.808285],[130.713401,32.807869],[130.713305,32.807532],[130.713245,32.807253],[130.712946,32.806651],[130.712622,32.806052],[130.713624,32.805806],[130.713854,32.806413],[130.713776,32.806435],[130.713884,32.806674],[130.71396,32.806926],[130.714044,32.807196],[130.714085,32.807372],[130.714152,32.807988],[130.714183,32.808216]]]}},{"type":"Feature","properties":{"AreaType":"防火地域","AreaCode":24,"Pref":"熊本県","Citycode":"43202","Cityname":"八代市"},"geometry":{"type":"Polygon","coordinates":[[[130.571637,32.432765],[130.572359,32.433144],[130.572374,32.433224],[130.573596,32.433888],[130.573533,32.433974],[130.574009,32.434213],[130.574095,32.434112],[130.574538,32.434338],[130.574863,32.433973],[130.575694,32.433197],[130.57598,32.432999],[130.575888,32.432908],[130.576237,32.432587],[130.575226,32.432102],[130.574847,32.432438],[130.574735,32.432336],[130.574606,32.432242],[130.574464,32.432161],[130.574242,32.432063],[130.574115,32.432013],[130.573935,32.431949],[130.573633,32.431931],[130.573415,32.431939],[130.573032,32.431976],[130.572967,32.43198],[130.572964,32.432207],[130.573026,32.432205],[130.573026,32.432338],[130.573233,32.432352],[130.573383,32.432373],[130.573341,32.432768],[130.573191,32.432714],[130.572047,32.432213],[130.571637,32.432765]]]}},{"type":"Feature","properties":{"AreaType":"準防火地域","AreaCode":25,"Pref":"熊本県","Citycode":"43202","Cityname":"八代市"},"geometry":{"type":"Polygon","coordinates":[[[130.57153,32.432907],[130.571532,32.432925],[130.571553,32.432922],[130.57153,32.432907]]]}},{"type":"Feature","properties":{"AreaType":"準防火地域","AreaCode":25,"Pref":"熊本県","Citycode":"43202","Cityname":"八代市"},"geometry":{"type":"Polygon","coordinates":[[[130.568843,32.430508],[130.56898,32.4306],[130.569272,32.431159],[130.569292,32.431255],[130.569333,32.431308],[130.569388,32.431387],[130.57153,32.432907],[130.571507,32.432584],[130.571521,32.432382],[130.571554,32.432203],[130.57187,32.432414],[130.571918,32.432458],[130.572066,32.432211],[130.573316,32.432731],[130.573334,32.432494],[130.573064,32.432235],[130.573006,32.431956],[130.572863,32.431972],[130.572764,32.431966],[130.572593,32.431938],[130.572467,32.431915],[130.572335,32.431864],[130.571189,32.43111],[130.571388,32.430903],[130.571388,32.430847],[130.571388,32.430791],[130.570953,32.430566],[130.570226,32.430592],[130.569882,32.430568],[130.569506,32.430522],[130.569215,32.430465],[130.568981,32.430389],[130.568843,32.430508]]]}},{"type":"Feature","properties":{"AreaType":"準防火地域","AreaCode":25,"Pref":"熊本県","Citycode":"43202","Cityname":"八代市"},"geometry":{"type":"Polygon","coordinates":[[[130.57348,32.431914],[130.573657,32.431915],[130.573903,32.431923],[130.57408,32.431981],[130.574359,32.432096],[130.574621,32.432234],[130.57489,32.432464],[130.575357,32.432164],[130.576295,32.432504],[130.576357,32.432432],[130.575394,32.432115],[130.575467,32.431886],[130.575482,32.431555],[130.575295,32.43146],[130.574987,32.431302],[130.574954,32.431341],[130.574947,32.43143],[130.574973,32.43161],[130.575002,32.431705],[130.574995,32.431777],[130.574954,32.43184],[130.574894,32.431855],[130.574857,32.431877],[130.574794,32.431909],[130.574705,32.431877],[130.574313,32.431721],[130.574206,32.431658],[130.57415,32.43163],[130.574117,32.431545],[130.574055,32.431371],[130.574023,32.431237],[130.573937,32.431108],[130.573838,32.431029],[130.573739,32.431062],[130.573673,32.431124],[130.573633,32.431247],[130.573624,32.431908],[130.57348,32.431914]]]}},{"type":"Feature","properties":{"AreaType":"準防火地域","AreaCode":25,"Pref":"熊本県","Citycode":"43202","Cityname":"八代市"},"geometry":{"type":"Polygon","coordinates":[[[130.57452,32.434319],[130.574704,32.434436],[130.575062,32.434057],[130.575471,32.434215],[130.575418,32.434455],[130.577767,32.43532],[130.580109,32.436123],[130.580254,32.436179],[130.583405,32.438317],[130.58373,32.437859],[130.582064,32.436487],[130.580798,32.435643],[130.579551,32.435191],[130.579182,32.434989],[130.578797,32.434755],[130.578555,32.43466],[130.577928,32.433903],[130.577806,32.433745],[130.577704,32.43366],[130.577618,32.433522],[130.577373,32.433597],[130.577168,32.433641],[130.576828,32.43362],[130.576367,32.433344],[130.576334,32.433255],[130.575887,32.43289],[130.575988,32.433034],[130.575725,32.433212],[130.575666,32.433169],[130.57452,32.434319]]]}},{"type":"Feature","properties":{"AreaType":"準防火地域","AreaCode":25,"Pref":"熊本県","Citycode":"43202","Cityname":"八代市"},"geometry":{"type":"Polygon","coordinates":[[[130.588464,32.506079],[130.589488,32.508048],[130.589366,32.508602],[130.589432,32.508613],[130.589678,32.508401],[130.590294,32.508152],[130.590564,32.508483],[130.590683,32.508528],[130.591026,32.508574],[130.592275,32.508747],[130.592202,32.509015],[130.592598,32.5091],[130.593077,32.510087],[130.593619,32.510022],[130.593638,32.510403],[130.594981,32.5101],[130.59508,32.510106],[130.595688,32.510265],[130.595934,32.509991],[130.595902,32.509812],[130.596241,32.509343],[130.596112,32.506722],[130.599413,32.5066],[130.599657,32.506735],[130.6009,32.506694],[130.601131,32.506807],[130.603459,32.506703],[130.603628,32.509346],[130.606796,32.509251],[130.606821,32.50938],[130.607547,32.509869],[130.607653,32.509892],[130.60797,32.509899],[130.608069,32.509949],[130.608181,32.510084],[130.60841,32.5106],[130.610615,32.510036],[130.610831,32.510496],[130.612897,32.509787],[130.613627,32.511054],[130.613811,32.51129],[130.614108,32.511521],[130.614629,32.51173],[130.614669,32.511735],[130.616575,32.50789],[130.616854,32.507454],[130.61728,32.506834],[130.617539,32.506499],[130.617984,32.506086],[130.618719,32.505635],[130.618536,32.505271],[130.619118,32.505043],[130.619251,32.504954],[130.62012,32.50419],[130.621703,32.503434],[130.622372,32.503083],[130.622412,32.503061],[130.623763,32.502741],[130.62479,32.502224],[130.624513,32.501836],[130.62542,32.501705],[130.625949,32.501623],[130.626347,32.501484],[130.626532,32.501406],[130.626481,32.500727],[130.626012,32.500755],[130.625483,32.500809],[130.625132,32.500848],[130.624709,32.500857],[130.624497,32.50084],[130.623935,32.500838],[130.622798,32.500739],[130.622329,32.500681],[130.622091,32.500619],[130.621873,32.500562],[130.619356,32.50169],[130.611595,32.502885],[130.611147,32.500806],[130.610439,32.50091],[130.610893,32.503011],[130.606592,32.503719],[130.606547,32.503528],[130.605978,32.50361],[130.605497,32.503239],[130.604982,32.502924],[130.604832,32.502375],[130.604058,32.502529],[130.603674,32.502544],[130.602153,32.502567],[130.600738,32.502517],[130.599509,32.502423],[130.59826,32.502268],[130.597016,32.501971],[130.5962,32.501932],[130.595764,32.501991],[130.594914,32.502122],[130.593942,32.502275],[130.594,32.502628],[130.593549,32.50299],[130.59325,32.503146],[130.593078,32.503324],[130.593031,32.503414],[130.593063,32.503593],[130.59305,32.503711],[130.592818,32.503839],[130.592718,32.503967],[130.592532,32.504229],[130.592419,32.504419],[130.592365,32.504498],[130.592133,32.50467],[130.591974,32.504731],[130.591418,32.504959],[130.591027,32.505249],[130.59096,32.505316],[130.590907,32.505472],[130.590794,32.505533],[130.590629,32.505589],[130.59041,32.505599],[130.589829,32.505547],[130.589736,32.505563],[130.588881,32.505913],[130.588464,32.506079]]]}},{"type":"Feature","properties":{"AreaType":"準防火地域","AreaCode":25,"Pref":"熊本県","Citycode":"43202","Cityname":"八代市"},"geometry":{"type":"Polygon","coordinates":[[[130.59837,32.500278],[130.599752,32.500361],[130.599792,32.499446],[130.599972,32.49906],[130.600124,32.494965],[130.59914,32.494744],[130.598871,32.495638],[130.598757,32.497793],[130.59837,32.500278]]]}},{"type":"Feature","properties":{"AreaType":"準防火地域","AreaCode":25,"Pref":"熊本県","Citycode":"43208","Cityname":"山鹿市"},"geometry":{"type":"Polygon","coordinates":[[[130.691216,33.014134],[130.691092,33.014129],[130.690447,33.014123],[130.690304,33.014119],[130.690237,33.014114],[130.690036,33.014085],[130.690014,33.014068],[130.68993,33.01408],[130.689674,33.014075],[130.689661,33.014072],[130.689642,33.014056],[130.68956,33.013741],[130.689345,33.013829],[130.689227,33.013875],[130.689114,33.013548],[130.689037,33.013336],[130.688895,33.013338],[130.688874,33.013199],[130.688736,33.013164],[130.688731,33.013079],[130.688171,33.013142],[130.688204,33.013351],[130.688284,33.013603],[130.68857,33.014222],[130.689405,33.014238],[130.689406,33.014855],[130.691168,33.014963],[130.691216,33.014134]]]}}]}