{"type":"FeatureCollection","features":[{"type":"Feature","geometry":{"type":"Polygon","coordinates":[[[130.630582,32.914646],[130.630509,32.914319],[130.630457,32.914086],[130.630396,32.914043],[130.629981,32.914053],[130.629769,32.914057],[130.62962,32.91406],[130.629598,32.914059],[130.629514,32.914054],[130.629222,32.91402],[130.628968,32.914],[130.628768,32.913981],[130.628531,32.913958],[130.628492,32.913959],[130.628422,32.913959],[130.628335,32.913981],[130.628259,32.914016],[130.628161,32.914105],[130.628017,32.91425],[130.627876,32.914399],[130.627779,32.914484],[130.627688,32.914543],[130.627612,32.914573],[130.627545,32.914597],[130.627468,32.914615],[130.627353,32.914626],[130.627213,32.914639],[130.626992,32.914658],[130.626614,32.914691],[130.626404,32.914712],[130.626239,32.914726],[130.626167,32.914736],[130.626007,32.914771],[130.625844,32.914818],[130.625696,32.914878],[130.625586,32.914928],[130.625346,32.915034],[130.625236,32.915098],[130.625138,32.915171],[130.625094,32.915255],[130.625092,32.915288],[130.625122,32.915499],[130.62516,32.915649],[130.625224,32.915905],[130.625297,32.916164],[130.625355,32.916347],[130.625369,32.916441],[130.62537,32.916509],[130.625371,32.916542],[130.625365,32.916583],[130.625315,32.916744],[130.625355,32.91672],[130.625475,32.916668],[130.625959,32.916408],[130.626112,32.916328],[130.626443,32.916164],[130.626473,32.916175],[130.626871,32.915964],[130.627299,32.915736],[130.62769,32.91557],[130.628164,32.915399],[130.628358,32.915342],[130.628853,32.915217],[130.629061,32.915183],[130.629061,32.915107],[130.629334,32.915117],[130.629441,32.915109],[130.629661,32.915091],[130.629848,32.915084],[130.630002,32.915081],[130.630189,32.915062],[130.630402,32.915052],[130.630674,32.915035],[130.630626,32.91486],[130.630582,32.914646]]]},"properties":{"TokeiName":"準都市計画区域","TokeiType":"準都市計画区域","Pref":"熊本県","Cityname":"玉東町"}}]}