{"type":"FeatureCollection","features":[{"type":"Feature","properties":{"DistType":"高度利用地区","DistCode":19,"Pref":"熊本県","Citycode":"43100","Cityname":"熊本市"},"geometry":{"type":"Polygon","coordinates":[[[130.690501,32.790429],[130.690466,32.790474],[130.690423,32.790527],[130.690405,32.790539],[130.690135,32.790595],[130.69017,32.790776],[130.690219,32.790945],[130.690257,32.79103],[130.690294,32.791115],[130.690362,32.791234],[130.690456,32.791205],[130.690638,32.791157],[130.690805,32.791131],[130.691024,32.791073],[130.691153,32.790933],[130.691089,32.790886],[130.69096,32.79079],[130.690623,32.790539],[130.690577,32.790501],[130.690501,32.790429]]]}},{"type":"Feature","properties":{"DistType":"高度利用地区","DistCode":19,"Pref":"熊本県","Citycode":"43100","Cityname":"熊本市"},"geometry":{"type":"Polygon","coordinates":[[[130.711833,32.802592],[130.713024,32.802259],[130.712767,32.801542],[130.711553,32.801884],[130.711833,32.802592]]]}},{"type":"Feature","properties":{"DistType":"高度利用地区","DistCode":19,"Pref":"熊本県","Citycode":"43100","Cityname":"熊本市"},"geometry":{"type":"Polygon","coordinates":[[[130.711047,32.803891],[130.711699,32.803718],[130.711884,32.803669],[130.711994,32.80364],[130.711741,32.803154],[130.711541,32.802853],[130.71147,32.802693],[130.710379,32.803011],[130.710562,32.803497],[130.710795,32.803432],[130.710864,32.803597],[130.710898,32.803584],[130.710954,32.803724],[130.710983,32.803719],[130.711047,32.803891]]]}},{"type":"Feature","properties":{"DistType":"高度利用地区","DistCode":19,"Pref":"熊本県","Citycode":"43100","Cityname":"熊本市"},"geometry":{"type":"Polygon","coordinates":[[[130.691089,32.790886],[130.691217,32.790758],[130.691276,32.790704],[130.691652,32.790624],[130.691641,32.790585],[130.691779,32.79038],[130.691808,32.790353],[130.691739,32.790275],[130.69174,32.790265],[130.691729,32.790249],[130.691738,32.790241],[130.691695,32.790194],[130.691666,32.790174],[130.691636,32.790156],[130.691685,32.790098],[130.691761,32.790047],[130.691771,32.790031],[130.691795,32.789873],[130.691795,32.789869],[130.6918,32.789813],[130.691803,32.789787],[130.691808,32.789711],[130.691167,32.789676],[130.690919,32.789676],[130.690785,32.789684],[130.690671,32.789702],[130.690564,32.789721],[130.690407,32.789761],[130.690278,32.7898],[130.690085,32.789873],[130.690191,32.790025],[130.690277,32.790151],[130.690379,32.790285],[130.690425,32.79034],[130.690471,32.790396],[130.690501,32.790429],[130.690577,32.790501],[130.690623,32.790539],[130.69096,32.79079],[130.691089,32.790886]]]}},{"type":"Feature","properties":{"DistType":"高度利用地区","DistCode":19,"Pref":"熊本県","Citycode":"43100","Cityname":"熊本市"},"geometry":{"type":"Polygon","coordinates":[[[130.702867,32.801385],[130.702921,32.801308],[130.702908,32.801264],[130.703166,32.800902],[130.704248,32.800758],[130.704254,32.800793],[130.704339,32.800782],[130.704481,32.800763],[130.704239,32.799479],[130.704212,32.799335],[130.704004,32.799364],[130.703071,32.799493],[130.702816,32.799506],[130.701934,32.799624],[130.701874,32.799632],[130.70189,32.799716],[130.702114,32.800906],[130.702132,32.801005],[130.702149,32.801014],[130.702559,32.801216],[130.702743,32.801323],[130.702867,32.801385]]]}}]}