{"type":"FeatureCollection","features":[{"type":"Feature","properties":{"DistName":"富合町中心市街地","DistType":"土地区画整理事業","DistCode":1,"Pref":"熊本県","Citycode":"43100","Cityname":"熊本市"},"geometry":{"type":"Polygon","coordinates":[[[130.68162,32.717549],[130.681586,32.717551],[130.681567,32.717552],[130.68155,32.717618],[130.681518,32.717588],[130.681473,32.717539],[130.681442,32.717506],[130.681457,32.717536],[130.681192,32.717539],[130.681143,32.717539],[130.681141,32.717327],[130.680996,32.717328],[130.680996,32.717313],[130.68099,32.717028],[130.681176,32.717224],[130.68117,32.717144],[130.681167,32.7171],[130.681152,32.716899],[130.681151,32.716885],[130.68102,32.716899],[130.68094,32.716902],[130.680847,32.716881],[130.680826,32.716876],[130.680632,32.716837],[130.680389,32.716784],[130.68046,32.716514],[130.680473,32.716483],[130.680419,32.716426],[130.680303,32.716305],[130.680218,32.716217],[130.680196,32.716196],[130.680188,32.716211],[130.680179,32.716224],[130.680151,32.716252],[130.680122,32.716268],[130.680091,32.716278],[130.680079,32.71628],[130.679995,32.716291],[130.679982,32.71629],[130.679897,32.716273],[130.67975,32.716243],[130.679564,32.716209],[130.679606,32.716045],[130.67964,32.715916],[130.679491,32.715894],[130.679503,32.715705],[130.679752,32.715747],[130.679771,32.71575],[130.679752,32.715729],[130.6797,32.715674],[130.6797,32.715594],[130.679695,32.715578],[130.679725,32.715493],[130.679739,32.715443],[130.679753,32.715374],[130.679753,32.715355],[130.679679,32.715348],[130.679659,32.715345],[130.679657,32.715368],[130.679661,32.715368],[130.679667,32.715383],[130.679668,32.715395],[130.679669,32.715414],[130.679665,32.715435],[130.679657,32.71546],[130.679648,32.715487],[130.679644,32.715503],[130.679595,32.715543],[130.679538,32.715538],[130.679262,32.715624],[130.679245,32.715634],[130.679226,32.71565],[130.679186,32.715704],[130.679162,32.715742],[130.679092,32.715906],[130.679023,32.716085],[130.678947,32.716286],[130.678911,32.716345],[130.678909,32.716359],[130.678862,32.716528],[130.678818,32.716614],[130.678759,32.716734],[130.6787,32.716856],[130.678695,32.716867],[130.678675,32.716942],[130.678648,32.717055],[130.678607,32.717119],[130.678576,32.717157],[130.678533,32.71719],[130.678499,32.717212],[130.678474,32.717226],[130.678393,32.717266],[130.678321,32.717305],[130.678185,32.717397],[130.677955,32.717533],[130.677683,32.717681],[130.677721,32.717951],[130.677762,32.718291],[130.67777,32.718386],[130.677703,32.718389],[130.677691,32.718386],[130.677569,32.718882],[130.677555,32.718939],[130.677548,32.718981],[130.677556,32.718983],[130.67763,32.718994],[130.677823,32.719024],[130.677952,32.719048],[130.677877,32.719361],[130.677871,32.719383],[130.678085,32.719419],[130.678177,32.719435],[130.678146,32.719563],[130.67812,32.719578],[130.678045,32.719565],[130.677817,32.719525],[130.677817,32.719534],[130.677702,32.720021],[130.677697,32.720062],[130.677907,32.720082],[130.678089,32.720115],[130.678469,32.720175],[130.678477,32.720147],[130.678537,32.719908],[130.678917,32.719973],[130.678858,32.720212],[130.678851,32.720243],[130.679055,32.720279],[130.680052,32.720448],[130.68015,32.720463],[130.680161,32.720418],[130.68021,32.720242],[130.680289,32.719959],[130.680291,32.719951],[130.680327,32.719792],[130.680354,32.71978],[130.680406,32.719707],[130.680337,32.719694],[130.680269,32.719683],[130.680329,32.719432],[130.680336,32.719398],[130.680313,32.719401],[130.68027,32.719408],[130.68027,32.719403],[130.680303,32.71926],[130.68033,32.719143],[130.680358,32.719022],[130.680391,32.71888],[130.680405,32.718839],[130.680501,32.718871],[130.680525,32.718801],[130.680574,32.718765],[130.68064,32.718691],[130.680661,32.718662],[130.680682,32.718629],[130.680705,32.718582],[130.680704,32.718562],[130.680645,32.718559],[130.680596,32.718559],[130.680587,32.718558],[130.680579,32.718557],[130.680562,32.718551],[130.680553,32.718543],[130.680547,32.718534],[130.680545,32.71853],[130.680544,32.718521],[130.680546,32.718389],[130.680556,32.718262],[130.680558,32.71824],[130.680581,32.718085],[130.680585,32.718053],[130.68059,32.718019],[130.680663,32.718022],[130.680713,32.718028],[130.680771,32.718032],[130.680822,32.718035],[130.680873,32.71804],[130.680891,32.71804],[130.681006,32.718017],[130.681078,32.717993],[130.681096,32.717988],[130.681127,32.717981],[130.681184,32.717968],[130.681256,32.717968],[130.681286,32.717968],[130.681287,32.717941],[130.681489,32.717946],[130.681552,32.717948],[130.681553,32.717897],[130.681554,32.717886],[130.681576,32.717742],[130.681613,32.717639],[130.681639,32.717623],[130.68162,32.717549]],[[130.679324,32.71565],[130.679356,32.715644],[130.679343,32.715871],[130.679327,32.716165],[130.679143,32.716132],[130.679118,32.716128],[130.679054,32.716116],[130.679079,32.716064],[130.679129,32.715952],[130.679172,32.715858],[130.679221,32.715755],[130.679235,32.715729],[130.67926,32.71569],[130.679286,32.715664],[130.679324,32.71565]],[[130.679303,32.716502],[130.679314,32.716504],[130.679306,32.716604],[130.679292,32.71679],[130.679282,32.716922],[130.67928,32.71693],[130.679257,32.717015],[130.679237,32.717085],[130.679114,32.717068],[130.679046,32.717058],[130.678981,32.71705],[130.67895,32.717046],[130.678904,32.71704],[130.678888,32.717038],[130.678853,32.717032],[130.678801,32.717023],[130.678733,32.717004],[130.678728,32.717002],[130.678725,32.716997],[130.678723,32.71699],[130.678723,32.716979],[130.678725,32.716968],[130.678732,32.716932],[130.678734,32.716923],[130.678739,32.716909],[130.678749,32.716883],[130.678752,32.716875],[130.678771,32.716841],[130.67878,32.716824],[130.678781,32.716823],[130.678798,32.716793],[130.678834,32.716727],[130.67887,32.716661],[130.678884,32.716636],[130.678888,32.716627],[130.678903,32.716595],[130.678919,32.716561],[130.678923,32.716552],[130.678928,32.716539],[130.678931,32.716534],[130.678965,32.716456],[130.679137,32.716479],[130.679303,32.716502]],[[130.678685,32.717931],[130.678986,32.717952],[130.67895,32.718236],[130.678943,32.718287],[130.678879,32.718272],[130.678786,32.718263],[130.678683,32.718253],[130.678653,32.71825],[130.678525,32.718253],[130.678424,32.718257],[130.678374,32.718259],[130.678216,32.718268],[130.678165,32.71827],[130.678169,32.718234],[130.678208,32.717803],[130.678209,32.717783],[130.678181,32.717786],[130.678141,32.71779],[130.678072,32.717804],[130.678024,32.717815],[130.678004,32.717819],[130.677967,32.717604],[130.678013,32.71759],[130.678111,32.717562],[130.678207,32.717542],[130.678272,32.717531],[130.67833,32.717523],[130.678404,32.717515],[130.678481,32.71751],[130.678549,32.717509],[130.678645,32.717511],[130.678936,32.717541],[130.678905,32.717756],[130.678821,32.717744],[130.67871,32.717731],[130.6787,32.71773],[130.678698,32.717745],[130.678694,32.717821],[130.678694,32.717826],[130.678694,32.717838],[130.678685,32.717931]],[[130.679283,32.718148],[130.679751,32.71817],[130.679743,32.718184],[130.679737,32.718196],[130.679717,32.718238],[130.679712,32.718248],[130.679702,32.718278],[130.679683,32.718348],[130.679661,32.718459],[130.679652,32.718532],[130.679639,32.718527],[130.679506,32.718471],[130.679381,32.718425],[130.679319,32.718402],[130.679309,32.718399],[130.679253,32.718383],[130.679272,32.718237],[130.679283,32.718148]]]}},{"type":"Feature","properties":{"DistName":"富合町中心市街地","DistType":"土地区画整理事業","DistCode":1,"Pref":"熊本県","Citycode":"43100","Cityname":"熊本市"},"geometry":{"type":"Polygon","coordinates":[[[130.682975,32.716981],[130.682791,32.716952],[130.682668,32.716945],[130.682642,32.716944],[130.682628,32.717089],[130.682619,32.717098],[130.68258,32.717098],[130.682231,32.717074],[130.682154,32.717072],[130.681976,32.717055],[130.681881,32.717046],[130.681621,32.717023],[130.681591,32.717016],[130.681587,32.717006],[130.681586,32.716979],[130.68158,32.716915],[130.68158,32.716847],[130.68158,32.716749],[130.681592,32.716693],[130.681631,32.716602],[130.681882,32.71662],[130.682006,32.716628],[130.682223,32.716644],[130.682472,32.716662],[130.682587,32.71667],[130.682596,32.716589],[130.682561,32.716614],[130.682245,32.716591],[130.682264,32.716449],[130.68227,32.716395],[130.682613,32.716426],[130.682638,32.71619],[130.682678,32.715825],[130.682176,32.715836],[130.682015,32.715832],[130.681885,32.715816],[130.681741,32.715797],[130.681702,32.715798],[130.681709,32.715781],[130.681679,32.715779],[130.681441,32.715731],[130.681195,32.715682],[130.680815,32.715605],[130.680798,32.715702],[130.680782,32.715752],[130.680746,32.715802],[130.680715,32.715824],[130.680675,32.715911],[130.680822,32.715939],[130.680943,32.715962],[130.68115,32.716002],[130.681132,32.716121],[130.681122,32.716186],[130.681194,32.716189],[130.681651,32.716204],[130.681649,32.716241],[130.681644,32.716378],[130.681633,32.716421],[130.681608,32.716478],[130.681564,32.716569],[130.681525,32.716662],[130.681515,32.716707],[130.681506,32.716748],[130.681503,32.716838],[130.681524,32.716859],[130.681525,32.716877],[130.681548,32.71729],[130.681549,32.717302],[130.681553,32.717365],[130.681605,32.717366],[130.681823,32.717365],[130.681831,32.717365],[130.68193,32.717345],[130.681948,32.717346],[130.682403,32.71738],[130.682612,32.717396],[130.682649,32.717398],[130.682691,32.7174],[130.682712,32.71739],[130.682728,32.717375],[130.682826,32.717256],[130.682911,32.717149],[130.682966,32.717037],[130.682975,32.716981]]]}},{"type":"Feature","properties":{"DistName":null,"DistType":"土地区画整理事業","DistCode":1,"Pref":"熊本県","Citycode":"43202","Cityname":"八代市"},"geometry":{"type":"Polygon","coordinates":[[[130.586923,32.500517],[130.5874,32.500533],[130.587579,32.500012],[130.587827,32.49994],[130.587862,32.499824],[130.588039,32.499796],[130.588076,32.49952],[130.588464,32.499507],[130.588464,32.499623],[130.588481,32.499783],[130.589488,32.499772],[130.589575,32.499975],[130.589734,32.499976],[130.589735,32.499773],[130.590159,32.499658],[130.59016,32.499469],[130.590461,32.499427],[130.590323,32.498614],[130.591171,32.498602],[130.591542,32.498473],[130.59119,32.498196],[130.590997,32.497804],[130.589673,32.497828],[130.590168,32.497554],[130.590151,32.497336],[130.589409,32.497348],[130.589497,32.497624],[130.589549,32.497842],[130.589054,32.497985],[130.587674,32.498488],[130.5873,32.499271],[130.58751,32.499547],[130.587385,32.49988],[130.586923,32.500517]]]}},{"type":"Feature","properties":{"DistName":null,"DistType":"土地区画整理事業","DistCode":1,"Pref":"熊本県","Citycode":"43202","Cityname":"八代市"},"geometry":{"type":"Polygon","coordinates":[[[130.597303,32.518218],[130.598538,32.518314],[130.598379,32.518757],[130.599233,32.518686],[130.599383,32.520365],[130.598731,32.520492],[130.598797,32.520898],[130.598886,32.521064],[130.598616,32.521303],[130.598816,32.521692],[130.597354,32.522295],[130.597488,32.522462],[130.597307,32.522701],[130.599441,32.522801],[130.599371,32.523391],[130.599888,32.5233],[130.599326,32.523538],[130.599392,32.523668],[130.599933,32.523467],[130.599998,32.523983],[130.600487,32.525166],[130.600937,32.525057],[130.605819,32.523376],[130.60645,32.523009],[130.606787,32.522808],[130.607216,32.522422],[130.607598,32.522275],[130.607958,32.522184],[130.608093,32.522074],[130.608476,32.521872],[130.608926,32.521782],[130.609264,32.521395],[130.609715,32.520973],[130.610233,32.520605],[130.609403,32.520474],[130.60864,32.520194],[130.605141,32.518577],[130.604804,32.518668],[130.604602,32.518704],[130.604491,32.518353],[130.603458,32.518258],[130.60139,32.51849],[130.60126,32.517309],[130.598747,32.516562],[130.597372,32.517628],[130.597641,32.517813],[130.597303,32.518218]]]}},{"type":"Feature","properties":{"DistName":null,"DistType":"土地区画整理事業","DistCode":1,"Pref":"熊本県","Citycode":"43202","Cityname":"八代市"},"geometry":{"type":"Polygon","coordinates":[[[130.594544,32.522691],[130.594632,32.52295],[130.594834,32.523098],[130.595666,32.522917],[130.595956,32.52336],[130.596336,32.524008],[130.597189,32.524195],[130.597165,32.524601],[130.596895,32.524618],[130.596894,32.524766],[130.596714,32.524765],[130.596759,32.524821],[130.596579,32.524949],[130.596531,32.525632],[130.59707,32.525726],[130.597069,32.525966],[130.59799,32.526024],[130.598282,32.52597],[130.598392,32.526708],[130.599874,32.526713],[130.600438,32.526346],[130.601496,32.525686],[130.601227,32.525574],[130.60123,32.524947],[130.601095,32.52502],[130.600937,32.525057],[130.600487,32.525166],[130.599954,32.52378],[130.599933,32.523467],[130.599392,32.523668],[130.599326,32.523538],[130.599371,32.523391],[130.599441,32.522801],[130.597307,32.522701],[130.597488,32.522462],[130.597354,32.522295],[130.598816,32.521692],[130.598616,32.521303],[130.598886,32.521064],[130.598797,32.520898],[130.59682,32.520817],[130.5968,32.520393],[130.596305,32.520391],[130.596304,32.520797],[130.596324,32.52124],[130.595358,32.52131],[130.595312,32.521605],[130.595446,32.521809],[130.595175,32.522029],[130.594995,32.522195],[130.594657,32.522433],[130.594544,32.522691]]]}},{"type":"Feature","properties":{"DistName":null,"DistType":"土地区画整理事業","DistCode":1,"Pref":"熊本県","Citycode":"43202","Cityname":"八代市"},"geometry":{"type":"Polygon","coordinates":[[[130.607193,32.508485],[130.607686,32.508849],[130.608092,32.50904],[130.608992,32.509391],[130.61021,32.509627],[130.610757,32.509702],[130.61274,32.508577],[130.613766,32.508304],[130.61518,32.50799],[130.616348,32.507573],[130.616596,32.507327],[130.61665,32.507052],[130.616617,32.506587],[130.616724,32.506225],[130.616211,32.506267],[130.614568,32.506493],[130.612959,32.506705],[130.612517,32.506777],[130.611828,32.506934],[130.610873,32.507206],[130.609794,32.507362],[130.608911,32.50749],[130.608345,32.507633],[130.607496,32.507877],[130.607247,32.508326],[130.607193,32.508485]]]}},{"type":"Feature","properties":{"DistName":null,"DistType":"土地区画整理事業","DistCode":1,"Pref":"熊本県","Citycode":"43202","Cityname":"八代市"},"geometry":{"type":"Polygon","coordinates":[[[130.597565,32.49976],[130.597563,32.500167],[130.598534,32.500286],[130.598923,32.500316],[130.600124,32.500393],[130.600954,32.500469],[130.601625,32.5005],[130.602084,32.500444],[130.602668,32.500272],[130.604012,32.499841],[130.604596,32.499524],[130.605676,32.499063],[130.606507,32.498732],[130.607568,32.498489],[130.608699,32.49829],[130.609741,32.498308],[130.610218,32.498484],[130.610694,32.49863],[130.611612,32.498735],[130.613025,32.498754],[130.614686,32.498658],[130.616647,32.498593],[130.616718,32.49852],[130.616789,32.498477],[130.615343,32.497776],[130.613491,32.497189],[130.612397,32.496822],[130.610508,32.496453],[130.609484,32.496334],[130.607912,32.496314],[130.606341,32.496207],[130.604469,32.496012],[130.602633,32.495686],[130.600992,32.495274],[130.600428,32.495055],[130.598575,32.494642],[130.59804,32.495772],[130.59825,32.496251],[130.598515,32.496296],[130.598448,32.499763],[130.597565,32.49976]]]}},{"type":"Feature","properties":{"DistName":null,"DistType":"土地区画整理事業","DistCode":1,"Pref":"熊本県","Citycode":"43202","Cityname":"八代市"},"geometry":{"type":"Polygon","coordinates":[[[130.599505,32.491787],[130.599734,32.491875],[130.600669,32.492197],[130.602133,32.492681],[130.602133,32.492594],[130.602048,32.491955],[130.602331,32.491666],[130.602333,32.49126],[130.601879,32.489967],[130.600784,32.489963],[130.600553,32.490165],[130.600129,32.490396],[130.60034,32.490585],[130.60002,32.490991],[130.599771,32.491483],[130.599505,32.491787]]]}},{"type":"Feature","properties":{"DistName":null,"DistType":"土地区画整理事業","DistCode":1,"Pref":"熊本県","Citycode":"43202","Cityname":"八代市"},"geometry":{"type":"Polygon","coordinates":[[[130.600801,32.489978],[130.601914,32.489952],[130.601738,32.489792],[130.601403,32.489791],[130.601067,32.489804],[130.600801,32.489978]]]}},{"type":"Feature","properties":{"DistName":null,"DistType":"土地区画整理事業","DistCode":1,"Pref":"熊本県","Citycode":"43202","Cityname":"八代市"},"geometry":{"type":"Polygon","coordinates":[[[130.604796,32.502528],[130.60482,32.502593],[130.604796,32.502615],[130.604936,32.502949],[130.604953,32.502961],[130.604954,32.502964],[130.604963,32.502969],[130.605095,32.503066],[130.605076,32.503032],[130.6055,32.50327],[130.605958,32.503562],[130.606133,32.504129],[130.606554,32.504783],[130.607029,32.505379],[130.607786,32.50602],[130.608332,32.506342],[130.608738,32.506386],[130.610911,32.506583],[130.611034,32.506539],[130.611954,32.506339],[130.612378,32.506239],[130.612751,32.505805],[130.613547,32.505431],[130.614733,32.504912],[130.615564,32.504552],[130.616873,32.504093],[130.61797,32.503661],[130.619155,32.503215],[130.619793,32.502883],[130.620164,32.502696],[130.620607,32.502523],[130.621031,32.502351],[130.62128,32.502018],[130.621387,32.501684],[130.619903,32.501781],[130.619484,32.500546],[130.617841,32.500526],[130.616181,32.500492],[130.614184,32.500558],[130.612594,32.500683],[130.610632,32.500894],[130.608954,32.50099],[130.607663,32.50129],[130.606177,32.501894],[130.605062,32.502369],[130.604828,32.502585],[130.604796,32.502528]]]}},{"type":"Feature","properties":{"DistName":null,"DistType":"土地区画整理事業","DistCode":1,"Pref":"熊本県","Citycode":"43202","Cityname":"八代市"},"geometry":{"type":"Polygon","coordinates":[[[130.586347,32.487141],[130.587104,32.487753],[130.587474,32.488073],[130.587861,32.488332],[130.588164,32.488827],[130.588617,32.489354],[130.589004,32.48966],[130.589123,32.490865],[130.58838,32.49108],[130.588331,32.491138],[130.588172,32.491166],[130.588185,32.491239],[130.588271,32.491878],[130.588147,32.491877],[130.588072,32.492893],[130.591393,32.492934],[130.5927,32.492938],[130.593565,32.492956],[130.593586,32.492317],[130.592971,32.491503],[130.59234,32.490325],[130.592007,32.48954],[130.591727,32.488988],[130.591287,32.488522],[130.590847,32.488216],[130.589895,32.487719],[130.588678,32.487425],[130.588025,32.487292],[130.587495,32.487188],[130.586506,32.487141],[130.586347,32.487141]]]}},{"type":"Feature","properties":{"DistName":null,"DistType":"土地区画整理事業","DistCode":1,"Pref":"熊本県","Citycode":"43202","Cityname":"八代市"},"geometry":{"type":"Polygon","coordinates":[[[130.585958,32.491579],[130.586027,32.492],[130.586504,32.491944],[130.586503,32.492103],[130.586945,32.492047],[130.586945,32.492207],[130.58721,32.492208],[130.587401,32.492876],[130.588068,32.492893],[130.588147,32.491877],[130.588271,32.491878],[130.58822,32.491399],[130.588185,32.491181],[130.585958,32.491579]]]}},{"type":"Feature","properties":{"DistName":null,"DistType":"土地区画整理事業","DistCode":1,"Pref":"熊本県","Citycode":"43202","Cityname":"八代市"},"geometry":{"type":"Polygon","coordinates":[[[130.606614,32.504851],[130.60683,32.508261],[130.607219,32.508248],[130.607496,32.507877],[130.608911,32.50749],[130.609467,32.507405],[130.609905,32.50817],[130.611195,32.508044],[130.610873,32.507206],[130.612517,32.506777],[130.611999,32.505696],[130.611291,32.505955],[130.610761,32.506099],[130.609066,32.50589],[130.608677,32.505859],[130.607812,32.505595],[130.607249,32.505216],[130.606614,32.504851]]]}},{"type":"Feature","properties":{"DistName":null,"DistType":"土地区画整理事業","DistCode":1,"Pref":"熊本県","Citycode":"43202","Cityname":"八代市"},"geometry":{"type":"Polygon","coordinates":[[[130.597808,32.530018],[130.598682,32.531578],[130.598916,32.532213],[130.599241,32.532455],[130.602056,32.533825],[130.602189,32.5341],[130.603166,32.533825],[130.602658,32.532994],[130.60309,32.532417],[130.603342,32.533082],[130.603868,32.532981],[130.604085,32.533574],[130.605221,32.533249],[130.604945,32.532773],[130.605688,32.532011],[130.605182,32.531695],[130.605279,32.531319],[130.604403,32.531246],[130.604035,32.53162],[130.603643,32.531378],[130.604152,32.5307],[130.604486,32.530668],[130.604762,32.52995],[130.604895,32.5299],[130.605162,32.529933],[130.605555,32.529465],[130.606039,32.529766],[130.605421,32.53081],[130.606122,32.531004],[130.606048,32.531236],[130.606336,32.531269],[130.606374,32.532146],[130.6072,32.531829],[130.607325,32.531311],[130.607125,32.531186],[130.607159,32.530601],[130.607376,32.529933],[130.607334,32.529658],[130.607543,32.529031],[130.606893,32.528823],[130.606699,32.52939],[130.60619,32.528872],[130.605877,32.529068],[130.605413,32.528739],[130.605639,32.528488],[130.605263,32.528246],[130.606206,32.52691],[130.605321,32.526267],[130.604837,32.526601],[130.60421,32.526642],[130.603367,32.52706],[130.603231,32.52686],[130.60249,32.527177],[130.601388,32.525874],[130.599859,32.526667],[130.598392,32.526708],[130.598114,32.526742],[130.598486,32.527142],[130.598331,32.527168],[130.599408,32.529223],[130.597808,32.530018]]]}},{"type":"Feature","properties":{"DistName":null,"DistType":"土地区画整理事業","DistCode":1,"Pref":"熊本県","Citycode":"43206","Cityname":"玉名市"},"geometry":{"type":"Polygon","coordinates":[[[130.553836,32.926256],[130.553856,32.926468],[130.553933,32.926468],[130.553993,32.926739],[130.554555,32.926718],[130.554658,32.926435],[130.555073,32.92641],[130.555087,32.926707],[130.555338,32.926754],[130.555455,32.926388],[130.555451,32.926382],[130.555824,32.926361],[130.555857,32.926459],[130.555994,32.92646],[130.556378,32.926432],[130.556748,32.926462],[130.556988,32.92648],[130.557317,32.926447],[130.557351,32.926597],[130.557536,32.926552],[130.55755,32.926407],[130.557906,32.926507],[130.558009,32.926513],[130.55803,32.926402],[130.558042,32.926406],[130.558096,32.926407],[130.558394,32.926415],[130.558388,32.925966],[130.558124,32.925463],[130.556525,32.925768],[130.555334,32.926008],[130.554346,32.926169],[130.554224,32.926201],[130.554243,32.925945],[130.554243,32.925939],[130.554373,32.925916],[130.554531,32.9259],[130.554654,32.925871],[130.554764,32.925825],[130.555039,32.92578],[130.555258,32.925752],[130.555635,32.925667],[130.55604,32.925576],[130.556479,32.92549],[130.556822,32.925411],[130.557064,32.925357],[130.557062,32.925175],[130.55708,32.925088],[130.557098,32.924984],[130.557138,32.924811],[130.557156,32.924737],[130.557142,32.924738],[130.557147,32.92473],[130.557162,32.924597],[130.55719,32.924453],[130.557238,32.924326],[130.55728,32.924222],[130.557315,32.924101],[130.557338,32.923788],[130.557576,32.923704],[130.557545,32.923651],[130.557413,32.923466],[130.557351,32.923268],[130.557305,32.923043],[130.557126,32.922758],[130.556909,32.92246],[130.55669,32.922314],[130.556346,32.922174],[130.555893,32.921988],[130.555542,32.921782],[130.55523,32.921536],[130.554956,32.921416],[130.554659,32.921389],[130.554126,32.921361],[130.553962,32.921387],[130.55357,32.921491],[130.553319,32.921496],[130.552958,32.921621],[130.552652,32.921758],[130.552464,32.921816],[130.552283,32.921829],[130.552112,32.921857],[130.551803,32.921908],[130.5517,32.921943],[130.551494,32.922046],[130.551295,32.922126],[130.551151,32.922149],[130.55098,32.922142],[130.550768,32.922124],[130.550815,32.922311],[130.55084,32.922511],[130.550838,32.922756],[130.550833,32.922773],[130.550834,32.922775],[130.550814,32.92293],[130.550763,32.923098],[130.550532,32.923963],[130.550488,32.924123],[130.550465,32.924206],[130.55049,32.924331],[130.550499,32.924379],[130.550519,32.924668],[130.550402,32.92494],[130.550336,32.925069],[130.550578,32.925138],[130.551125,32.925298],[130.551252,32.92534],[130.551426,32.925384],[130.552002,32.925541],[130.552042,32.925569],[130.552624,32.925722],[130.552604,32.925969],[130.552594,32.926055],[130.552763,32.926058],[130.553058,32.926075],[130.553522,32.926057],[130.553878,32.926028],[130.554089,32.925999],[130.554073,32.92624],[130.553993,32.926261],[130.553836,32.926256]]]}},{"type":"Feature","properties":{"DistName":null,"DistType":"土地区画整理事業","DistCode":1,"Pref":"熊本県","Citycode":"43206","Cityname":"玉名市"},"geometry":{"type":"Polygon","coordinates":[[[130.541985,32.920798],[130.541921,32.920981],[130.541913,32.921004],[130.541912,32.921005],[130.541561,32.921007],[130.541572,32.92103],[130.541763,32.921432],[130.54165,32.921432],[130.541608,32.921432],[130.541572,32.921432],[130.541551,32.921432],[130.541551,32.921443],[130.541553,32.921535],[130.541492,32.921532],[130.541455,32.92153],[130.541382,32.921523],[130.541281,32.921527],[130.541116,32.921537],[130.541083,32.921533],[130.540873,32.9215],[130.540857,32.921489],[130.540808,32.921417],[130.540794,32.921414],[130.540634,32.921469],[130.540495,32.921505],[130.540473,32.921445],[130.54039,32.921328],[130.540354,32.921293],[130.540264,32.921242],[130.540233,32.921218],[130.540169,32.921124],[130.54002,32.920803],[130.540005,32.920784],[130.539351,32.921057],[130.539565,32.921371],[130.540586,32.922076],[130.541041,32.922991],[130.541188,32.923374],[130.541156,32.923818],[130.541086,32.924319],[130.541784,32.924378],[130.54283,32.924457],[130.543187,32.924464],[130.543306,32.924463],[130.543307,32.924465],[130.543666,32.924464],[130.5436,32.924968],[130.544991,32.924984],[130.545015,32.924752],[130.545036,32.924443],[130.545206,32.92444],[130.545212,32.924641],[130.545116,32.924653],[130.545123,32.924784],[130.545293,32.924791],[130.545293,32.924956],[130.545492,32.92487],[130.54568,32.924774],[130.545734,32.924323],[130.546321,32.92415],[130.546781,32.924183],[130.54785,32.924293],[130.547986,32.923774],[130.548575,32.923845],[130.548641,32.923803],[130.548792,32.923013],[130.549252,32.922996],[130.549654,32.923018],[130.550125,32.923064],[130.550412,32.923084],[130.550727,32.923125],[130.550731,32.923113],[130.550732,32.923113],[130.550758,32.923116],[130.550763,32.923098],[130.550814,32.92293],[130.550834,32.922775],[130.550833,32.922773],[130.550838,32.922756],[130.55084,32.922511],[130.550821,32.922357],[130.550705,32.922304],[130.55057,32.922282],[130.550533,32.922276],[130.550343,32.922277],[130.550083,32.922308],[130.550046,32.922316],[130.549915,32.922346],[130.549691,32.92239],[130.549315,32.922446],[130.549043,32.922489],[130.549028,32.922488],[130.548771,32.922521],[130.548206,32.922538],[130.547996,32.922553],[130.547717,32.922594],[130.547449,32.922594],[130.547167,32.922557],[130.546921,32.922504],[130.546583,32.922396],[130.546334,32.922284],[130.546142,32.922154],[130.545982,32.922089],[130.545834,32.92206],[130.545419,32.921969],[130.545179,32.921914],[130.545048,32.921873],[130.544786,32.921784],[130.544668,32.921748],[130.544297,32.92163],[130.543943,32.921456],[130.543713,32.921344],[130.543325,32.92115],[130.542916,32.920954],[130.542591,32.920766],[130.542238,32.9205],[130.542062,32.920356],[130.542,32.920305],[130.542001,32.920458],[130.542002,32.92052],[130.542004,32.920732],[130.541986,32.920786],[130.541985,32.920798]]]}},{"type":"Feature","properties":{"DistName":null,"DistType":"土地区画整理事業","DistCode":1,"Pref":"熊本県","Citycode":"43206","Cityname":"玉名市"},"geometry":{"type":"Polygon","coordinates":[[[130.537847,32.922629],[130.537842,32.922628],[130.53778,32.923142],[130.537856,32.923191],[130.538009,32.923345],[130.538044,32.923381],[130.538095,32.923432],[130.538205,32.92345],[130.538526,32.923527],[130.538566,32.923526],[130.53865,32.923548],[130.538775,32.923578],[130.538885,32.9236],[130.539002,32.923615],[130.539094,32.923625],[130.539104,32.92365],[130.539093,32.923736],[130.539185,32.923747],[130.539161,32.923887],[130.53913,32.924056],[130.539121,32.924106],[130.539106,32.924158],[130.539311,32.924174],[130.539838,32.924217],[130.53987,32.92422],[130.540264,32.924251],[130.540722,32.924282],[130.540741,32.924284],[130.540751,32.924231],[130.540769,32.924131],[130.540785,32.92404],[130.540803,32.923942],[130.540834,32.923765],[130.540859,32.923603],[130.540867,32.923536],[130.540868,32.923454],[130.540865,32.923399],[130.540854,32.923335],[130.540823,32.923233],[130.540769,32.923122],[130.540735,32.923032],[130.540697,32.922949],[130.540637,32.922826],[130.54057,32.922692],[130.540505,32.922564],[130.540435,32.922419],[130.540387,32.922345],[130.540319,32.922269],[130.540257,32.922215],[130.540143,32.922137],[130.53995,32.922026],[130.539821,32.92195],[130.539704,32.921882],[130.539656,32.921866],[130.539499,32.921778],[130.539392,32.9217],[130.539321,32.921638],[130.53923,32.921546],[130.539231,32.921608],[130.539235,32.921819],[130.539239,32.92201],[130.539246,32.922124],[130.539255,32.922272],[130.539252,32.922311],[130.539241,32.922494],[130.539235,32.922601],[130.539144,32.922606],[130.539122,32.922607],[130.539136,32.922663],[130.539134,32.922674],[130.539068,32.922658],[130.538965,32.922635],[130.538694,32.922566],[130.538551,32.922549],[130.538548,32.922685],[130.538544,32.922738],[130.538513,32.922738],[130.538459,32.922727],[130.538365,32.922707],[130.538235,32.922691],[130.538045,32.922663],[130.537927,32.922639],[130.537847,32.922626],[130.537847,32.922629]]]}},{"type":"Feature","properties":{"DistName":null,"DistType":"土地区画整理事業","DistCode":1,"Pref":"熊本県","Citycode":"43206","Cityname":"玉名市"},"geometry":{"type":"Polygon","coordinates":[[[130.554628,32.928476],[130.554643,32.928115],[130.554304,32.928107],[130.554277,32.928467],[130.554628,32.928476]]]}},{"type":"Feature","properties":{"DistName":"ニュータウン御領橋土地区画整理事業","DistType":"土地区画整理事業","DistCode":1,"Pref":"熊本県","Citycode":"43211","Cityname":"宇土市"},"geometry":{"type":"Polygon","coordinates":[[[130.658519,32.677439],[130.658709,32.677672],[130.659136,32.677693],[130.659305,32.67771],[130.659611,32.67776],[130.659963,32.67783],[130.660464,32.677905],[130.660743,32.677965],[130.660954,32.67802],[130.661071,32.67801],[130.661462,32.677616],[130.66119,32.677415],[130.661453,32.677191],[130.661577,32.677283],[130.661823,32.677041],[130.661116,32.67652],[130.660901,32.676359],[130.660815,32.676309],[130.660776,32.676291],[130.660681,32.676292],[130.660595,32.676287],[130.660504,32.676265],[130.660414,32.676237],[130.660333,32.676183],[130.659639,32.676682],[130.659607,32.676693],[130.659215,32.676967],[130.658986,32.677123],[130.658519,32.677439]]]}},{"type":"Feature","properties":{"DistName":"入地ニュータウン土地区画整理事業","DistType":"土地区画整理事業","DistCode":1,"Pref":"熊本県","Citycode":"43211","Cityname":"宇土市"},"geometry":{"type":"Polygon","coordinates":[[[130.656194,32.677436],[130.656343,32.677494],[130.656499,32.677601],[130.656669,32.67775],[130.656719,32.677838],[130.656748,32.677932],[130.656772,32.678033],[130.656752,32.6781],[130.656695,32.678201],[130.656636,32.678298],[130.656769,32.678354],[130.656655,32.678538],[130.656554,32.678506],[130.656517,32.678672],[130.656451,32.678805],[130.65641,32.67891],[130.656305,32.679282],[130.656288,32.679524],[130.656315,32.679685],[130.656377,32.679799],[130.65649,32.679901],[130.656553,32.679817],[130.657004,32.679284],[130.657137,32.679355],[130.657294,32.679212],[130.657697,32.67936],[130.657878,32.679176],[130.658053,32.678968],[130.658658,32.679434],[130.658919,32.679218],[130.65861,32.678954],[130.659095,32.678578],[130.659165,32.678624],[130.659867,32.677889],[130.659696,32.677858],[130.659328,32.677794],[130.659145,32.677776],[130.658947,32.677766],[130.658665,32.677748],[130.658604,32.677691],[130.658405,32.677474],[130.659332,32.676832],[130.658972,32.67647],[130.65921,32.676272],[130.659073,32.676125],[130.658895,32.675983],[130.658891,32.675987],[130.658598,32.676255],[130.658233,32.676583],[130.657787,32.676969],[130.657685,32.677018],[130.657183,32.676659],[130.657044,32.676641],[130.656984,32.676644],[130.656849,32.676687],[130.656833,32.676687],[130.656847,32.676701],[130.656789,32.676735],[130.656374,32.677236],[130.656194,32.677436]]]}},{"type":"Feature","properties":{"DistName":"宇土駅前土地区画整理事業","DistType":"土地区画整理事業","DistCode":1,"Pref":"熊本県","Citycode":"43211","Cityname":"宇土市"},"geometry":{"type":"Polygon","coordinates":[[[130.664584,32.690922],[130.665124,32.691372],[130.665161,32.691456],[130.665148,32.691502],[130.665255,32.691539],[130.665757,32.691809],[130.66582,32.691998],[130.665653,32.69219],[130.665975,32.692422],[130.665992,32.69248],[130.665771,32.692772],[130.665306,32.692468],[130.665064,32.692765],[130.664844,32.693045],[130.664695,32.693039],[130.664657,32.693411],[130.66464,32.693743],[130.665029,32.693693],[130.66511,32.693697],[130.665249,32.693777],[130.665713,32.694101],[130.665559,32.694313],[130.665786,32.694462],[130.666212,32.694748],[130.666207,32.694797],[130.66603,32.69507],[130.666349,32.694975],[130.666939,32.69482],[130.667297,32.694884],[130.667504,32.695053],[130.667662,32.695157],[130.667833,32.694973],[130.668093,32.694671],[130.66822,32.694522],[130.668258,32.694529],[130.668383,32.694576],[130.668535,32.69438],[130.6685,32.694284],[130.668437,32.694108],[130.668325,32.693829],[130.668231,32.693606],[130.668094,32.693659],[130.668054,32.693663],[130.667791,32.693449],[130.667361,32.693902],[130.666809,32.693507],[130.666646,32.693374],[130.666651,32.693345],[130.66663,32.693315],[130.666468,32.69317],[130.666429,32.693059],[130.666705,32.692796],[130.667164,32.692353],[130.667037,32.692271],[130.66682,32.692117],[130.667377,32.691445],[130.66724,32.6911],[130.667198,32.691103],[130.667156,32.691104],[130.667052,32.691056],[130.667033,32.691052],[130.666984,32.691059],[130.666986,32.690932],[130.666978,32.690917],[130.666533,32.690778],[130.666464,32.690912],[130.666145,32.690783],[130.666263,32.690574],[130.665901,32.690508],[130.665576,32.690502],[130.664766,32.690542],[130.664742,32.690583],[130.664584,32.690922]]]}},{"type":"Feature","properties":{"DistName":"北段原土地区画整理事業区域","DistType":"土地区画整理事業","DistCode":1,"Pref":"熊本県","Citycode":"43211","Cityname":"宇土市"},"geometry":{"type":"Polygon","coordinates":[[[130.65436,32.687649],[130.654522,32.687745],[130.654732,32.687822],[130.654901,32.68791],[130.654973,32.687975],[130.655058,32.688094],[130.655202,32.688245],[130.655355,32.688369],[130.655567,32.688444],[130.656306,32.688834],[130.656914,32.689153],[130.657535,32.689487],[130.657929,32.689776],[130.657756,32.689973],[130.65871,32.690006],[130.658721,32.689915],[130.658752,32.689875],[130.658851,32.689802],[130.658919,32.689612],[130.658957,32.689471],[130.659019,32.68942],[130.659113,32.689328],[130.659201,32.689202],[130.659289,32.689076],[130.659316,32.688899],[130.659346,32.688769],[130.659396,32.688699],[130.659473,32.6886],[130.659508,32.688523],[130.659546,32.688464],[130.65977,32.688198],[130.659988,32.688036],[130.660322,32.687934],[130.660483,32.687854],[130.660568,32.687758],[130.660942,32.687335],[130.661154,32.687082],[130.660893,32.686919],[130.660389,32.686625],[130.660155,32.686402],[130.659686,32.686027],[130.659475,32.685865],[130.65907,32.685565],[130.658894,32.685423],[130.658852,32.685367],[130.658811,32.685315],[130.658744,32.685262],[130.658666,32.685214],[130.658293,32.684938],[130.657653,32.6845],[130.657336,32.68483],[130.656723,32.685453],[130.656122,32.686106],[130.655683,32.686549],[130.655148,32.687019],[130.654754,32.687356],[130.65436,32.687649]]]}},{"type":"Feature","properties":{"DistName":"益城台地西土地区画整理事業","DistType":"土地区画整理事業","DistCode":1,"Pref":"熊本県","Citycode":"43443","Cityname":"益城町"},"geometry":{"type":"Polygon","coordinates":[[[130.786892,32.791609],[130.786919,32.791569],[130.786948,32.791527],[130.786962,32.791508],[130.787008,32.791465],[130.787039,32.791441],[130.787096,32.791404],[130.78722,32.791328],[130.787258,32.791316],[130.787529,32.79115],[130.787549,32.791141],[130.78762,32.791107],[130.787738,32.791039],[130.787744,32.791021],[130.787791,32.791],[130.787851,32.790978],[130.78789,32.790965],[130.787984,32.790947],[130.788018,32.79094],[130.788054,32.790929],[130.788188,32.790866],[130.788244,32.790828],[130.788313,32.790777],[130.788357,32.790743],[130.788394,32.790704],[130.788417,32.790681],[130.788502,32.790626],[130.788501,32.790608],[130.788581,32.790556],[130.788706,32.790479],[130.788788,32.790428],[130.788886,32.790375],[130.788975,32.790328],[130.789003,32.790314],[130.78909,32.790272],[130.789259,32.790189],[130.789326,32.790149],[130.789374,32.790119],[130.789388,32.79011],[130.789443,32.790071],[130.789485,32.790039],[130.789526,32.790004],[130.789567,32.789963],[130.789591,32.789939],[130.789606,32.789923],[130.78964,32.789881],[130.789672,32.78984],[130.789697,32.789802],[130.78972,32.789757],[130.789736,32.789717],[130.789753,32.789675],[130.78978,32.789612],[130.789811,32.789538],[130.789853,32.789405],[130.789871,32.789376],[130.789883,32.789328],[130.789909,32.789333],[130.789922,32.789293],[130.789967,32.789149],[130.790125,32.788792],[130.79019,32.788646],[130.790212,32.788604],[130.79043,32.78818],[130.790503,32.788038],[130.790541,32.787959],[130.790605,32.787799],[130.790638,32.787716],[130.790649,32.78758],[130.790394,32.787419],[130.790445,32.787356],[130.79041,32.787336],[130.790189,32.78717],[130.790325,32.787033],[130.790297,32.78701],[130.790271,32.786987],[130.790246,32.78696],[130.790209,32.786916],[130.790162,32.786836],[130.790098,32.786766],[130.79003,32.786713],[130.789946,32.786648],[130.789746,32.786471],[130.789701,32.786421],[130.789699,32.786419],[130.78967,32.786375],[130.789431,32.786279],[130.78942,32.7863],[130.789417,32.786302],[130.789337,32.786404],[130.789294,32.786452],[130.789261,32.786483],[130.789209,32.786528],[130.789128,32.786598],[130.789102,32.786622],[130.789055,32.786666],[130.789048,32.786674],[130.788994,32.786726],[130.788891,32.786824],[130.788849,32.786867],[130.788837,32.78688],[130.788794,32.786928],[130.788756,32.786975],[130.788632,32.787128],[130.78862,32.787143],[130.788584,32.787189],[130.788492,32.787297],[130.788479,32.787312],[130.78847,32.787325],[130.788462,32.787339],[130.788457,32.78735],[130.788455,32.78736],[130.788452,32.78738],[130.788451,32.787402],[130.788449,32.787511],[130.788455,32.787618],[130.788458,32.787674],[130.788462,32.787716],[130.788464,32.787726],[130.788471,32.787753],[130.78848,32.787781],[130.78849,32.787808],[130.788501,32.78783],[130.788511,32.787848],[130.788518,32.787858],[130.788558,32.787913],[130.788583,32.787947],[130.788588,32.787956],[130.788595,32.787969],[130.788603,32.787991],[130.788611,32.788014],[130.788615,32.788036],[130.788614,32.788063],[130.788608,32.788089],[130.788599,32.788113],[130.788574,32.788162],[130.788563,32.788185],[130.788491,32.788336],[130.788482,32.788348],[130.788472,32.788381],[130.78844,32.788518],[130.788394,32.788723],[130.788379,32.788777],[130.788376,32.788791],[130.788373,32.78881],[130.788372,32.788826],[130.788373,32.788838],[130.788375,32.788851],[130.788383,32.788877],[130.788394,32.788907],[130.788403,32.788942],[130.788407,32.788971],[130.788407,32.788983],[130.788405,32.789005],[130.7884,32.789032],[130.788391,32.789065],[130.78831,32.789181],[130.788259,32.789261],[130.788189,32.78936],[130.788143,32.789421],[130.788088,32.78949],[130.788033,32.789555],[130.787923,32.78968],[130.787822,32.789798],[130.78777,32.789854],[130.787746,32.789875],[130.787734,32.789884],[130.787711,32.789899],[130.787686,32.789911],[130.787633,32.789942],[130.787597,32.789962],[130.787593,32.789965],[130.787615,32.789974],[130.787645,32.79],[130.787697,32.790045],[130.787832,32.790163],[130.787718,32.790239],[130.787547,32.790306],[130.787401,32.790075],[130.787215,32.78986],[130.787082,32.789924],[130.786968,32.789805],[130.786862,32.789731],[130.786696,32.789607],[130.786834,32.789491],[130.786809,32.789469],[130.786629,32.789309],[130.786354,32.789073],[130.786443,32.788988],[130.786367,32.788943],[130.786277,32.788939],[130.786314,32.788829],[130.786404,32.78866],[130.786259,32.788584],[130.786102,32.788554],[130.785973,32.788519],[130.785901,32.788482],[130.78581,32.788471],[130.785758,32.78846],[130.785704,32.788449],[130.785398,32.788386],[130.785301,32.788371],[130.785254,32.788561],[130.78525,32.788583],[130.785243,32.788715],[130.785236,32.78875],[130.785308,32.788752],[130.785265,32.788903],[130.784897,32.788848],[130.784824,32.788839],[130.784704,32.788811],[130.784613,32.788789],[130.784522,32.788765],[130.784461,32.788747],[130.784417,32.78873],[130.784395,32.788721],[130.784371,32.788709],[130.784343,32.788693],[130.784337,32.788688],[130.784313,32.78867],[130.784283,32.788642],[130.784258,32.788617],[130.784233,32.788587],[130.784217,32.788565],[130.784199,32.788537],[130.784185,32.788507],[130.784177,32.788484],[130.784175,32.788476],[130.784169,32.788451],[130.784164,32.788416],[130.784162,32.788386],[130.784162,32.788353],[130.784165,32.788314],[130.78417,32.788271],[130.784173,32.788259],[130.784183,32.788197],[130.784184,32.788196],[130.78421,32.788042],[130.784218,32.788002],[130.784249,32.787841],[130.784256,32.787806],[130.784277,32.787695],[130.784278,32.787689],[130.784297,32.787592],[130.784319,32.787477],[130.784342,32.787401],[130.784381,32.787316],[130.784403,32.787275],[130.784428,32.787237],[130.784436,32.787226],[130.784452,32.787208],[130.784468,32.787193],[130.784489,32.787175],[130.784515,32.787157],[130.784525,32.787151],[130.784486,32.787041],[130.784468,32.787017],[130.784462,32.787007],[130.784406,32.786992],[130.784331,32.786977],[130.784261,32.786965],[130.784189,32.786955],[130.784157,32.786952],[130.784125,32.78695],[130.784102,32.786951],[130.784089,32.786952],[130.784045,32.786958],[130.783944,32.787012],[130.78391,32.787031],[130.783904,32.787033],[130.783882,32.787038],[130.78388,32.787038],[130.783857,32.787035],[130.783819,32.787027],[130.783729,32.787007],[130.783638,32.786987],[130.78361,32.786981],[130.783607,32.786987],[130.783432,32.786954],[130.783363,32.78695],[130.783357,32.786952],[130.783341,32.786958],[130.783328,32.786967],[130.783317,32.786977],[130.783308,32.786991],[130.783302,32.787001],[130.78329,32.787028],[130.783281,32.787058],[130.783271,32.787104],[130.78325,32.787192],[130.78324,32.787218],[130.783229,32.787229],[130.783228,32.78723],[130.783221,32.787235],[130.783212,32.787239],[130.783203,32.787241],[130.783201,32.787241],[130.783191,32.787241],[130.783183,32.78724],[130.782888,32.787167],[130.7826,32.787095],[130.782572,32.787088],[130.782519,32.787073],[130.782406,32.787043],[130.782335,32.787018],[130.782254,32.786989],[130.782228,32.78698],[130.782186,32.786968],[130.782148,32.786958],[130.782133,32.787024],[130.782129,32.787046],[130.782124,32.787091],[130.782124,32.787093],[130.782125,32.787114],[130.782132,32.787136],[130.782141,32.787149],[130.78215,32.787159],[130.782158,32.787167],[130.782184,32.787182],[130.782232,32.787211],[130.782277,32.787243],[130.782324,32.787285],[130.782351,32.787314],[130.782366,32.787331],[130.782385,32.787358],[130.782401,32.787386],[130.782413,32.787404],[130.78243,32.787429],[130.782489,32.78749],[130.782695,32.787659],[130.782801,32.787738],[130.782844,32.787762],[130.782907,32.787787],[130.782895,32.787812],[130.782814,32.787938],[130.782706,32.788113],[130.78266,32.788192],[130.782649,32.788212],[130.78263,32.788253],[130.782628,32.788257],[130.782569,32.788416],[130.782568,32.788416],[130.782552,32.788458],[130.782535,32.78848],[130.782519,32.788499],[130.782499,32.788514],[130.782486,32.788526],[130.782404,32.788634],[130.782356,32.788731],[130.782361,32.788733],[130.782394,32.788744],[130.782411,32.78875],[130.782446,32.788765],[130.782537,32.788807],[130.782627,32.788847],[130.782689,32.788877],[130.782746,32.788904],[130.782766,32.788917],[130.782783,32.788928],[130.782864,32.788988],[130.782962,32.789064],[130.782989,32.789086],[130.783045,32.789125],[130.783084,32.78915],[130.783145,32.789188],[130.783175,32.789209],[130.783236,32.789256],[130.783308,32.789317],[130.783331,32.789337],[130.783351,32.789353],[130.783373,32.789368],[130.783393,32.789381],[130.783433,32.789404],[130.783485,32.789434],[130.783503,32.789447],[130.78353,32.789468],[130.783545,32.789494],[130.783555,32.789514],[130.783571,32.789535],[130.783586,32.789553],[130.783633,32.789594],[130.783806,32.789732],[130.783872,32.789783],[130.783915,32.789814],[130.783943,32.789827],[130.783966,32.78983],[130.783991,32.789827],[130.784009,32.789826],[130.78403,32.789824],[130.784045,32.789821],[130.78409,32.789812],[130.784153,32.789799],[130.784185,32.789816],[130.784185,32.78982],[130.784184,32.789827],[130.784187,32.789849],[130.784195,32.789882],[130.784197,32.789916],[130.784192,32.789949],[130.784183,32.789974],[130.784165,32.789995],[130.784113,32.790053],[130.783977,32.790197],[130.783879,32.790307],[130.783813,32.790378],[130.783784,32.790417],[130.783765,32.790442],[130.783732,32.790489],[130.783711,32.79054],[130.7837,32.790572],[130.783699,32.790576],[130.783689,32.790641],[130.783666,32.79072],[130.783645,32.790776],[130.783631,32.790799],[130.783625,32.790818],[130.783483,32.791031],[130.783477,32.791055],[130.783479,32.791073],[130.783488,32.791092],[130.783526,32.791151],[130.783466,32.791242],[130.783422,32.791298],[130.783421,32.791299],[130.78342,32.791299],[130.783384,32.791346],[130.783364,32.791376],[130.783361,32.791387],[130.783337,32.791418],[130.783142,32.791331],[130.783122,32.791329],[130.783109,32.791331],[130.783108,32.791331],[130.782931,32.79154],[130.782913,32.791564],[130.782907,32.791576],[130.782904,32.791624],[130.783077,32.79168],[130.783101,32.791676],[130.78311,32.791663],[130.783138,32.79164],[130.783166,32.791619],[130.78321,32.791602],[130.783248,32.791594],[130.783285,32.791593],[130.783319,32.791598],[130.783369,32.791611],[130.783401,32.791632],[130.783433,32.791664],[130.783451,32.791694],[130.783462,32.791722],[130.783469,32.791741],[130.783473,32.791752],[130.783478,32.791764],[130.783483,32.791772],[130.783499,32.791801],[130.783512,32.791816],[130.783524,32.791827],[130.783529,32.79183],[130.783579,32.791854],[130.783698,32.791898],[130.783846,32.79195],[130.78387,32.791959],[130.784877,32.792337],[130.784971,32.792366],[130.785036,32.792378],[130.785064,32.792382],[130.785144,32.792394],[130.78522,32.792399],[130.785296,32.792401],[130.78538,32.792396],[130.785453,32.792386],[130.785525,32.792373],[130.785616,32.79235],[130.78569,32.792322],[130.785794,32.792275],[130.786014,32.792151],[130.786063,32.792116],[130.786458,32.79193],[130.786679,32.791829],[130.786722,32.791793],[130.786815,32.791721],[130.786857,32.79166],[130.786892,32.791609]]]}},{"type":"Feature","properties":{"DistName":"益城台地中土地区画整理事業","DistType":"土地区画整理事業","DistCode":1,"Pref":"熊本県","Citycode":"43443","Cityname":"益城町"},"geometry":{"type":"Polygon","coordinates":[[[130.79212,32.789178],[130.792231,32.789078],[130.792245,32.78909],[130.792276,32.789116],[130.792317,32.78915],[130.79236,32.789119],[130.792519,32.788977],[130.792661,32.789093],[130.792677,32.789077],[130.792703,32.789046],[130.792719,32.789026],[130.792764,32.788963],[130.792799,32.788913],[130.792807,32.788898],[130.792681,32.788836],[130.792588,32.788841],[130.792455,32.788775],[130.79253,32.78865],[130.792646,32.788669],[130.792694,32.788576],[130.792876,32.788634],[130.79293,32.788658],[130.792938,32.788643],[130.792962,32.788653],[130.792999,32.788598],[130.793015,32.788574],[130.793067,32.788496],[130.793089,32.788466],[130.793105,32.788447],[130.793116,32.788436],[130.793129,32.788421],[130.793142,32.788393],[130.793161,32.788336],[130.793174,32.788295],[130.793182,32.788264],[130.793189,32.788245],[130.793198,32.788227],[130.793212,32.788209],[130.793218,32.788203],[130.79324,32.788183],[130.793274,32.788154],[130.793293,32.788135],[130.793298,32.788128],[130.793314,32.788107],[130.793325,32.788089],[130.793334,32.788069],[130.793342,32.788045],[130.793345,32.788036],[130.793365,32.787954],[130.793405,32.787835],[130.793249,32.787808],[130.793269,32.78776],[130.792632,32.787644],[130.792665,32.787578],[130.792712,32.787478],[130.79273,32.787445],[130.792525,32.7874],[130.792456,32.787388],[130.792449,32.7874],[130.792446,32.787404],[130.792437,32.787414],[130.792426,32.787422],[130.792424,32.787423],[130.792411,32.78743],[130.792398,32.787433],[130.792392,32.787434],[130.792373,32.787436],[130.792345,32.787432],[130.792321,32.787426],[130.792302,32.78742],[130.792201,32.787393],[130.792094,32.787366],[130.792056,32.787358],[130.792043,32.787355],[130.791995,32.787346],[130.791986,32.787344],[130.791921,32.787332],[130.791777,32.787307],[130.791734,32.7873],[130.791653,32.787288],[130.791589,32.787278],[130.791485,32.787264],[130.791451,32.78726],[130.79137,32.78725],[130.791358,32.787276],[130.791333,32.787326],[130.791244,32.787528],[130.791194,32.787653],[130.791149,32.787768],[130.791113,32.787867],[130.791088,32.787935],[130.79101,32.788175],[130.791147,32.788068],[130.791318,32.788132],[130.79118,32.788371],[130.791486,32.788564],[130.79169,32.788687],[130.791622,32.788785],[130.791575,32.788767],[130.791527,32.788745],[130.791496,32.788727],[130.791461,32.788705],[130.791448,32.78872],[130.79142,32.788733],[130.791247,32.788643],[130.79119,32.788661],[130.79098,32.788405],[130.791099,32.788359],[130.790993,32.788229],[130.790962,32.788324],[130.79094,32.788392],[130.790811,32.788786],[130.790726,32.789049],[130.790727,32.78913],[130.790728,32.789204],[130.790692,32.789357],[130.79061,32.78971],[130.790599,32.789769],[130.790593,32.78982],[130.790589,32.78988],[130.790591,32.789931],[130.790596,32.789967],[130.790604,32.790001],[130.790613,32.79003],[130.790629,32.790065],[130.790656,32.790114],[130.790686,32.790161],[130.79072,32.790203],[130.790753,32.790238],[130.790821,32.790303],[130.791027,32.790431],[130.79105,32.790445],[130.791208,32.790543],[130.791252,32.790573],[130.791282,32.790596],[130.791317,32.790624],[130.791362,32.790664],[130.791405,32.790708],[130.791434,32.790739],[130.791461,32.790775],[130.791488,32.790814],[130.791511,32.790857],[130.791529,32.790895],[130.791547,32.790939],[130.79156,32.79098],[130.791568,32.791011],[130.791574,32.79105],[130.791578,32.79109],[130.791579,32.791154],[130.791579,32.791182],[130.791633,32.791272],[130.791764,32.791288],[130.792123,32.791332],[130.792145,32.791335],[130.792408,32.791367],[130.792624,32.791394],[130.792794,32.791415],[130.793578,32.791511],[130.79361,32.791515],[130.793627,32.791433],[130.793779,32.791389],[130.793839,32.791202],[130.793919,32.790947],[130.793324,32.790763],[130.793306,32.790752],[130.793289,32.790741],[130.793354,32.790686],[130.793414,32.790635],[130.793311,32.790578],[130.793293,32.790568],[130.793195,32.790518],[130.792832,32.790331],[130.792832,32.790318],[130.792833,32.790293],[130.792863,32.790221],[130.792885,32.790167],[130.792889,32.79014],[130.792875,32.790102],[130.792871,32.790091],[130.792826,32.790002],[130.792797,32.789945],[130.792711,32.789744],[130.792706,32.789736],[130.792695,32.789722],[130.792659,32.789679],[130.792625,32.789636],[130.792582,32.789585],[130.792548,32.789549],[130.792536,32.789538],[130.79247,32.789475],[130.792449,32.789453],[130.792422,32.789423],[130.792406,32.789407],[130.792385,32.789393],[130.79212,32.789178]]]}},{"type":"Feature","properties":{"DistName":"益城台地東土地区画整理事業","DistType":"土地区画整理事業","DistCode":1,"Pref":"熊本県","Citycode":"43443","Cityname":"益城町"},"geometry":{"type":"Polygon","coordinates":[[[130.797502,32.793889],[130.797543,32.793657],[130.797573,32.793661],[130.79771,32.793613],[130.797774,32.793558],[130.797779,32.793536],[130.797791,32.793398],[130.797808,32.793387],[130.797823,32.793383],[130.797851,32.793382],[130.797916,32.793385],[130.79797,32.793391],[130.798017,32.793397],[130.798069,32.793407],[130.798123,32.79342],[130.798487,32.793515],[130.798601,32.793545],[130.798626,32.793528],[130.798639,32.793522],[130.798706,32.79351],[130.798767,32.793505],[130.798919,32.793501],[130.799211,32.793493],[130.79937,32.793482],[130.799406,32.793476],[130.799434,32.793465],[130.799453,32.793448],[130.799468,32.793423],[130.799493,32.793328],[130.799494,32.793328],[130.799497,32.793326],[130.799509,32.793324],[130.799698,32.793316],[130.79977,32.793313],[130.799767,32.793281],[130.799754,32.793145],[130.799747,32.793074],[130.79974,32.793013],[130.799738,32.793001],[130.799737,32.792986],[130.799733,32.792954],[130.799726,32.792861],[130.799724,32.792829],[130.799721,32.79278],[130.799717,32.792719],[130.799718,32.792508],[130.799719,32.792485],[130.799717,32.792456],[130.799723,32.792238],[130.799748,32.792021],[130.799766,32.79183],[130.799769,32.791797],[130.799776,32.791726],[130.799778,32.791701],[130.799781,32.791669],[130.799805,32.791432],[130.79981,32.791384],[130.799811,32.791366],[130.799814,32.79134],[130.799842,32.791034],[130.799852,32.790902],[130.799855,32.790859],[130.799857,32.790777],[130.799857,32.790699],[130.799854,32.790628],[130.799849,32.790542],[130.799848,32.79053],[130.799837,32.790458],[130.799829,32.790411],[130.799825,32.79039],[130.7998,32.790291],[130.799778,32.790199],[130.799777,32.790197],[130.799745,32.790073],[130.799717,32.789948],[130.799689,32.789814],[130.799645,32.789612],[130.79963,32.789541],[130.799618,32.789468],[130.799609,32.789403],[130.799603,32.789337],[130.799601,32.789306],[130.799597,32.789209],[130.799595,32.789092],[130.799594,32.789034],[130.799596,32.788972],[130.799597,32.788949],[130.799604,32.788879],[130.799607,32.788837],[130.799608,32.78882],[130.799616,32.788734],[130.799626,32.788649],[130.799653,32.788439],[130.799677,32.788253],[130.799689,32.788158],[130.799712,32.787983],[130.799719,32.787928],[130.799767,32.787552],[130.799801,32.787286],[130.799817,32.787137],[130.799819,32.787098],[130.79982,32.787067],[130.799805,32.787067],[130.799781,32.78707],[130.799684,32.787087],[130.799675,32.78709],[130.799672,32.787124],[130.799656,32.787368],[130.799639,32.787395],[130.799606,32.787419],[130.799583,32.787426],[130.799312,32.787425],[130.799307,32.787428],[130.79927,32.787482],[130.799064,32.787522],[130.799007,32.787446],[130.798958,32.787397],[130.79878,32.787516],[130.79876,32.787514],[130.798731,32.787483],[130.798708,32.787455],[130.798673,32.787405],[130.79863,32.787339],[130.798589,32.787272],[130.798549,32.7872],[130.798466,32.787018],[130.798219,32.787096],[130.798139,32.787124],[130.798088,32.787152],[130.798066,32.787163],[130.798028,32.787181],[130.797992,32.787196],[130.797944,32.787213],[130.797929,32.787218],[130.797894,32.787228],[130.797887,32.787229],[130.79777,32.787248],[130.797745,32.787251],[130.797677,32.787256],[130.797611,32.787259],[130.797551,32.787261],[130.797534,32.787261],[130.797497,32.78726],[130.797477,32.787257],[130.797465,32.787256],[130.797435,32.787251],[130.7974,32.787243],[130.797392,32.787241],[130.797358,32.78723],[130.797336,32.787222],[130.797297,32.787196],[130.797277,32.78712],[130.797272,32.787107],[130.797261,32.787094],[130.797257,32.78709],[130.797246,32.787081],[130.797229,32.787073],[130.797212,32.787066],[130.797065,32.786994],[130.796957,32.786952],[130.796848,32.786909],[130.796789,32.786888],[130.796755,32.786878],[130.796745,32.786875],[130.796731,32.786872],[130.796714,32.786868],[130.796675,32.786859],[130.796657,32.786853],[130.796645,32.786847],[130.796638,32.786842],[130.796633,32.786837],[130.796622,32.786823],[130.796621,32.786802],[130.796579,32.786798],[130.796448,32.786775],[130.7963,32.786702],[130.796134,32.786603],[130.796127,32.786599],[130.796098,32.786582],[130.796083,32.786579],[130.796071,32.786568],[130.795993,32.786501],[130.79596,32.786448],[130.795955,32.786438],[130.795947,32.786421],[130.795885,32.786291],[130.795878,32.786268],[130.795841,32.786173],[130.795826,32.786136],[130.795774,32.786126],[130.79572,32.786112],[130.795673,32.786099],[130.795672,32.786104],[130.795632,32.786409],[130.795588,32.786427],[130.795349,32.786524],[130.795351,32.786555],[130.795352,32.786569],[130.795357,32.786614],[130.795367,32.786679],[130.795374,32.786707],[130.79539,32.786769],[130.795417,32.786881],[130.795426,32.786918],[130.795443,32.787],[130.795448,32.78703],[130.795453,32.787072],[130.795457,32.787125],[130.795457,32.787143],[130.795457,32.787195],[130.795456,32.787213],[130.795451,32.787267],[130.795446,32.787316],[130.795444,32.787352],[130.795444,32.787395],[130.795445,32.787409],[130.795448,32.787468],[130.795453,32.787526],[130.795464,32.787638],[130.795469,32.787675],[130.79548,32.78776],[130.795482,32.787774],[130.795485,32.787822],[130.795485,32.787858],[130.795484,32.787871],[130.795481,32.787908],[130.795476,32.787943],[130.795467,32.787988],[130.795453,32.788058],[130.79545,32.788078],[130.795446,32.788122],[130.79544,32.788193],[130.795435,32.788254],[130.795432,32.788313],[130.795431,32.788344],[130.795432,32.788359],[130.795432,32.788438],[130.79543,32.78848],[130.795426,32.78852],[130.795419,32.788565],[130.79541,32.788606],[130.795395,32.788664],[130.795377,32.788719],[130.795358,32.788776],[130.795279,32.788907],[130.795262,32.788927],[130.795224,32.788974],[130.795164,32.789043],[130.79508,32.789134],[130.794992,32.789231],[130.794939,32.789293],[130.794922,32.789313],[130.7949,32.789344],[130.794869,32.78939],[130.794841,32.789435],[130.794787,32.789522],[130.794767,32.789557],[130.795519,32.789623],[130.795536,32.790066],[130.79567,32.790764],[130.7957,32.790869],[130.795715,32.790916],[130.795719,32.790931],[130.795725,32.790964],[130.795729,32.790994],[130.79573,32.791036],[130.795728,32.791076],[130.795723,32.79115],[130.795713,32.79124],[130.79571,32.79127],[130.795694,32.791379],[130.79567,32.791465],[130.795656,32.791542],[130.795649,32.791615],[130.795646,32.791688],[130.795014,32.791615],[130.794933,32.791821],[130.794831,32.791957],[130.794753,32.792016],[130.794759,32.792035],[130.79481,32.792111],[130.794833,32.792142],[130.795609,32.792123],[130.795615,32.792195],[130.795615,32.792209],[130.79559,32.792365],[130.79557,32.79254],[130.79557,32.792546],[130.795556,32.792765],[130.795558,32.792816],[130.795589,32.793117],[130.795597,32.793281],[130.795623,32.793832],[130.795698,32.793831],[130.795961,32.793822],[130.796443,32.793819],[130.796965,32.7938],[130.796994,32.793802],[130.797016,32.793809],[130.797029,32.793818],[130.797057,32.793856],[130.797071,32.793867],[130.797087,32.793874],[130.797105,32.793878],[130.797502,32.793889]]]}},{"type":"Feature","properties":{"DistName":"益城中央被災市街地復興土地区画整理事業","DistType":"土地区画整理事業","DistCode":1,"Pref":"熊本県","Citycode":"43443","Cityname":"益城町"},"geometry":{"type":"Polygon","coordinates":[[[130.819795,32.792537],[130.820046,32.791646],[130.820106,32.79148],[130.820139,32.791082],[130.820202,32.790965],[130.820333,32.790876],[130.820492,32.7908],[130.820564,32.790752],[130.821201,32.790504],[130.821104,32.790234],[130.820994,32.789929],[130.82088,32.789582],[130.820852,32.789358],[130.820844,32.789241],[130.820833,32.789063],[130.820405,32.788613],[130.820346,32.78849],[130.819887,32.788556],[130.818497,32.788451],[130.818374,32.78844],[130.818442,32.787938],[130.81852,32.787339],[130.818536,32.787035],[130.817508,32.786958],[130.816451,32.786798],[130.816507,32.78662],[130.816524,32.786563],[130.816211,32.786519],[130.815985,32.786441],[130.815961,32.786532],[130.815898,32.786648],[130.815784,32.786808],[130.815699,32.786966],[130.815656,32.787017],[130.815575,32.787046],[130.815418,32.787066],[130.815315,32.787149],[130.815223,32.787282],[130.815212,32.787378],[130.815246,32.787447],[130.815387,32.787538],[130.815419,32.787583],[130.815415,32.787663],[130.815362,32.787722],[130.815254,32.787839],[130.815055,32.787902],[130.814869,32.788023],[130.814519,32.788198],[130.814435,32.788258],[130.814335,32.788172],[130.814008,32.788038],[130.81368,32.788912],[130.814899,32.789335],[130.815059,32.789365],[130.815492,32.789356],[130.815523,32.789576],[130.815537,32.789674],[130.81561,32.78972],[130.81587,32.789788],[130.815842,32.789986],[130.816024,32.790145],[130.816021,32.790223],[130.815945,32.790487],[130.816286,32.790578],[130.816252,32.79074],[130.816338,32.790839],[130.816038,32.791221],[130.815817,32.791577],[130.815607,32.791958],[130.815826,32.792174],[130.816415,32.792521],[130.816883,32.792727],[130.817488,32.79291],[130.817596,32.792925],[130.817736,32.792367],[130.818413,32.792508],[130.818246,32.793128],[130.818484,32.793213],[130.819011,32.793357],[130.819518,32.793483],[130.819795,32.792537]]]}}]}