{"type":"FeatureCollection","_注意":"このファイルはscripts/build_youto_r8_for_site.pyが自動生成します。手で編集しても次回の実行で消えます。直したいときは、もとのデータかスクリプトの方を直してください。","features":[{"type":"Feature","geometry":{"type":"Polygon","coordinates":[[[130.8112797973157,32.87003387735842],[130.81180908836546,32.87001176820525],[130.81198539441695,32.87006929705731],[130.81216179717757,32.870081014567944],[130.8128269454892,32.869990387940476],[130.81351940256346,32.86981966057879],[130.81366871036786,32.8698084299965],[130.81384507514755,32.869820145076815],[130.81403504893666,32.86983188011683],[130.81459132798668,32.869901389929005],[130.814672694141,32.86991296316909],[130.81474055052462,32.86991306356245],[130.81476783572134,32.8698444188702],[130.8147814783369,32.86981008061489],[130.81482238234238,32.869718518614384],[130.8150406147095,32.869192043581975],[130.81505423337148,32.86916915806952],[130.81516337221433,32.86889448350656],[130.81525877325586,32.86869995826244],[130.81539503899378,32.86841387067137],[130.8157084035029,32.86781881764674],[130.81573566364702,32.86776162549542],[130.81574930556712,32.867727287120644],[130.81577654206924,32.86768151592621],[130.81576297113162,32.86768149596407],[130.81570873470508,32.867658510540636],[130.815695163771,32.86765849057114],[130.81555957283638,32.86760102689503],[130.8153290707812,32.86752051753435],[130.81517990939025,32.86746303343649],[130.81499003544147,32.867405520841125],[130.81475952049783,32.867313557596304],[130.8145289961022,32.86724449954314],[130.814352693971,32.86718697426402],[130.8141357033752,32.867117935545984],[130.81394583084273,32.867060421367604],[130.81374244940116,32.86699140218316],[130.81357971910538,32.86693389599694],[130.81334918288374,32.86685338293613],[130.81314580238103,32.86678436278279],[130.81298307285172,32.86672685582127],[130.81292883766156,32.86670390100705],[130.81275251360177,32.86665782625548],[130.81252193070728,32.86660021723201],[130.81226434070095,32.86649675604013],[130.8120880415251,32.86643922757322],[130.81189817184136,32.86638167847748],[130.8117761076435,32.86634716845867],[130.81157272952586,32.86627814575093],[130.8113828605216,32.866220595874054],[130.81135574331833,32.86620910221675],[130.8111387574487,32.866140058306684],[130.8109353426056,32.866071034507144],[130.81075908283466,32.866013504226586],[130.81052855149787,32.865933017787285],[130.81033868391046,32.86587546632762],[130.8101352702968,32.86580644122873],[130.80993189469595,32.86573741585669],[130.80979626158702,32.865702851500195],[130.80975557411753,32.86569133688663],[130.8095250445287,32.86561084860036],[130.80944366975518,32.86558781918383],[130.80933524045804,32.86554184289721],[130.80913180388515,32.8654842689485],[130.80894196269517,32.86541526259196],[130.8088063550125,32.865369244383885],[130.80872500520493,32.86533476172072],[130.8087249806475,32.86534621450048],[130.80871128727495,32.86540345767315],[130.8086976675678,32.86542634250507],[130.80861580174712,32.865632368138435],[130.80847939563114,32.865975712301186],[130.80841124715815,32.86611301004846],[130.80841119796114,32.866135915604694],[130.80835664451408,32.866261813112175],[130.8083698954462,32.866410688173815],[130.80838344158215,32.8664221617148],[130.8083833923774,32.866445067269865],[130.80838317095544,32.866548142266616],[130.80838250675112,32.86685733543339],[130.80838162110675,32.86726960356967],[130.80836743517347,32.867555870385466],[130.8084214974374,32.867659028412625],[130.8084211285248,32.86783078822666],[130.80842110392598,32.86784224100164],[130.80842103012938,32.86787659932648],[130.80840736076513,32.86792238966574],[130.80840723776151,32.86797965353959],[130.80840718855995,32.868002559088964],[130.80840706555588,32.86805982296205],[130.80839337162155,32.86811703425953],[130.80839327321075,32.868162845357176],[130.80837923471813,32.86838042730286],[130.80837903794816,32.86847201768061],[130.80837898873844,32.868494923228155],[130.80837896413357,32.868506376001896],[130.8083653684694,32.86851780801051],[130.80836507318864,32.86865524129339],[130.80836477790587,32.868792674573236],[130.80837817683835,32.8688728329372],[130.8083779307843,32.86898736066672],[130.80839142810385,32.869021739749186],[130.8084049254337,32.869056118830045],[130.80840487622956,32.86907902437547],[130.80841842277397,32.8690904979093],[130.80845891492515,32.86919360332417],[130.80847243690036,32.8692165296245],[130.80847238771324,32.86923943516945],[130.80849925956005,32.869365457171604],[130.80851263404017,32.86945710009992],[130.80853965351935,32.86951440545795],[130.80855315104844,32.86954875270734],[130.80858024432135,32.86957169974033],[130.80859376638472,32.86959462602651],[130.8086207974093,32.86962902576486],[130.80870207739522,32.86969786680175],[130.80872914619076,32.869732266573976],[130.80875619044957,32.86977811911189],[130.8087832592903,32.86981251887214],[130.8087967324056,32.86985831886564],[130.80881020546641,32.869904150670685],[130.80881018091566,32.86991560344214],[130.80881013181406,32.869938508984966],[130.80887798819427,32.86993861255844],[130.80890510620785,32.869950106748966],[130.80893224876354,32.86995014816218],[130.80912222214445,32.86996189066134],[130.80917650726386,32.86996197338767],[130.80919007854374,32.86996199406559],[130.80921722110352,32.86996203541698],[130.80927155520627,32.86993921255875],[130.80932586479682,32.86992784244849],[130.8093530318274,32.869916430998614],[130.80943442176812,32.86991655487153],[130.8094887313244,32.8699051846904],[130.80951575156692,32.869962489836304],[130.80955641649783,32.86998545729884],[130.8095699877816,32.86998547793554],[130.809610677185,32.86999699260864],[130.80990919665123,32.87002035169066],[130.8101262020576,32.87006649212036],[130.81065531243695,32.870147462858014],[130.81075033590392,32.87013615367783],[130.81106258385375,32.87006790827997],[130.8112797973157,32.87003387735842]]]},"properties":{"YoutoName":"準住居地域","YoutoCode":7,"FAR":200,"BCR":60,"Pref":"熊本県","Citycode":"43404","Cityname":"菊陽町","FNDate":"令和8年5月22日","FNDateISO":"2026-05-22","GeomSource":"市町計画図PDF","GeomNote":"総括図からの抽出。都市計画決定図書ではない","GeomAccuracy":"既存用途地域での残差 0.01m","信頼度":"良好","AreaHa":25.42,"AreaHaMaster":25.4,"GeomSourceDoc":"菊陽町 用途地域の変更 総括図（図面番号1・縮尺1/10,000）","高度地区":"―","都市計画の種類":"熊本都市計画用途地域の変更（菊陽町決定）","決定理由":"原水駅周辺土地区画整理事業を実施する新たに市街化区域に編入する区域において、良好な市街地環境の形成・保全と適切な土地利用の誘導を図るため、第一種住居地域、準住居地域及び工業地域を指定する。（理由書より）","備考":"原水駅周辺土地区画整理事業に伴い市街化区域へ編入する区域。告示日は計画書・理由書・総括図のいずれにも記載が無く、2026-08-09に依頼者から提供を受けた"}},{"type":"Feature","geometry":{"type":"Polygon","coordinates":[[[130.82603843073176,32.8732273567764],[130.82616057684308,32.87322752637582],[130.82616062148938,32.8732046208229],[130.82616077775094,32.87312445138699],[130.82617437184672,32.873113017447295],[130.82618798825857,32.873090130729366],[130.82621515411316,32.87307871561911],[130.82624254302328,32.87295280454727],[130.8262698872996,32.8728497672078],[130.82632450869414,32.872678082651234],[130.8263927907898,32.87246057395327],[130.82643373549746,32.872323228806515],[130.82646107935614,32.8722201914135],[130.82652931621305,32.87202558818055],[130.82655668207755,32.871911129795244],[130.82657032047553,32.87187679025119],[130.82662491848598,32.871716526499014],[130.82663866806743,32.871624954861474],[130.82665235090653,32.871567709747154],[130.82663877936886,32.87156769096285],[130.82666612275457,32.871464653511005],[130.82669348832957,32.87135016327105],[130.82670714877742,32.87130440274154],[130.82676179067448,32.87112123335167],[130.82685739115652,32.87081217144185],[130.82687109595759,32.87074347351384],[130.82688464514192,32.87075494505396],[130.82689834991297,32.870686247122244],[130.8268847785094,32.870686228365074],[130.82688486742083,32.870640417238754],[130.82691214349808,32.87057176987457],[130.82693946403617,32.870480185126446],[130.82695310206515,32.8704458455316],[130.82691238796423,32.87044578927386],[130.82685810249652,32.87044571424296],[130.82681738839585,32.87044565795432],[130.82680383926706,32.87043418640654],[130.82677669653688,32.87043414887049],[130.8267088397116,32.870434055004594],[130.82657314832977,32.87042241438055],[130.82649174242925,32.87041084882281],[130.82645106604357,32.87041079246722],[130.82643745698408,32.87041077360942],[130.82627466065392,32.870399095098534],[130.8260575412394,32.87038734094537],[130.82584042188395,32.870375586415534],[130.82562334028577,32.87036383156152],[130.8254062434661,32.87034062349714],[130.82532481536725,32.87034050996188],[130.82531124401746,32.870340491034185],[130.82518912431573,32.870328867837486],[130.8249855990421,32.870305677984575],[130.82476851773401,32.87029392164797],[130.82461925548859,32.870282259917815],[130.82460568414822,32.8702822409136],[130.82455139878684,32.87028216488203],[130.82438858780074,32.8702590310844],[130.82438856525232,32.87027048386519],[130.82433427989872,32.87027040773942],[130.8242528744346,32.87025884072589],[130.8242393407962,32.870258821734836],[130.82411719876788,32.87025865027308],[130.82407650728445,32.870247172125325],[130.8239951018758,32.87023560494418],[130.82396795921017,32.8702355667989],[130.82391367387908,32.870235490490685],[130.82369657783147,32.87021227946136],[130.82364229251536,32.870212203035415],[130.82362872118637,32.870212183925254],[130.82349303056063,32.870200539962276],[130.82335737766917,32.870188895905386],[130.82327597240933,32.87017732825666],[130.8231131392415,32.87016564558064],[130.82309956792002,32.87016562641311],[130.82305885395553,32.87016556890163],[130.8228553068804,32.870153828365446],[130.82282816424134,32.87015378997295],[130.82262467769846,32.870130596335024],[130.82258398653136,32.870119085889115],[130.82257041521734,32.870119066664174],[130.82242115356502,32.870107402312925],[130.82232617719376,32.870095814804074],[130.82231260588347,32.87009579555118],[130.82220405823065,32.87008418869533],[130.82209551060654,32.870072581745355],[130.82200059486925,32.87004954126335],[130.82181064238756,32.870026365535566],[130.8217970710882,32.870026346226794],[130.82158002193756,32.86998022596795],[130.82153933097564,32.86996871518265],[130.82152575968527,32.86996869584448],[130.82134942466723,32.86992263319614],[130.82129516248034,32.86991110297276],[130.82128159119893,32.86991108360811],[130.82114598491472,32.869876563409434],[130.82103748364347,32.86984204998339],[130.82102391237277,32.869842030590824],[130.82095610199815,32.869819028047026],[130.82082045834767,32.86978447562872],[130.82080688708592,32.86978445621264],[130.82072550555344,32.86976143412643],[130.8205898851175,32.869715428678965],[130.8205763138664,32.869715409237905],[130.82053562315656,32.86970389812649],[130.82033223053298,32.869634889645816],[130.82014239478548,32.869554479303986],[130.82004746551982,32.869519984508194],[130.81993896511236,32.86948547013035],[130.81984405913153,32.86943952240086],[130.81983048792304,32.86943950287904],[130.81974916780254,32.86940502743312],[130.81955933313876,32.869324584393766],[130.8195322139291,32.86931309250749],[130.8195050947265,32.86930160061536],[130.81936947562605,32.86925559384602],[130.8191932127289,32.86917520163644],[130.81917966477826,32.86916372926459],[130.81901695021529,32.86909477736529],[130.8190034022996,32.86908330497433],[130.81898983114598,32.8690832853615],[130.81884072571833,32.86901435290037],[130.81882715457536,32.86901433326994],[130.8187864876815,32.86899136881057],[130.81863734486828,32.868922436052564],[130.81862377373943,32.868922416400096],[130.8185695358149,32.868899432216274],[130.818447512178,32.868842023140175],[130.8184339410616,32.86884200346715],[130.81840682214496,32.86883051133706],[130.81824410879233,32.868761558433036],[130.81823057538583,32.868761538792725],[130.81802719574597,32.86866962095345],[130.81789160175913,32.86861215980355],[130.81785093529098,32.86858919504005],[130.81782381652692,32.86857770278363],[130.81781024545123,32.86857768304309],[130.81764755643837,32.868497276583774],[130.81762043772872,32.86848578428328],[130.81760686666715,32.86848576452074],[130.81745776325027,32.86841686222519],[130.8174306445897,32.86840536988358],[130.81741709698352,32.86839389732065],[130.81725438519896,32.86832494312999],[130.81715948184598,32.86827899336449],[130.81711881571937,32.86825602836297],[130.81707812612734,32.868244516128144],[130.816874748798,32.868152628229254],[130.81669852810907,32.868072200747875],[130.81649515163218,32.86798028041882],[130.8163324413209,32.867911325029645],[130.81612906559107,32.86781940410571],[130.8160070590877,32.86777344548543],[130.81595282254182,32.86775046016773],[130.81577654213496,32.86768148411294],[130.81574930563283,32.86772725530737],[130.81573566371273,32.86776159368215],[130.8157084035686,32.86781878583347],[130.8153950390596,32.8684138388581],[130.81525873562424,32.86869992639357],[130.81516337228024,32.868894451693286],[130.81505423337148,32.86916915806952],[130.81504061477546,32.869192011768725],[130.81482238240844,32.86971848680111],[130.81478147840295,32.86981004880162],[130.81476783578742,32.86984438705694],[130.8147405505907,32.869913031749185],[130.81505259496635,32.86995930418661],[130.81533743567752,32.87001698854881],[130.81569014730258,32.870086224973065],[130.81658548603392,32.870247846919305],[130.81661260514423,32.870259339442335],[130.8178471934669,32.87042148046814],[130.81811855053718,32.87045623326802],[130.8181728126379,32.87046776486803],[130.81819995536569,32.87046780427095],[130.81828132251732,32.870479375166276],[130.81837627543464,32.8705024185216],[130.81843056091196,32.870502497233346],[130.81855265663893,32.870525579801985],[130.81857977608948,32.87053707189923],[130.81860691883898,32.87053711121391],[130.8189732297381,32.87059490527017],[130.8191224076502,32.8706294474218],[130.81916309859741,32.87064095899201],[130.8191766699884,32.87064097858688],[130.81935305168048,32.87066413873987],[130.81944800507566,32.87068718128268],[130.8194751478722,32.870687220409145],[130.81952941029195,32.870698751421386],[130.8197329118526,32.87073340292513],[130.82001778122986,32.87077962386524],[130.82020773483714,32.870802802316554],[130.8202619974236,32.870814333011374],[130.8203976885446,32.87082598047968],[130.8204790563156,32.87083754994697],[130.82051977058146,32.87083760829911],[130.82058762769145,32.87083770552325],[130.82068260462069,32.87084929435265],[130.82099472438793,32.87086119365037],[130.8210218672398,32.87086123244142],[130.82111686722172,32.8708613681637],[130.8212254386304,32.870861523186534],[130.82119808920973,32.870964527625006],[130.8211843193426,32.8710446776376],[130.82115701568264,32.87112480832259],[130.82115699271804,32.8711362610998],[130.82114339004949,32.87117060010481],[130.82138761593495,32.87118240144829],[130.82146904478603,32.871182517549],[130.82148261626125,32.87118253689396],[130.82150973629243,32.8711940283568],[130.8217404285137,32.87120580972349],[130.821971143658,32.87120613788738],[130.82198467743865,32.87120615712429],[130.82214751235264,32.87121784127325],[130.82220179827715,32.87121791834993],[130.8222289412395,32.87121795687943],[130.82231037012681,32.87121807243261],[130.82232394160806,32.87121809168633],[130.82247320510731,32.87122975615781],[130.82269031114092,32.87123006370456],[130.82297528956343,32.871241919635935],[130.8229888383196,32.87125339159564],[130.82319241062808,32.87125367914286],[130.82328741103973,32.871253813218196],[130.82328734296715,32.871288171553],[130.82327354461066,32.87140264837171],[130.82325958729228,32.87159732644405],[130.82325931501782,32.8717347279611],[130.8232592015433,32.87179199184784],[130.82325908806848,32.87184925573405],[130.82323162713217,32.87200955630576],[130.8231094827101,32.87200938385198],[130.82297374401807,32.872020613060215],[130.82285159958252,32.872020440354575],[130.8227294700837,32.87203172035955],[130.82260732563452,32.87203154741534],[130.82248518118635,32.872031374351856],[130.82247158678467,32.87204280789158],[130.8223901571428,32.872042692440786],[130.82222727503256,32.87205391415634],[130.8222403444641,32.87230589449044],[130.82229460823254,32.87231742430483],[130.82238960977398,32.872317559065834],[130.822484634111,32.87230624097884],[130.82274245771043,32.87230660614566],[130.8229867473659,32.87230695165349],[130.82300027355618,32.87232987638672],[130.82300002360296,32.87245582510982],[130.82299981904293,32.87255890009222],[130.82301314072896,32.87268489980366],[130.82301254987678,32.87298264014641],[130.8230260761755,32.873005564874745],[130.82297172096028,32.87303984647667],[130.82341954373607,32.87306335247179],[130.82354156126706,32.873109335674975],[130.8245593387891,32.873145123946266],[130.82522425082263,32.87318041201449],[130.82550921344105,32.873203714967715],[130.82559064415793,32.87320382839168],[130.825848448035,32.87321563994174],[130.82587559161138,32.87321567768202],[130.8259027128315,32.873227168192706],[130.82602485894168,32.873227337924654],[130.82603843073176,32.8732273567764]]]},"properties":{"YoutoName":"第１種住居地域","YoutoCode":5,"FAR":200,"BCR":60,"Pref":"熊本県","Citycode":"43404","Cityname":"菊陽町","FNDate":"令和8年5月22日","FNDateISO":"2026-05-22","GeomSource":"市町計画図PDF","GeomNote":"総括図からの抽出。都市計画決定図書ではない","GeomAccuracy":"既存用途地域での残差 0.01m","信頼度":"良好","AreaHa":23.58,"AreaHaMaster":23.6,"GeomSourceDoc":"菊陽町 用途地域の変更 総括図（図面番号1・縮尺1/10,000）","高度地区":"―","都市計画の種類":"熊本都市計画用途地域の変更（菊陽町決定）","決定理由":"原水駅周辺土地区画整理事業を実施する新たに市街化区域に編入する区域において、良好な市街地環境の形成・保全と適切な土地利用の誘導を図るため、第一種住居地域、準住居地域及び工業地域を指定する。（理由書より）","備考":"原水駅周辺土地区画整理事業に伴い市街化区域へ編入する区域。告示日は計画書・理由書・総括図のいずれにも記載が無く、2026-08-09に依頼者から提供を受けた"}},{"type":"Feature","geometry":{"type":"Polygon","coordinates":[[[130.82695313963993,32.87044590921025],[130.82693950161098,32.8704802488051],[130.8269121810729,32.87057183355326],[130.8268849049339,32.870640512730695],[130.8268848160843,32.87068629204375],[130.82689838748786,32.870686310800906],[130.8268846827168,32.87075500873262],[130.82687113353245,32.870743537192524],[130.8268574287314,32.87081223512052],[130.82676182824946,32.87112129703038],[130.8267071863524,32.87130446642026],[130.82669352590457,32.87135022694977],[130.8266661603296,32.871464717189724],[130.8266388169439,32.871567754641596],[130.8266523884816,32.87156777342588],[130.8266387056425,32.871625018540215],[130.8266249560611,32.871716590177755],[130.82657035805065,32.87187685392994],[130.82655675735157,32.87191119352619],[130.82652939142525,32.87202568372479],[130.82646115463032,32.87222025514451],[130.8264338107717,32.87232329253754],[130.82639282836507,32.872460637632074],[130.82632454626946,32.87267814633005],[130.8262699248749,32.872849830886636],[130.8262425805986,32.87295286822611],[130.82621519168853,32.873078779297956],[130.82618802583391,32.87309019440823],[130.8261744094221,32.87311308112614],[130.8261608153263,32.87312451506587],[130.82616065906475,32.87320468450176],[130.82616061441848,32.87322759005468],[130.82617420853012,32.87321615611524],[130.8262149238956,32.87321621261743],[130.82633709229327,32.87320492926787],[130.82655426315762,32.87319377740013],[130.8265814067283,32.873193814987246],[130.82656784178505,32.873170890588675],[130.82663570069454,32.873170984537964],[130.82666284425846,32.87317102210738],[130.8267850125394,32.873159738319885],[130.8268392996608,32.873159813388],[130.82688001500196,32.873159869673614],[130.82692075256864,32.87314847316894],[130.8269478961261,32.87314851067648],[130.82724647526123,32.8731489228706],[130.82726004704026,32.87314894158976],[130.8272600248585,32.873160394367005],[130.8272735966393,32.8731604130847],[130.82732786823613,32.87314903511151],[130.82749075173808,32.873137806760916],[130.8275178952931,32.87313784414474],[130.82754506099323,32.87312642874524],[130.8275858427401,32.87309212646853],[130.82763988636094,32.87321818174114],[130.8276803804528,32.873332765539004],[130.82768035832493,32.87334421831616],[130.82768033619706,32.87335567109331],[130.82769377525096,32.87342440642794],[130.82777454276305,32.8737680699195],[130.8277880483551,32.87380241509763],[130.827950932997,32.87379118615275],[130.82811380191032,32.87376853598053],[130.8283445898991,32.873734494081184],[130.82887403089782,32.87364359613297],[130.8292133930831,32.87360970092924],[130.8298649353104,32.87354187083637],[130.83062509470673,32.87345127866361],[130.8309373769365,32.87338301554375],[130.83096447715985,32.87340595773798],[130.83101878614184,32.873394578213706],[130.83104595147523,32.873383162053166],[130.8311409598637,32.87336038456245],[130.8312767213351,32.873337661904934],[130.8312902931457,32.873337680186935],[130.8313174584272,32.873326263967144],[130.83135817385397,32.87332631879542],[130.83139888928088,32.87332637361047],[130.83138536077485,32.873303449781424],[130.83137185392894,32.87326907317139],[130.83134473198518,32.873257583844236],[130.83131769668879,32.87320028339302],[130.83130421154627,32.873154453995596],[130.83130425486976,32.87313154843624],[130.8312907264175,32.87310862459643],[130.8312907697444,32.87308571903693],[130.83129083467455,32.873051392510774],[130.83129085633792,32.873039939730916],[130.83129089966468,32.87301703417116],[130.83127754455344,32.8729024880894],[130.8312776962081,32.872822318628145],[130.83127771787298,32.87281086584789],[130.8312780211201,32.87265055873528],[130.83126468774458,32.87252455986488],[130.8312648394086,32.872444390398826],[130.83126490440728,32.87241003205592],[130.8312516793635,32.87222680108634],[130.83125170103125,32.872215348305],[130.8312517443667,32.87219244274226],[130.8312518093698,32.87215808439799],[130.83123851938026,32.87200921176509],[130.83123877941063,32.87187177838295],[130.83123882274882,32.871848872818966],[130.8312253595191,32.87179159062183],[130.83122540286064,32.87176868505757],[130.83122546787286,32.871734326711014],[130.83122577120153,32.87157401957121],[130.83122600957677,32.87144803896232],[130.83121313149658,32.87108156342935],[130.8312131748401,32.8710586578625],[130.83121321818354,32.87103575229556],[130.8311454259256,32.87100130248428],[130.83110477094598,32.870989794857515],[130.83094195686607,32.87096670139519],[130.83077914293187,32.870943575907845],[130.83048065819636,32.87089736103675],[130.83020935433424,32.87085118230277],[130.83018221147216,32.87085114550522],[130.82978877110548,32.87078189458063],[130.8297480787048,32.87077038646222],[130.82957177549474,32.870724335441935],[130.82947679751078,32.87071275335795],[130.82939539095943,32.87070118968819],[130.8292868416179,32.870689588973825],[130.82913757809325,32.87067793263149],[130.82889333676425,32.870654693584534],[130.82855417745344,32.870608450359256],[130.82854060606056,32.870608431781754],[130.82844562833776,32.8705968489155],[130.82837779341844,32.87058530317187],[130.8283642220292,32.870585284575256],[130.82817426670508,32.87056211850306],[130.82806575539507,32.870550516781655],[130.82802502562683,32.87053900805166],[130.82801149194316,32.870538989468564],[130.82793006365176,32.87053887762851],[130.8278215147046,32.87052727564361],[130.82782155891923,32.87050437007878],[130.8277808447897,32.87050431410361],[130.82776725129892,32.87051574822468],[130.82769939440794,32.870515654895904],[130.82742801116302,32.87049237564827],[130.8273059286656,32.87048075456864],[130.8271702371316,32.87046911459185],[130.82715666576092,32.870469095864294],[130.82703454563375,32.870457474467976],[130.82699383152735,32.87045741823674],[130.82695313963993,32.87044590921025]]]},"properties":{"YoutoName":"準住居地域","YoutoCode":7,"FAR":200,"BCR":60,"Pref":"熊本県","Citycode":"43404","Cityname":"菊陽町","FNDate":"令和8年5月22日","FNDateISO":"2026-05-22","GeomSource":"市町計画図PDF","GeomNote":"総括図からの抽出。都市計画決定図書ではない","GeomAccuracy":"既存用途地域での残差 0.01m","信頼度":"良好","AreaHa":13.63,"AreaHaMaster":13.6,"GeomSourceDoc":"菊陽町 用途地域の変更 総括図（図面番号1・縮尺1/10,000）","高度地区":"―","都市計画の種類":"熊本都市計画用途地域の変更（菊陽町決定）","決定理由":"原水駅周辺土地区画整理事業を実施する新たに市街化区域に編入する区域において、良好な市街地環境の形成・保全と適切な土地利用の誘導を図るため、第一種住居地域、準住居地域及び工業地域を指定する。（理由書より）","備考":"原水駅周辺土地区画整理事業に伴い市街化区域へ編入する区域。告示日は計画書・理由書・総括図のいずれにも記載が無く、2026-08-09に依頼者から提供を受けた"}},{"type":"Feature","geometry":{"type":"Polygon","coordinates":[[[130.81665798417953,32.86793486669631],[130.81667155515643,32.86793488656151],[130.8166986735754,32.867946379067675],[130.8167122680872,32.867934946148225],[130.81673966886663,32.8678090052812],[130.81675328687993,32.86778611957642],[130.81673971592565,32.867786099720185],[130.8167261684372,32.867774658895215],[130.8167125974847,32.86777463903604],[130.81610234372442,32.867579046639314],[130.81606165457413,32.86756753407418],[130.81591246899202,32.86752150362879],[130.81572259450616,32.86746396033039],[130.8156955000241,32.86744101483224],[130.81534290761363,32.86733745195852],[130.81500387301728,32.86722242348854],[130.814949613308,32.86721089051644],[130.81448855116352,32.867061353662024],[130.81429867858722,32.867003808205006],[130.81406815535325,32.86693474930336],[130.8137833832604,32.86683125088342],[130.81349858788658,32.86673920459628],[130.8131324780419,32.86661270973054],[130.8130917897209,32.866601196200634],[130.81298331959815,32.86655522301581],[130.8128341373172,32.866509188903756],[130.8125765231444,32.86641718113322],[130.81252226424448,32.86640564710971],[130.81234594092035,32.86635960359908],[130.81221033002612,32.86631358907615],[130.8121018848357,32.86625616234753],[130.8120341277791,32.86621024941159],[130.81179003767153,32.866141165949806],[130.811464582937,32.866026148291255],[130.81116622181935,32.865934108084936],[130.81094927446313,32.86586506390298],[130.81086792336743,32.86583058263131],[130.810623797518,32.86576149684],[130.81047461779727,32.865715459917695],[130.81008137526078,32.865588915059405],[130.81004068780592,32.86557740053841],[130.81000000036164,32.865565886004205],[130.80995933732692,32.86554291867658],[130.80993219611216,32.86554287749109],[130.80990507930338,32.865531383519524],[130.80986439189783,32.86551986894128],[130.80982370450286,32.865508354349814],[130.8097965877187,32.865496860354746],[130.80975587591803,32.86549679852144],[130.8097423297446,32.86548532512722],[130.8097287591462,32.865485304511715],[130.8096880717847,32.865473789876184],[130.8096609550287,32.86546229585176],[130.80964740887282,32.86545082244728],[130.8096202676866,32.865450781194234],[130.80959315094637,32.86543928715513],[130.8095660342132,32.865427793110165],[130.80949826787796,32.86540478441947],[130.80945758058337,32.86539326970909],[130.80941689329936,32.865381754985485],[130.80938977660657,32.865370260902345],[130.8093626599208,32.86535876681334],[130.80933551876308,32.86535872549862],[130.80930840208788,32.86534723139788],[130.80929483151078,32.865347210735365],[130.80926771484437,32.865335716625815],[130.809240598185,32.86532422251039],[130.809213457038,32.86532418116923],[130.80919991096087,32.865312707716306],[130.80918634038915,32.86531268704205],[130.80915922367927,32.86530122472228],[130.8091321070445,32.86528973058336],[130.8091049904167,32.86527823643859],[130.80909141985026,32.865278215754046],[130.80907784928388,32.86527819506804],[130.80905073266666,32.86526670091151],[130.80902361605646,32.86525520674911],[130.80899649945326,32.86524371258083],[130.8089693828571,32.86523221840668],[130.80894226626793,32.86522072422665],[130.8089151496858,32.86520923004075],[130.80890157913007,32.865209209335674],[130.80887446255673,32.865197715140965],[130.80884738368636,32.86518622099793],[130.80882026712706,32.86517472679147],[130.80879312602627,32.86517468535929],[130.80872492953998,32.8653348888587],[130.8087385001147,32.865334909583005],[130.80875204613554,32.86534638308564],[130.80880627934766,32.86536937152191],[130.8089418493344,32.86541538967255],[130.80913169052457,32.86548439602927],[130.80933512709765,32.86554196997817],[130.80944359409108,32.86558794632223],[130.80952496886468,32.86561097573881],[130.80975546075754,32.865691463967956],[130.8097961482271,32.86570297858157],[130.80993178133616,32.865737542938184],[130.81013519463346,32.865806568367546],[130.81033860824735,32.86587559346657],[130.81052843813868,32.86593314486932],[130.8107589694757,32.86601363130882],[130.81093526694318,32.86607116164644],[130.8111386440901,32.86614018538926],[130.81135562995993,32.86620922929952],[130.8113827471633,32.86622072295686],[130.8115726161677,32.866278272833895],[130.81177603198205,32.86634729559845],[130.81189805848354,32.86638180556075],[130.8120879281675,32.86643935465666],[130.81226422734352,32.86649688312372],[130.81252185504664,32.866600344372266],[130.81275240024482,32.86665795333951],[130.8129287243048,32.866704028091235],[130.812982959495,32.86672698290552],[130.81314568902448,32.86678448986718],[130.81334906952736,32.86685351002071],[130.81357960574925,32.866934023081726],[130.81374233604518,32.86699152926811],[130.81394575518374,32.86706054850871],[130.81413559001962,32.86711806263128],[130.81435258061563,32.86718710134951],[130.81452888274706,32.867244626628775],[130.81475944483978,32.86731368473791],[130.81498992208677,32.867405647927185],[130.81517979603572,32.867463160522725],[130.8153289574268,32.867520644620726],[130.8155594971792,32.867601154037125],[130.815695050417,32.86765861765783],[130.81576285777766,32.86768162305083],[130.81595270912237,32.86775061906794],[130.81600694566833,32.86777360438569],[130.81612898986896,32.8678195630614],[130.81633232790193,32.867911483930186],[130.81649503821342,32.867980439319524],[130.8165628224749,32.86801489705933],[130.81656284602732,32.8680034442793],[130.81665798417953,32.86793486669631]]]},"properties":{"YoutoName":"工業地域","YoutoCode":12,"FAR":200,"BCR":60,"Pref":"熊本県","Citycode":"43404","Cityname":"菊陽町","FNDate":"令和8年5月22日","FNDateISO":"2026-05-22","GeomSource":"市町計画図PDF","GeomNote":"総括図からの抽出。都市計画決定図書ではない","GeomAccuracy":"既存用途地域での残差 0.01m","信頼度":"良好","AreaHa":1.61,"AreaHaMaster":1.6,"GeomSourceDoc":"菊陽町 用途地域の変更 総括図（図面番号1・縮尺1/10,000）","高度地区":"―","都市計画の種類":"熊本都市計画用途地域の変更（菊陽町決定）","決定理由":"原水駅周辺土地区画整理事業を実施する新たに市街化区域に編入する区域において、良好な市街地環境の形成・保全と適切な土地利用の誘導を図るため、第一種住居地域、準住居地域及び工業地域を指定する。（理由書より）","備考":"原水駅周辺土地区画整理事業に伴い市街化区域へ編入する区域。告示日は計画書・理由書・総括図のいずれにも記載が無く、2026-08-09に依頼者から提供を受けた"}}]}