{"type":"FeatureCollection","_注意":"このファイルはscripts/build_youto_r8_for_site.pyが自動生成します。手で編集しても次回の実行で消えます。直したいときは、もとのデータかスクリプトの方を直してください。","features":[{"type":"Feature","geometry":{"type":"Polygon","coordinates":[[[130.74409329640184,32.862141107984215],[130.74409638746874,32.86214111426267],[130.7441427240269,32.8621151761306],[130.74419831289495,32.86208665592886],[130.74421993290406,32.86207628851746],[130.7442570002033,32.86205554115371],[130.7442878893852,32.862039982915725],[130.74430333667047,32.86202960296137],[130.74436201649615,32.86200108895921],[130.74442070371396,32.861969966152685],[130.74447013114937,32.861944034168076],[130.74452572721034,32.86191291299605],[130.74457823621793,32.8618869872168],[130.74462148344742,32.861863651434284],[130.74467398297435,32.86183772559525],[130.7447295883448,32.861806596396946],[130.74477899875723,32.861783273046335],[130.74484076731642,32.861752156282606],[130.7448654856172,32.86173919419509],[130.74486240195804,32.861736587112574],[130.74479152718172,32.8617156130046],[130.74473914621217,32.86169989390972],[130.74458199943953,32.861647510948565],[130.74452346070308,32.86162656965007],[130.7445080653886,32.86161872796378],[130.74430466426503,32.861563650011455],[130.74407660841973,32.86150592081225],[130.7439502771413,32.86146401095547],[130.74376538527395,32.86140896974186],[130.74366986895302,32.86137754152865],[130.74366062956054,32.86137231310054],[130.74364215275057,32.861364465038065],[130.7436359949541,32.861359250832],[130.74351075027963,32.8609372942592],[130.7434026159222,32.861004751545245],[130.7432605852288,32.86106173631454],[130.74319880720236,32.861092844328404],[130.74294244823864,32.86122768442312],[130.7427324007241,32.86134178799938],[130.74263353999936,32.861398852243966],[130.74260572685355,32.86141962598914],[130.7425902700543,32.86143000571519],[130.74234316156293,32.86156225467748],[130.74232780381547,32.86154140065674],[130.74227838541063,32.86156733181396],[130.74295939650813,32.86176916258073],[130.74303335254183,32.86179013605634],[130.74318125922952,32.86183729249501],[130.74333841293904,32.86188707638881],[130.7434555050865,32.86192375841908],[130.7435540961189,32.86195779389113],[130.74371124282436,32.86201017814051],[130.74379443128038,32.86203898041427],[130.7438683802917,32.86206256217381],[130.7439330844423,32.86208611714668],[130.74401627304172,32.86211491927328],[130.7440686466852,32.86213324744675],[130.74409329640184,32.862141107984215]]]},"properties":{"YoutoName":"第１種住居地域","YoutoCode":5,"FAR":200,"BCR":60,"Pref":"熊本県","Citycode":"43216","Cityname":"合志市","FNDate":"令和8年5月22日","FNDateISO":"2026-05-22","GeomSource":"市町計画図PDF","GeomNote":"計画図からの抽出。都市計画決定図書ではない","GeomAccuracy":"既存用途地域での残差 0.09m","信頼度":"良好","AreaHa":1.29,"AreaHaMaster":1.3,"GeomSourceDoc":"合志市 用途地域の変更 計画図1・2（令和8年5月22日）","高度地区":"―","都市計画の種類":"熊本都市計画用途地域の変更（合志市決定）","決定理由":"熊本都市計画区域区分の変更に伴い市街化区域に編入する区域について、将来の合理的な土地利用を図るため、用途地域を指定する。なお、用途地域を指定する地域は、すでに市街化を形成した区域で、隣接する既存市街化区域との一体性・連続性を勘案した住居系の用途とし、九州縦貫自動車道沿線、主要地方道熊本大津線沿線、並びに合志市都市計画マスタープランで位置付けた補助幹線道路に接する区域の一部については、市街化区域内における生活利便性等を確保するため、一定の利便施設を許容する用途を指定する。"}},{"type":"Feature","geometry":{"type":"Polygon","coordinates":[[[130.74969594631938,32.8636881931156],[130.7496621612514,32.86367384160912],[130.7496229284158,32.86365580243348],[130.7495404962354,32.86361941919914],[130.74946807098803,32.86358622008765],[130.7493633256936,32.86353394730705],[130.7491847102164,32.86344248303978],[130.7487504499693,32.863204734852225],[130.74871672634453,32.86319001388234],[130.7486959104181,32.86318019889348],[130.74869590838085,32.863180926459115],[130.74788180723277,32.86282555219647],[130.74779551099672,32.8628019480936],[130.74724716187828,32.862576986368765],[130.7471547393967,32.86254035739143],[130.74659716120058,32.86230756382939],[130.7464369600183,32.86224476574838],[130.74624902749483,32.86217410114828],[130.74595323403574,32.86207458575264],[130.74584540235486,32.86203532389952],[130.74568212055956,32.861972518638005],[130.7454726358261,32.86188879722363],[130.74539560284842,32.861862609340854],[130.7452908311375,32.861831163661236],[130.74521068707435,32.86181538068135],[130.74510280428396,32.86179433985911],[130.74491786660985,32.86175492119079],[130.7448654856172,32.86173919419509],[130.74484076731642,32.861752156282606],[130.74477899875723,32.861783273046335],[130.7447295883448,32.861806596396946],[130.74467398297435,32.86183772559525],[130.74462148344742,32.861863651434284],[130.74457823621793,32.8618869872168],[130.74452572721034,32.86191291299605],[130.74447013114937,32.861944034168076],[130.74442070371396,32.861969966152685],[130.74436201649615,32.86200108895921],[130.74430333667047,32.86202960296137],[130.7442878893852,32.862039982915725],[130.7442570002033,32.86205554115371],[130.74421993290406,32.86207628851746],[130.74419831289495,32.86208665592886],[130.7441427240269,32.8621151761306],[130.74409638746874,32.86214111426267],[130.74409329640184,32.862141107984215],[130.74410561754237,32.862146342639335],[130.74403431197763,32.86227635103532],[130.74395681319476,32.86241675810589],[130.74395370925765,32.86242456226469],[130.7439072016402,32.86251036696651],[130.7438979100923,32.86252336817531],[130.7438948135914,32.862528563556275],[130.7438824012452,32.862551969724365],[130.74386699840514,32.862546728782455],[130.74347276167296,32.862358507294374],[130.7433642905543,32.86254310493372],[130.74317530943574,32.86283946983392],[130.74289336875833,32.86328662853121],[130.74247440629446,32.86311657522195],[130.7424559198055,32.86310872696595],[130.7424528231774,32.86311393026381],[130.74244662051876,32.86312432888642],[130.74238156673704,32.86322571602068],[130.74237536406224,32.8632361146395],[130.74230100331175,32.86335570446486],[130.7423348927494,32.863368785922056],[130.74230701911858,32.86341038207347],[130.74223885888856,32.86351697240148],[130.74208392417768,32.86376655041142],[130.7420808275276,32.86377174574573],[130.74206534225533,32.86379514543574],[130.74209306647572,32.86380561349786],[130.742616729971,32.86403315611306],[130.74285392846767,32.864135160624286],[130.74308803637035,32.86423715838317],[130.7431434927803,32.864255493227354],[130.74318662234748,32.86427380291948],[130.74371346236472,32.86447010556136],[130.74387980875247,32.864543330907686],[130.74401534499532,32.86460087250593],[130.74406154919814,32.86462179693412],[130.74430182525109,32.86472640578872],[130.745376857865,32.86520755060354],[130.7462133926946,32.86387124697255],[130.74684180537548,32.86414323688462],[130.747319256263,32.86435764688877],[130.74814789274856,32.86472114045704],[130.74816021450803,32.864726366759996],[130.74869091918126,32.864962660320145],[130.7486909173743,32.864963305600035],[130.7489773981771,32.86509142902908],[130.74898717609614,32.86509498920557],[130.74899809284832,32.865100284468745],[130.7493769557245,32.86526763534933],[130.74980776773594,32.86545884021353],[130.750184928012,32.86562746177761],[130.75038011548068,32.86531287689924],[130.7503956060764,32.865286875353654],[130.75049163555116,32.86513608972912],[130.7506186333898,32.86494110336469],[130.75077662806538,32.86469152082128],[130.7508509569202,32.86457973635709],[130.7510306184295,32.86429895444804],[130.7510089891163,32.86429047923397],[130.7509896567169,32.86428165548783],[130.75097121414166,32.864271207737936],[130.75086956268274,32.8642241519624],[130.75045373670383,32.864030700145705],[130.75008411997854,32.863860762049406],[130.7499393647969,32.86379279741225],[130.74969594631938,32.8636881931156]]]},"properties":{"YoutoName":"第１種低層住居専用地域","YoutoCode":1,"FAR":80,"BCR":40,"Pref":"熊本県","Citycode":"43216","Cityname":"合志市","FNDate":"令和8年5月22日","FNDateISO":"2026-05-22","GeomSource":"市町計画図PDF","GeomNote":"計画図からの抽出。都市計画決定図書ではない","GeomAccuracy":"既存用途地域での残差 0.09m","信頼度":"良好","AreaHa":16.96,"AreaHaMaster":17.0,"GeomSourceDoc":"合志市 用途地域の変更 計画図1・2（令和8年5月22日）","外壁の後退距離の限度":"1.0m","建築物の敷地面積の最低限度":"―","建築物の高さの限度":"10.0m","高度地区":"―","都市計画の種類":"熊本都市計画用途地域の変更（合志市決定）","決定理由":"熊本都市計画区域区分の変更に伴い市街化区域に編入する区域について、将来の合理的な土地利用を図るため、用途地域を指定する。なお、用途地域を指定する地域は、すでに市街化を形成した区域で、隣接する既存市街化区域との一体性・連続性を勘案した住居系の用途とし、九州縦貫自動車道沿線、主要地方道熊本大津線沿線、並びに合志市都市計画マスタープランで位置付けた補助幹線道路に接する区域の一部については、市街化区域内における生活利便性等を確保するため、一定の利便施設を許容する用途を指定する。"}},{"type":"Feature","geometry":{"type":"Polygon","coordinates":[[[130.7678897617989,32.87356692334323],[130.76797330936995,32.873442125716934],[130.7678210834267,32.8733747229467],[130.76768899128723,32.87331502968575],[130.7675199741372,32.873240900860125],[130.76732635205286,32.873154602765574],[130.7671797269133,32.87308966177504],[130.76704815535513,32.873030141271485],[130.7669640085715,32.87299320486562],[130.76687032439315,32.87295070417167],[130.76646983938582,32.8727729151789],[130.76634765648512,32.872719037033406],[130.7662378681157,32.87266937600805],[130.7659477591185,32.87253892810338],[130.76562257045993,32.87239131844784],[130.76545843664917,32.8723175926434],[130.76515337547022,32.87217797360509],[130.76483206858242,32.87203314012547],[130.76466131501746,32.87195478226425],[130.76438313479753,32.87183675669743],[130.76414285209393,32.871733626616226],[130.76385015716764,32.8716081271277],[130.76365808898223,32.87152597204691],[130.76344741579672,32.87143456987021],[130.76308696614805,32.87126988911602],[130.76272341454293,32.8711025767864],[130.76256544368212,32.87103115498717],[130.7624391182084,32.870972923695454],[130.76201399906367,32.87077948488813],[130.76157344565684,32.870578220885186],[130.76132698626864,32.87046657627861],[130.76102595999038,32.87032885429453],[130.76081662250084,32.87023456270959],[130.76062465676742,32.87014684710063],[130.76036277722673,32.87002664736431],[130.76027040883386,32.869985740820574],[130.7602219560843,32.869962892093454],[130.76004940783494,32.86988447499572],[130.75990464219782,32.86981391309734],[130.75978652175482,32.869756654998284],[130.75968814999104,32.869707774516336],[130.75942387305986,32.86958937750935],[130.75941177332874,32.86958390079255],[130.75933166614809,32.86954730432685],[130.75929156545862,32.86952900598479],[130.75927001064377,32.869518553517246],[130.759159126493,32.86946627722692],[130.75910674897654,32.869441916609766],[130.75906273519706,32.8694202498728],[130.75893029666213,32.86935748110516],[130.75873619588936,32.86926866534465],[130.7586902950655,32.86924805366338],[130.75863235553896,32.86922058408831],[130.75845983843206,32.86914215690244],[130.75828855314685,32.86906520713186],[130.75814476142412,32.868999414960385],[130.75790322499302,32.86888968334],[130.75762191256152,32.868760499990366],[130.75742351797007,32.868670706377515],[130.7572513596918,32.86859158505331],[130.75724382347028,32.86860529328711],[130.75723056014195,32.868624383925805],[130.75715965748782,32.86875274038876],[130.7571118721366,32.86883596987964],[130.75698789657332,32.86905962548505],[130.7568701689444,32.869272873760856],[130.75676487638898,32.869418460556766],[130.7567027361694,32.86951189834736],[130.756333504799,32.87006536154396],[130.75613727591747,32.86997424008037],[130.75580449089114,32.8698330550843],[130.75536700969812,32.86965261369737],[130.75495425162563,32.86946179960862],[130.75472316533296,32.869354612366116],[130.75472277006924,32.869354432640435],[130.7547209674177,32.86935359638677],[130.75471932871932,32.869352867864656],[130.7544643993591,32.86923695151545],[130.7544127353776,32.86921505145929],[130.7543851807877,32.86920195865978],[130.75432717264925,32.86917734267109],[130.7542795182425,32.869155941368945],[130.7540423947631,32.869051286256074],[130.754002295372,32.86903299417679],[130.75393452287204,32.86900168363876],[130.753828788693,32.86895593342861],[130.75377213747674,32.86893004468097],[130.75337782284595,32.86875226560429],[130.75253990111253,32.868378377214064],[130.75234780434303,32.86829337263086],[130.75217859298257,32.86821727588814],[130.75210159286218,32.86818332151101],[130.75199283067656,32.86813592135807],[130.75186832940494,32.86808030672561],[130.75149557808678,32.867915576307745],[130.75141003543453,32.86787787495493],[130.75133451762443,32.86784338322485],[130.75102954367384,32.86770478556339],[130.7508691499307,32.867634110895644],[130.75078706095613,32.867596596593664],[130.75069464625975,32.86755476858503],[130.75056395538346,32.86749653040774],[130.75044735747448,32.867443311641495],[130.75020971701764,32.86733615046638],[130.74995534135925,32.86722010231395],[130.74973354713026,32.8671207427046],[130.749601092402,32.86706061259081],[130.74954037898087,32.86702728656856],[130.74949548076808,32.8670015315017],[130.74946163249948,32.86697283114158],[130.74943401896638,32.866938933544695],[130.74942144193793,32.866921204645074],[130.7494164470705,32.86691187058098],[130.74940112094578,32.8668753965765],[130.7494009845834,32.86687561402555],[130.7494002725117,32.86687378984693],[130.7493692220418,32.86692319169903],[130.74932897889536,32.86699078906246],[130.74913074919954,32.86730540590646],[130.74909969862873,32.86735473610457],[130.7490594621764,32.86741979618176],[130.74896337337697,32.867573189309546],[130.7488952398782,32.86767191712336],[130.74884580355237,32.867723914844426],[130.74879623663006,32.86778887669649],[130.74878072197097,32.8678096842649],[130.7487714348821,32.8678278795522],[130.74877049801364,32.86782946358548],[130.7487630557872,32.867839871229826],[130.74875382321514,32.86785536562675],[130.74873736048653,32.867879907858786],[130.74870327157296,32.867937105983785],[130.74879839222132,32.8681298529607],[130.74895172677034,32.86843478245704],[130.7490283837584,32.868591064850115],[130.7490406571145,32.86861717718947],[130.74904187765623,32.86861615201214],[130.74904451169922,32.86861615725864],[130.74910504079148,32.868747426729435],[130.7491081218056,32.868757852114136],[130.7491131213662,32.8687689007455],[130.74918256593472,32.86892880284778],[130.74922851173326,32.86904342650776],[130.74924258076052,32.86907212367898],[130.74924295713708,32.86907308410274],[130.74924736693552,32.86908399092177],[130.74927446491645,32.86915544932839],[130.74930865587115,32.86925734948281],[130.74932869103608,32.86932053290535],[130.74932865459633,32.86933357677762],[130.74934385696722,32.86939087312127],[130.74937137652287,32.86949241611799],[130.7494110319578,32.86963566023728],[130.74942007189352,32.869705988256605],[130.7494780254418,32.8699455871296],[130.74949335845338,32.86998991930261],[130.74951170031835,32.87003680261513],[130.749545462734,32.87009668098623],[130.7495454853161,32.87009671168473],[130.74954634883375,32.87009831164984],[130.74957707062725,32.87014002584436],[130.74976772920306,32.8703486464286],[130.74986303240587,32.870460743155775],[130.74992759683235,32.870533806047504],[130.7500505937042,32.87067196594137],[130.75012434856805,32.87076843061415],[130.75021654149364,32.87089101968104],[130.75023763089425,32.870919131028145],[130.7502402189539,32.87092587326474],[130.75024086428323,32.870926858127945],[130.7502411145216,32.870927495988404],[130.75029946522778,32.87101868062727],[130.75033330068962,32.871052630112985],[130.75035477089793,32.871075377545814],[130.7504184957246,32.871144871633405],[130.75046465628034,32.87118664004763],[130.75047384678763,32.87119440586157],[130.75049017076344,32.87121169517644],[130.75053017028975,32.871245656814985],[130.75054199990169,32.87125476739569],[130.7505631909163,32.871272734285114],[130.75067086066446,32.87136147121746],[130.75074524765392,32.87142110337162],[130.75078560192372,32.87145438815139],[130.75079399682227,32.87146388743403],[130.75082166115965,32.87149714019937],[130.75082648842334,32.871502891779556],[130.75083477770858,32.87151692134655],[130.750853215932,32.871543045689855],[130.75092381821185,32.87166551199318],[130.75095749930924,32.871712260661695],[130.75104572624338,32.8718931963008],[130.7510947373469,32.871994860885124],[130.7510951088974,32.871995318684874],[130.75109563316147,32.871996404066735],[130.75112944767733,32.87203814784176],[130.7512927011635,32.872119199461835],[130.75129305887313,32.87211930047792],[130.7512948614291,32.872120207473124],[130.75130495790117,32.872122660725395],[130.75133893278078,32.87213225511515],[130.7513635859531,32.87214009831679],[130.751372935452,32.872145066485814],[130.75138732171146,32.87215419284081],[130.7514519708894,32.87219074797643],[130.75159057841503,32.87227175058665],[130.75160636068802,32.872279150163315],[130.75161919493874,32.87228639235403],[130.75164998549144,32.872307291537425],[130.7516776991646,32.87232293525884],[130.75170849678676,32.8723412892828],[130.75173416559844,32.872359096461025],[130.75177536251124,32.87238927161022],[130.75180608173943,32.87242575971279],[130.75184208926163,32.87246443781514],[130.7518530896094,32.87247686523979],[130.751871542846,32.87249774006977],[130.75188360644296,32.87251024381702],[130.7518983553785,32.87252742965368],[130.75199674103308,32.872634360946094],[130.75201516388964,32.872652610999715],[130.75203643149197,32.87267514099752],[130.75204990805994,32.87269072791116],[130.7521119878784,32.8727598264287],[130.7521966018134,32.87285602392017],[130.7522765724565,32.87294208028305],[130.75227967550387,32.87294471107884],[130.7523575427628,32.873030136900596],[130.75238510023752,32.87306107139681],[130.75243737431782,32.873118440186836],[130.75244961460345,32.8731318709978],[130.75248874559392,32.87317681092816],[130.75255953761055,32.87324201059019],[130.75259112260608,32.87326541660545],[130.7526096641185,32.87328015755145],[130.75262223606683,32.87328886282276],[130.75264268394153,32.87330460977134],[130.7527566075459,32.87338293792666],[130.75276483064667,32.8733873207204],[130.75277899435477,32.873397646739285],[130.75282209223133,32.873426364327955],[130.75284364961715,32.87343937101778],[130.75295759283344,32.87350727978502],[130.75296168257444,32.87350959452588],[130.75297518178294,32.87351873725961],[130.75300128481123,32.87353299771987],[130.75301918045045,32.87354382810454],[130.75307461104106,32.87357781916916],[130.75311955757593,32.873604285274006],[130.75318454864413,32.87364409893127],[130.75323398273034,32.873668065003415],[130.7532717213632,32.87368748804226],[130.75332881516312,32.873715678562284],[130.75340328990902,32.87375388950309],[130.75342204965963,32.87375756996751],[130.75344424960332,32.873763385154895],[130.75348431608379,32.87377380325642],[130.7535599552825,32.873770782303026],[130.75360683184346,32.87376987678827],[130.75365786332333,32.87376800302545],[130.7537434368229,32.873766515401556],[130.75377120352422,32.873766569665605],[130.75394395372993,32.87376173727707],[130.7540549994501,32.87375932938237],[130.75406643592,32.87375773075691],[130.7540726620435,32.87375774290898],[130.7540787812431,32.873760379546816],[130.7541650378159,32.87378918089884],[130.75417811862894,32.87379333887703],[130.75419061564241,32.87379864629507],[130.75419994965077,32.873770031470215],[130.75407976034722,32.87372811998253],[130.75408009561338,32.87360579395306],[130.75407757707404,32.87340018794143],[130.7540748804461,32.87325956265975],[130.7540750587612,32.87319450238725],[130.75407991011994,32.87319451185569],[130.7540834396908,32.873195522491244],[130.75427466204948,32.87320106539997],[130.7544689945198,32.873206693612985],[130.754638633307,32.87321219390628],[130.75470519699124,32.87321335335101],[130.75480911819417,32.87321677140515],[130.754969492088,32.87322225322132],[130.75498353782135,32.873222280533554],[130.7549932737496,32.87322330321137],[130.75500523692236,32.87322332647185],[130.7550268088224,32.87322489844752],[130.7549430915132,32.87354858826698],[130.75494425493665,32.87354892138421],[130.75494392121647,32.87355021082851],[130.75495316959405,32.873552853509246],[130.75550199220405,32.873707505652234],[130.75600327215938,32.873850019905625],[130.75602493591913,32.87385531124171],[130.7560254016261,32.87385421810754],[130.7560257727813,32.87385430911506],[130.7560481264294,32.873800877104316],[130.75613354825396,32.873600369324876],[130.75618154577532,32.87351144066864],[130.75619332566063,32.87349019849438],[130.7563330637112,32.873146792795396],[130.75639818892742,32.87301942215121],[130.75651228175482,32.87273938551651],[130.7567109021481,32.872258277632355],[130.75674081743534,32.87217809305579],[130.75689809556985,32.87239048525901],[130.7569724728674,32.87249309608464],[130.75743353915712,32.873090108425394],[130.75771425902505,32.87345036502991],[130.75778174739173,32.873537483827505],[130.75794156019066,32.873751266103824],[130.7579553780813,32.87376800720135],[130.7580052545809,32.87383049674256],[130.7580883491336,32.873913930698286],[130.75816530034132,32.873968719772776],[130.75824230071268,32.87400529510167],[130.7583902381865,32.874055050346435],[130.75842332652988,32.87406637110902],[130.75861297106144,32.874132577996434],[130.7587108876785,32.87416211010704],[130.75880317177592,32.87419121199578],[130.75880362966979,32.874190081437575],[130.75880405573645,32.87419020994068],[130.75904009379087,32.873607581494554],[130.75940966563275,32.87265552314571],[130.75956186247433,32.87227578948038],[130.7597139848401,32.87188818137338],[130.75977620648837,32.87170608245735],[130.76130114968768,32.872391003153346],[130.76180028721024,32.87261059261273],[130.76212038085038,32.87275529564402],[130.76250490856825,32.872930514271225],[130.76272387661467,32.873029144297824],[130.76290632251084,32.87311248378998],[130.7631871216912,32.87323759222054],[130.76352162327558,32.87338800951627],[130.76430113346862,32.873730441439854],[130.7647108551351,32.8739082545914],[130.7654718805709,32.87425843925758],[130.76612193651124,32.87455122689519],[130.76618973785077,32.87457473632914],[130.7662091964174,32.87457859933484],[130.76623071816257,32.874584227835676],[130.7662578276509,32.87458716581629],[130.7662791432929,32.87459057077299],[130.76630409049054,32.87459281748765],[130.76633860407753,32.874597471814056],[130.7663767348491,32.87459592154415],[130.7663993968827,32.87459596354446],[130.76641737078418,32.874593989531576],[130.76644352131606,32.8745924964037],[130.76655146829754,32.87458227712573],[130.76682245819052,32.87455755894878],[130.7669702349182,32.87454500345256],[130.76699160340672,32.8745422028855],[130.76702972958302,32.87453886028686],[130.76707602809108,32.87453115129719],[130.7671023413565,32.87452527911945],[130.76712449390536,32.874521825346065],[130.76714580589257,32.874514691920474],[130.76717166140057,32.874507944324456],[130.76721798030076,32.874492361233365],[130.76725195863406,32.87447421018049],[130.76728283340827,32.8744534286931],[130.76731130288283,32.87443170253308],[130.76731597632713,32.87442848527721],[130.76731865437978,32.87442595193038],[130.76734158021782,32.8744066902982],[130.7673500116174,32.87439727083193],[130.76736236256698,32.87438689391001],[130.76737473087692,32.874368741191255],[130.76737561249743,32.87436770081906],[130.76739726381655,32.87434173242644],[130.7674112841544,32.8743213935532],[130.76743357779773,32.874293331642434],[130.76747138532394,32.87423225234595],[130.76747465938797,32.87422734304639],[130.7678897617989,32.87356692334323]]]},"properties":{"YoutoName":"第１種中高層住居専用地域","YoutoCode":3,"FAR":150,"BCR":60,"Pref":"熊本県","Citycode":"43216","Cityname":"合志市","FNDate":"令和8年5月22日","FNDateISO":"2026-05-22","GeomSource":"市町計画図PDF","GeomNote":"計画図からの抽出。都市計画決定図書ではない","GeomAccuracy":"既存用途地域での残差 0.09m","信頼度":"良好","AreaHa":60.27,"AreaHaMaster":60.3,"GeomSourceDoc":"合志市 用途地域の変更 計画図1・2（令和8年5月22日）","高度地区":"10m以下","都市計画の種類":"熊本都市計画用途地域の変更（合志市決定）","決定理由":"熊本都市計画区域区分の変更に伴い市街化区域に編入する区域について、将来の合理的な土地利用を図るため、用途地域を指定する。なお、用途地域を指定する地域は、すでに市街化を形成した区域で、隣接する既存市街化区域との一体性・連続性を勘案した住居系の用途とし、九州縦貫自動車道沿線、主要地方道熊本大津線沿線、並びに合志市都市計画マスタープランで位置付けた補助幹線道路に接する区域の一部については、市街化区域内における生活利便性等を確保するため、一定の利便施設を許容する用途を指定する。"}},{"type":"Feature","geometry":{"type":"Polygon","coordinates":[[[130.7553884048048,32.87532540365727],[130.75540791488805,32.875331609685205],[130.7554087581097,32.87532977224015],[130.75541015761954,32.87533007262733],[130.75543964841864,32.87526245981665],[130.75546998240384,32.875196359558615],[130.7555444985808,32.8750169114268],[130.75551367063358,32.875009057068866],[130.75545531860755,32.874991806815004],[130.75522926125814,32.874923609570786],[130.7552233744969,32.87492234603664],[130.7552177957999,32.8749199588569],[130.75516506662086,32.874905641804745],[130.75507518333552,32.874879088048466],[130.75495940774138,32.87484538052786],[130.7550116663731,32.87472175173882],[130.75501026699888,32.87472132125583],[130.7550107706806,32.87472012904969],[130.75483202735663,32.87466514002703],[130.75477043556415,32.87464680638287],[130.75468990242862,32.87462311289003],[130.75461100998706,32.874598645439804],[130.75460018516844,32.87459599107533],[130.75458985708477,32.874592199389895],[130.7546546950086,32.87441651308293],[130.75472298903767,32.874255187558916],[130.75469624198905,32.874250414328806],[130.75466352470252,32.874243111139016],[130.7544261432464,32.87419317720305],[130.75408824767547,32.87414061725807],[130.75409723696663,32.87410563290621],[130.75414079916519,32.87396517744683],[130.7541843778408,32.87382209730618],[130.7541849192766,32.873818936121204],[130.7541896891955,32.873804818087876],[130.7541897019414,32.873800165521246],[130.75419061564241,32.87379864629507],[130.75418970716035,32.87379826046743],[130.75418971054887,32.87379702358155],[130.75417811862894,32.87379333887703],[130.75416596895053,32.8737881789686],[130.75407967467746,32.87375937754364],[130.75407351777704,32.87375674083228],[130.75406643592,32.87375773075691],[130.75405720468208,32.87375771273891],[130.75394305806645,32.8737601145802],[130.7537703738404,32.87376494709643],[130.7537425694387,32.873764892758516],[130.75365786332333,32.87376800302545],[130.753607715858,32.87376887477007],[130.7535599552825,32.873770782303026],[130.75348344848575,32.87377226014738],[130.7534434199255,32.87376176258358],[130.75342204965963,32.87375756996751],[130.75340417392567,32.87375288748633],[130.75332881516312,32.873715678562284],[130.7532708631949,32.8736859449502],[130.75323398273034,32.873668065003415],[130.75318547036298,32.87364309698991],[130.75311955757593,32.873604285274006],[130.75307370597008,32.873576196447594],[130.7530182845871,32.873542284936846],[130.75300128481123,32.87353299771987],[130.75297606580205,32.87351773524585],[130.75296168257444,32.87350959452588],[130.7529597531516,32.87350828776757],[130.75284589475908,32.87344037916869],[130.7528212437176,32.87342474171552],[130.75278117132527,32.87339603006282],[130.75276483064667,32.8733873207204],[130.7527574444402,32.873381935821946],[130.75264353026154,32.8733036076859],[130.75262223606683,32.87328886282276],[130.7526088250352,32.873278534956064],[130.75259112260608,32.87326541660545],[130.75256042163153,32.873241008579335],[130.75248965789055,32.87317580897334],[130.75244961460345,32.8731318709978],[130.75243650696373,32.87311681753473],[130.75238426116036,32.873059448799886],[130.7523575427628,32.873030136900596],[130.7522805500999,32.87294370905138],[130.7522774659028,32.87294107829266],[130.75219751410998,32.872855021967425],[130.7521119878784,32.8727598264287],[130.75205209662332,32.87269173596502],[130.75203643149197,32.87267514099752],[130.75201608561125,32.87265160906683],[130.75199762505432,32.87263335893912],[130.75189922054957,32.87252642761026],[130.75188360644296,32.87251024381702],[130.7518737408277,32.87249874814532],[130.75185222205215,32.87247532211931],[130.75184208926163,32.87246443781514],[130.75180696576072,32.87242475770712],[130.75177621825728,32.87238826954907],[130.75173416559844,32.872359096461025],[130.7517076388785,32.8723396666441],[130.75167988533352,32.8723213981556],[130.75165221900593,32.87230567499176],[130.7516183464577,32.87228476973329],[130.75160636068802,32.872279150163315],[130.7515914718622,32.872270748601075],[130.75145290203756,32.87218974606622],[130.75138822458482,32.872153190875274],[130.751372935452,32.872145066485814],[130.75136267128238,32.872138555099895],[130.75133809351092,32.872130712046875],[130.75130495790117,32.872122660725395],[130.7512927011635,32.872119199461835],[130.751297955993,32.87212587810717],[130.7512979357591,32.8721331779451],[130.75129790853111,32.8721430010651],[130.75122468206158,32.87217633125455],[130.7512250175628,32.8721767908184],[130.75122382631142,32.87217733331194],[130.75151874977337,32.87258140250785],[130.75167237575462,32.87282118891929],[130.75167545016322,32.8728341593809],[130.75164154794496,32.87292449304814],[130.7515451482212,32.872968612991734],[130.75123358951572,32.873109198839906],[130.7508013891813,32.87323075095653],[130.75060395392103,32.8732224862096],[130.75035108392927,32.873219440245045],[130.7500244997406,32.873239965480664],[130.74983057752098,32.87325120691738],[130.74983091674181,32.87325213142078],[130.74982968404413,32.87325220889009],[130.74984502510733,32.87329391632008],[130.74993527623994,32.87341784763226],[130.7499503484042,32.87343891150572],[130.74995688452745,32.87344841627304],[130.75001401085106,32.87353373522842],[130.7500692946869,32.87361585958378],[130.75007629352027,32.87362654868701],[130.75023601763178,32.873868973607806],[130.75033952539417,32.87386258298888],[130.75039869029922,32.87385988049611],[130.75044993907758,32.87394696258006],[130.75045096397974,32.87394875338026],[130.7504536804484,32.87395452695974],[130.750479299346,32.874012620809616],[130.75050373383516,32.87407031710394],[130.75050600843713,32.87407611336124],[130.75050908249656,32.87408916338408],[130.7505117459154,32.874097264925325],[130.75052825183442,32.87415588289447],[130.75053357753453,32.874164938005855],[130.75058563115863,32.87428712145165],[130.750589280162,32.87429497309226],[130.7506355358296,32.874398203442055],[130.75065697000235,32.8744555119188],[130.7508602577624,32.87456002694715],[130.75101728655898,32.874664450235436],[130.75156120724137,32.87502146890697],[130.75151817929088,32.875033502341424],[130.7504006176621,32.875344196773256],[130.74991999181069,32.875477045526786],[130.74991659196633,32.87548104143584],[130.74990406146577,32.875495732931185],[130.7499031213218,32.87549676454338],[130.74986346284481,32.87553782778664],[130.74981081094714,32.87559236458595],[130.74977366015182,32.87563134306233],[130.74974273742288,32.8756677092056],[130.7494865328863,32.87589004221884],[130.74946225845082,32.87591088077552],[130.74945012859604,32.87590642902542],[130.74943980977562,32.87590142063881],[130.74937311590193,32.875871391669676],[130.7492897366065,32.875832433049844],[130.74923670972387,32.87580991070008],[130.74919025436202,32.87578893713608],[130.74903010281955,32.87570332394497],[130.7488246303672,32.87559202319661],[130.7488238300281,32.875593054890444],[130.74882377455708,32.87559302523673],[130.74873703009453,32.87570475964358],[130.74868133208366,32.87576970912593],[130.74866278514938,32.87579575998684],[130.74883423946505,32.8758906697325],[130.74895623775967,32.87595926539167],[130.74911733873967,32.8760485912384],[130.7493464809845,32.87617714593592],[130.7493472882123,32.87617609091836],[130.74934738392182,32.87617614398606],[130.74940310579487,32.876105944871405],[130.74939705565276,32.87606171072995],[130.74961353564206,32.87586433472564],[130.7497091496313,32.875867069877174],[130.7500545912768,32.87587817493186],[130.7500546198174,32.87586793132667],[130.75005670320064,32.87584700219367],[130.75045443552952,32.875863659121414],[130.75070770588144,32.875875302870774],[130.75084644132082,32.875878122471384],[130.75091129543185,32.87587570555409],[130.75097917318743,32.87587059034983],[130.7510141902863,32.87586457730642],[130.75108493026846,32.87585420650464],[130.7511304384101,32.87584555398111],[130.75115192670546,32.87584229866709],[130.75116056258838,32.8758402486347],[130.75117133881474,32.87583878810403],[130.75122327793846,32.87583105033843],[130.75125687506412,32.87582691682536],[130.75127723914594,32.87582503197581],[130.75131327280124,32.875823399720794],[130.75139033463577,32.8758203233691],[130.7514357914622,32.87581947539427],[130.75171522395036,32.875812226591464],[130.75218320158498,32.875801730202966],[130.75230346791835,32.87576692576249],[130.75235213078363,32.875753594607424],[130.7523736934009,32.8757456373708],[130.75243017741542,32.87572665637815],[130.75251045736533,32.875698181075784],[130.75262977109557,32.8756548080209],[130.7526731939203,32.875639693177405],[130.7526858741751,32.87563473295388],[130.7527204188055,32.875623113498],[130.7527821655795,32.8756023961905],[130.75284082999596,32.875581752342036],[130.75300447865763,32.87552218251682],[130.75313091820968,32.875476716607054],[130.75317653430514,32.87546100799838],[130.75317671295844,32.875460249407226],[130.75317739006522,32.875460005928204],[130.7531773973906,32.875457343195514],[130.75317958609872,32.87544804957935],[130.75317960390962,32.875441575383746],[130.75318052927946,32.8754392531347],[130.7531963669209,32.87529086964403],[130.75319645290568,32.87525961209266],[130.75329210202318,32.875249380175056],[130.75333220457725,32.875246913533566],[130.75336182473987,32.87524697151833],[130.75338070952324,32.87524801223037],[130.75344546186741,32.87524813895608],[130.75345363416469,32.87524815494758],[130.75346484092105,32.87524971828724],[130.75353676793972,32.87525291964987],[130.7535872923946,32.87525621095912],[130.7535952811684,32.87525622658244],[130.75360670893573,32.87525786987779],[130.75361903976733,32.87526043914844],[130.753688546425,32.87526792508014],[130.75374153585176,32.87527472630268],[130.75375664697725,32.87527592497527],[130.753776308786,32.875278960365414],[130.75386264497004,32.87528954829221],[130.75393048612753,32.8752975548831],[130.75396693369822,32.87530201359292],[130.7539943331132,32.87530647784937],[130.75400315593,32.87530770489282],[130.75401373326997,32.87531068183081],[130.75408464238888,32.87532386417961],[130.75411266936243,32.87532949125579],[130.75413620093755,32.87533538778346],[130.7541917587043,32.875346735855715],[130.75428810019937,32.87536848322471],[130.75430796979458,32.87537190460257],[130.75431809823428,32.875374794854835],[130.7543213671074,32.87537480122861],[130.75432510179235,32.875376349921794],[130.7543595035485,32.875204618833],[130.75439976180488,32.87504185142834],[130.75441004831075,32.87504436399978],[130.75442161995608,32.87504861037816],[130.7545664775896,32.87509049005053],[130.754754486518,32.87514557702155],[130.75485676751137,32.87517410734357],[130.7549508298995,32.87520160412963],[130.75515737208022,32.8752592716953],[130.75536701775172,32.87531956963968],[130.755385477415,32.875324775329275],[130.7553884048048,32.87532540365727]]]},"properties":{"YoutoName":"第１種低層住居専用地域","YoutoCode":1,"FAR":80,"BCR":40,"Pref":"熊本県","Citycode":"43216","Cityname":"合志市","FNDate":"令和8年5月22日","FNDateISO":"2026-05-22","GeomSource":"市町計画図PDF","GeomNote":"計画図からの抽出。都市計画決定図書ではない","GeomAccuracy":"既存用途地域での残差 0.09m","信頼度":"良好","AreaHa":10.34,"AreaHaMaster":10.3,"GeomSourceDoc":"合志市 用途地域の変更 計画図1・2（令和8年5月22日）","外壁の後退距離の限度":"1.0m","建築物の敷地面積の最低限度":"―","建築物の高さの限度":"10.0m","高度地区":"―","都市計画の種類":"熊本都市計画用途地域の変更（合志市決定）","決定理由":"熊本都市計画区域区分の変更に伴い市街化区域に編入する区域について、将来の合理的な土地利用を図るため、用途地域を指定する。なお、用途地域を指定する地域は、すでに市街化を形成した区域で、隣接する既存市街化区域との一体性・連続性を勘案した住居系の用途とし、九州縦貫自動車道沿線、主要地方道熊本大津線沿線、並びに合志市都市計画マスタープランで位置付けた補助幹線道路に接する区域の一部については、市街化区域内における生活利便性等を確保するため、一定の利便施設を許容する用途を指定する。"}},{"type":"Feature","geometry":{"type":"Polygon","coordinates":[[[130.77364163934308,32.87389497027461],[130.77374966345906,32.873853487171615],[130.77383607081904,32.87382500914629],[130.77391020568697,32.87380430360744],[130.7740181771202,32.87378365867477],[130.7741046325548,32.87377347388726],[130.77401835388463,32.87371342848128],[130.77400302359374,32.87370035705837],[130.773987585841,32.87369253483359],[130.7739106316874,32.8736351307636],[130.77379360496977,32.8735463970105],[130.77376285667708,32.87351770878979],[130.7737444225528,32.87350208660544],[130.7736274158279,32.87340555817871],[130.7735935573235,32.873376864331824],[130.77358122997646,32.873369047642015],[130.7735627961154,32.8733533458949],[130.77354125174782,32.87333771809452],[130.77349805574144,32.8733116321465],[130.77343650714508,32.873275014420386],[130.77341495619487,32.87326201128282],[130.77331330882433,32.87320456246423],[130.77327322345715,32.87317840249478],[130.77326710352253,32.873175846329225],[130.77319323426468,32.873128866612774],[130.77307926013012,32.87306352133892],[130.77306994228866,32.87305833471156],[130.77301760415446,32.87303223214219],[130.7730052704711,32.87302696054431],[130.772863606185,32.87295385020043],[130.77266950350912,32.872857181960214],[130.7724630609906,32.872757866452496],[130.77234604520973,32.87270301380645],[130.77233060132215,32.87269773652603],[130.7720441384051,32.872561927730594],[130.77184080755387,32.872462616820826],[130.7718192505656,32.87245215855723],[130.77177916577517,32.87242607764515],[130.77170530460074,32.87237647236595],[130.77169297108637,32.87237120063887],[130.77168374764932,32.872366014079006],[130.77167443016475,32.872360747811896],[130.77164055266027,32.87233992748995],[130.7716313361079,32.87233203670572],[130.77161288925018,32.87232166357626],[130.77157901197734,32.87230076370175],[130.77153593133815,32.87226680319342],[130.7715182600091,32.87225517571766],[130.77150732487775,32.872246916598264],[130.77150525413018,32.87224606470805],[130.77150206058178,32.87224335814931],[130.77149582179655,32.872239831953415],[130.77149189427737,32.872236469381086],[130.77138417588978,32.87215824902267],[130.77134411141287,32.872124293917096],[130.77128572098994,32.87206954658908],[130.77125696239725,32.87204517328467],[130.77120033464084,32.87199545315535],[130.77119732511235,32.871992902533094],[130.77119004835254,32.871986735364885],[130.77118716534656,32.87198346859126],[130.77115330817,32.871954774083136],[130.77113144704757,32.87193706979229],[130.77108653696553,32.87189900770082],[130.7710618833269,32.871883294289994],[130.7710526599772,32.87187810768359],[130.7709510422968,32.87181023774337],[130.7709003433661,32.871781082833365],[130.77086389224044,32.87175898687217],[130.7708300218543,32.871735541645826],[130.77079925524365,32.87171464721358],[130.7707980692819,32.87171364208176],[130.77079399791114,32.87170838451414],[130.7707508167029,32.871677127784075],[130.77074239007575,32.871674230603354],[130.77073461851435,32.871670227985646],[130.7707129740981,32.87165722421127],[130.77070114632622,32.87164992713191],[130.7706800470666,32.87163532207271],[130.7705968497029,32.87158832385069],[130.77059178119265,32.871585755415836],[130.7705836740465,32.871578884371765],[130.77047473516078,32.87151091439643],[130.7704213595712,32.8714760968715],[130.77038716230467,32.871455335284104],[130.77038042030517,32.87145093816481],[130.77035888378884,32.871437110977105],[130.7702796524389,32.87138469017416],[130.77027240549003,32.8713816392501],[130.7702664701302,32.87137787534658],[130.77024492702358,32.87136216744227],[130.77023880730124,32.87135961112875],[130.77021415396183,32.87134389755084],[130.7702079399919,32.87134134106401],[130.77019671439785,32.87133467645152],[130.77017802247448,32.87132206897529],[130.77000288700455,32.87121684794194],[130.76988149479314,32.871142859375816],[130.76984149868161,32.871119402699314],[130.76982980824442,32.87111246204179],[130.76981158131827,32.871100130522926],[130.76977695738492,32.871075902843145],[130.76975832896386,32.87106198471643],[130.76960439075802,32.87096276035839],[130.76959069775654,32.87095421309368],[130.7695467166976,32.87092522358209],[130.7694697545275,32.87087298661167],[130.7693343699074,32.87074261762414],[130.76933372271944,32.87074382043379],[130.76933351437404,32.87074361980663],[130.76915993262142,32.87106343560188],[130.76907321837163,32.87121169147827],[130.76900814739824,32.87133652374912],[130.7689150514251,32.87154720378533],[130.76890261091006,32.87158360859132],[130.76883424157273,32.87178128993553],[130.76876275470008,32.87198166974986],[130.76875660178928,32.87199199817765],[130.76875347124243,32.8719998665251],[130.76866644694306,32.87226782359423],[130.76850826323638,32.87260850514712],[130.76854248352362,32.87262097974955],[130.76857380224553,32.87263363008833],[130.76868169331135,32.87268067496174],[130.76873714680377,32.87270423989802],[130.76876948329308,32.872714714612904],[130.76880098814578,32.872726199244376],[130.76899516673464,32.872791615869886],[130.76897653230122,32.872817590076494],[130.76896413175024,32.872838405848746],[130.7688712083461,32.87298140076558],[130.76882483730142,32.87305425047906],[130.76880317339783,32.8730853889591],[130.76873193373228,32.87318937123427],[130.76866070722272,32.873288183634926],[130.7686482932084,32.873314169205145],[130.76855530830437,32.87348062695253],[130.76848410177124,32.87360807233031],[130.7684809713478,32.8736158611327],[130.76845616978437,32.873657492570274],[130.7686644338907,32.87374994377118],[130.7688513921304,32.87383418226605],[130.770669223526,32.874654896182065],[130.7710831280435,32.87483863593753],[130.7715864927955,32.87506359764418],[130.7715864966377,32.87506208755844],[130.7717938150184,32.875154117867986],[130.77194784229854,32.87522208191372],[130.7719726360077,32.875183074472474],[130.77207476051007,32.87505313787174],[130.77213666847848,32.87498556444606],[130.77219844920262,32.874930955164764],[130.77242106012628,32.87475176438379],[130.7726651995583,32.87455694338124],[130.77276721040275,32.87447122814221],[130.77292795162353,32.87434402115387],[130.77314732226188,32.874177787627936],[130.77329873367088,32.87408699096778],[130.7734377782143,32.874003886916086],[130.77364163934308,32.87389497027461]]]},"properties":{"YoutoName":"第１種低層住居専用地域","YoutoCode":1,"FAR":80,"BCR":40,"Pref":"熊本県","Citycode":"43216","Cityname":"合志市","FNDate":"令和8年5月22日","FNDateISO":"2026-05-22","GeomSource":"市町計画図PDF","GeomNote":"計画図からの抽出。都市計画決定図書ではない","GeomAccuracy":"既存用途地域での残差 0.09m","信頼度":"良好","AreaHa":12.66,"AreaHaMaster":12.7,"GeomSourceDoc":"合志市 用途地域の変更 計画図1・2（令和8年5月22日）","外壁の後退距離の限度":"1.0m","建築物の敷地面積の最低限度":"―","建築物の高さの限度":"10.0m","高度地区":"―","都市計画の種類":"熊本都市計画用途地域の変更（合志市決定）","決定理由":"熊本都市計画区域区分の変更に伴い市街化区域に編入する区域について、将来の合理的な土地利用を図るため、用途地域を指定する。なお、用途地域を指定する地域は、すでに市街化を形成した区域で、隣接する既存市街化区域との一体性・連続性を勘案した住居系の用途とし、九州縦貫自動車道沿線、主要地方道熊本大津線沿線、並びに合志市都市計画マスタープランで位置付けた補助幹線道路に接する区域の一部については、市街化区域内における生活利便性等を確保するため、一定の利便施設を許容する用途を指定する。"}},{"type":"Feature","geometry":{"type":"Polygon","coordinates":[[[130.77516376905098,32.87331461343724],[130.77526273105977,32.873202802806],[130.77499482681117,32.873030526695146],[130.77492706994676,32.87298880830018],[130.7748624236444,32.87294701588621],[130.77485311229182,32.87293920470621],[130.77482544803337,32.872920941501036],[130.77479768315135,32.87290522327046],[130.7747730349604,32.87288696544047],[130.77475769811556,32.87287651879343],[130.77459445284617,32.87276431954513],[130.7745421537766,32.872722549037164],[130.77452060938805,32.8727069214038],[130.77443743515934,32.87264950652687],[130.774320483863,32.87256856794383],[130.77429893955065,32.872552940272236],[130.77425885398418,32.87252686015183],[130.77401246509564,32.87238325350358],[130.7740032417214,32.872377987578275],[130.77385848058273,32.87229962340945],[130.77378148823456,32.87225788782726],[130.77374139653932,32.87223435269017],[130.7737229496546,32.87222390033482],[130.77371673572208,32.87222126448605],[130.77369517856985,32.872210806544615],[130.77364284736407,32.87218207954963],[130.77350732983982,32.8721011864073],[130.7735011159223,32.87209855054783],[130.7733964538022,32.87204109637368],[130.77338723692355,32.8720332852538],[130.7733779193722,32.872028019112996],[130.7733163518301,32.87199927537957],[130.77329480120503,32.871986272220056],[130.77328557791455,32.87198100624185],[130.77327014052238,32.87197318392794],[130.7730544692705,32.871871307629235],[130.77294047049332,32.8718163814277],[130.77279879489683,32.87174852037509],[130.77278024753275,32.87174061286016],[130.77274334755543,32.871722332548565],[130.77270635334315,32.8717040520562],[130.77264469199295,32.87167530782272],[130.77250923090259,32.87161000280863],[130.77248457044013,32.87159691436182],[130.77233668835433,32.871523792191205],[130.7722812544013,32.871492434325845],[130.77226892077286,32.8714872421911],[130.77225659380332,32.87147942537004],[130.77225037996647,32.87147678944853],[130.7721888593841,32.87142983143696],[130.77217653908937,32.871419389922906],[130.77217344216405,32.87141413493253],[130.77215500209252,32.871401137196926],[130.77210882454395,32.87136200142693],[130.77209960784867,32.87135419021214],[130.7720903913569,32.871346299460754],[130.77204422699057,32.87130199383244],[130.7720380196343,32.87129681275117],[130.77202569937566,32.871286371222176],[130.77198262571892,32.871249786178424],[130.7719579916947,32.87122635795906],[130.77190259119755,32.8711819560359],[130.77188415788203,32.87116633357511],[130.77185029411936,32.87114026393743],[130.77182874411903,32.871127180989475],[130.77177332373316,32.871090653064456],[130.77173634332866,32.87106712291504],[130.77168092301812,32.87103059494907],[130.77167480327688,32.871028038705575],[130.77159773236184,32.87098097270314],[130.77159688092766,32.870980372548715],[130.771596883326,32.870979429751905],[130.77157844363109,32.87096635239526],[130.77157335707616,32.870964211040636],[130.7715669656271,32.87096015799344],[130.77151338511047,32.87092569971194],[130.77147681990294,32.87090110756024],[130.77145527001545,32.87088802454796],[130.7714532257379,32.870887157339375],[130.77145000600402,32.870884386560476],[130.7714406884853,32.87087919981138],[130.77140125133695,32.87085639940482],[130.77137207961843,32.87083840215196],[130.77130432612373,32.8707966817948],[130.77125858744697,32.87076969847764],[130.77123441243478,32.87075387419704],[130.7711265754535,32.87068599310523],[130.7710828794481,32.87066018050298],[130.77105486315176,32.87064264447642],[130.77085472776852,32.87051207998997],[130.7708270650859,32.87049381590035],[130.77076543828267,32.87045210638686],[130.7707577499758,32.87044638592003],[130.7707417415651,32.870432766205],[130.77072631116494,32.87042239842805],[130.77071500410133,32.87041599110549],[130.77070692194988,32.87041032296359],[130.770589963579,32.87033463026217],[130.7705714232102,32.870324177270746],[130.77050843004895,32.8702824095578],[130.77040301161423,32.87021091961465],[130.77033827512665,32.870169156504964],[130.77031061267704,32.870150884347495],[130.7703004176108,32.870143986766095],[130.77029433373693,32.87013883039253],[130.7702901389542,32.87013617023853],[130.77028286266489,32.870130003234046],[130.7702779190227,32.87012578747426],[130.77027590091961,32.87012320769433],[130.77026775787638,32.87011717513104],[130.77025211000506,32.87010392292298],[130.77022135738363,32.87007783465073],[130.77002135106838,32.869897853163145],[130.77002062464544,32.86989904816206],[130.77002040132302,32.869898847225016],[130.7698624404975,32.870156256557564],[130.76982534154678,32.87021607965495],[130.76974184306772,32.870312752259316],[130.76970860467827,32.870350217574135],[130.7697010641602,32.8703590934188],[130.76967684306973,32.87038498212846],[130.76959730976398,32.87043889958415],[130.7695818689487,32.87044894505092],[130.76957150707594,32.87045793489789],[130.76948523806084,32.870530421941766],[130.76939851765258,32.87064479559234],[130.76934905153198,32.87071239047581],[130.76933352786085,32.870738370436875],[130.76933351437404,32.87074361980663],[130.7694688989944,32.87087398879508],[130.76954586116483,32.87092622576602],[130.76959069775654,32.87095421309368],[130.76960213606182,32.870961752490054],[130.769759272218,32.8710635278521],[130.76977695738492,32.871075902843145],[130.7698107257868,32.871101132708645],[130.76982980824442,32.87111246204179],[130.7698423476883,32.8711209456623],[130.76988243784643,32.871144482046454],[130.77000288700455,32.87121684794194],[130.770177166945,32.871323071163474],[130.77019671439785,32.87133467645152],[130.7702088832568,32.87134288419628],[130.77021500277357,32.87134552004717],[130.77023655258782,32.871358603271844],[130.77024577583603,32.871363789938414],[130.77026731894316,32.87137949784256],[130.77027240549003,32.8713816392501],[130.7702787969099,32.87138569236305],[130.77035888378884,32.871437110977105],[130.77037825983768,32.87144993048213],[130.77038716230467,32.871455335284104],[130.77042040999638,32.8714770193538],[130.77047473516078,32.87151091439643],[130.77058141261676,32.87158050120582],[130.77059178119265,32.871585755415836],[130.77059599417552,32.871589326041715],[130.77067909728962,32.87163632409286],[130.77070114632622,32.87164992713191],[130.7707139173751,32.87165876733971],[130.77073546733865,32.87167185047843],[130.77074239007575,32.871674230603354],[130.7707499611764,32.87167812997615],[130.77079304813464,32.87170938653516],[130.7707980692819,32.87171364208176],[130.7708001040695,32.87171626970592],[130.77082785487818,32.87173707911972],[130.7708647410679,32.871760609364074],[130.7709003433661,32.871781082833365],[130.770950092521,32.87181123976555],[130.77105171020176,32.87187910970654],[130.77106102780184,32.87188429648416],[130.77108558739306,32.87189993018812],[130.77113144704757,32.87193706979229],[130.77115425125504,32.87195639674414],[130.77118810843248,32.87198509125199],[130.77119004835254,32.871986735364885],[130.77119637533733,32.87199390455713],[130.77119947911626,32.871996455350455],[130.77125696239725,32.87204517328467],[130.77128656982805,32.872071169078104],[130.77134505450317,32.87212591657663],[130.77138502493304,32.87215979197509],[130.77149274312083,32.87223809186866],[130.77149582179655,32.872239831953415],[130.77150111080746,32.87224436017562],[130.77150525413018,32.87224606470805],[130.77150817372157,32.872248539085746],[130.7715182600091,32.87225517571766],[130.771534981564,32.87226780521996],[130.77157815645404,32.8723017658994],[130.77159349282508,32.87231221293517],[130.7715934992147,32.87230970130199],[130.77161288925018,32.87232166357626],[130.7716313361079,32.87233203670572],[130.77164055266027,32.87233992748995],[130.77167443016475,32.872360747811896],[130.77168374764932,32.872366014079006],[130.77169297108637,32.87237120063887],[130.77170530460074,32.87237647236595],[130.77177916577517,32.87242607764515],[130.7718192505656,32.87245215855723],[130.77184080755387,32.872462616820826],[130.7720441384051,32.872561927730594],[130.77233060132215,32.87269773652603],[130.77234604520973,32.87270301380645],[130.7724630609906,32.872757866452496],[130.77266950350912,32.872857181960214],[130.772863606185,32.87295385020043],[130.7730052704711,32.87302696054431],[130.77301760415446,32.87303223214219],[130.77306994228866,32.87305833471156],[130.77307926013012,32.87306352133892],[130.77319323426468,32.873128866612774],[130.77326710352253,32.873175846329225],[130.77327322345715,32.87317840249478],[130.77331330882433,32.87320456246423],[130.77341495619487,32.87326201128282],[130.77343650714508,32.873275014420386],[130.77349805574144,32.8733116321465],[130.77354125174782,32.87333771809452],[130.7735627961154,32.8733533458949],[130.77358122997646,32.873369047642015],[130.7735935573235,32.873376864331824],[130.7736274158279,32.87340555817871],[130.7737444225528,32.87350208660544],[130.77376285667708,32.87351770878979],[130.77379360496977,32.8735463970105],[130.7739106316874,32.8736351307636],[130.773987585841,32.87369253483359],[130.77400302359374,32.87370035705837],[130.77401835388463,32.87371342848128],[130.7741046325548,32.87377347388726],[130.77421869110694,32.87376842879225],[130.77431124691665,32.87376859449848],[130.77444386657092,32.873766207116816],[130.77453955887077,32.87375595901583],[130.77465066638013,32.87372497943127],[130.77473094693278,32.873696489835844],[130.77480200387998,32.873662734322416],[130.77484834695,32.873636808729145],[130.7748853721874,32.873605617090206],[130.77501838577362,32.873483527735786],[130.77516376905098,32.87331461343724]]]},"properties":{"YoutoName":"第２種中高層住居専用地域","YoutoCode":4,"FAR":150,"BCR":60,"Pref":"熊本県","Citycode":"43216","Cityname":"合志市","FNDate":"令和8年5月22日","FNDateISO":"2026-05-22","GeomSource":"市町計画図PDF","GeomNote":"計画図からの抽出。都市計画決定図書ではない","GeomAccuracy":"既存用途地域での残差 0.09m","信頼度":"良好","AreaHa":6.73,"AreaHaMaster":6.7,"GeomSourceDoc":"合志市 用途地域の変更 計画図1・2（令和8年5月22日）","高度地区":"10m以下","都市計画の種類":"熊本都市計画用途地域の変更（合志市決定）","決定理由":"熊本都市計画区域区分の変更に伴い市街化区域に編入する区域について、将来の合理的な土地利用を図るため、用途地域を指定する。なお、用途地域を指定する地域は、すでに市街化を形成した区域で、隣接する既存市街化区域との一体性・連続性を勘案した住居系の用途とし、九州縦貫自動車道沿線、主要地方道熊本大津線沿線、並びに合志市都市計画マスタープランで位置付けた補助幹線道路に接する区域の一部については、市街化区域内における生活利便性等を確保するため、一定の利便施設を許容する用途を指定する。"}},{"type":"Feature","geometry":{"type":"Polygon","coordinates":[[[130.7756194493531,32.87238349871069],[130.77562257910947,32.87237570972523],[130.77614877569934,32.87166073891326],[130.77615492793046,32.87165033058156],[130.77619520812294,32.8715983853497],[130.77622302150047,32.87155675769808],[130.77620769105545,32.871543766076975],[130.7761182768846,32.87149413578849],[130.77601054260722,32.87142100969067],[130.7759181644765,32.87135061502303],[130.77581352767297,32.871282743654014],[130.77568105829766,32.87118873478514],[130.77557946369166,32.871110528913825],[130.7753701036418,32.87097216066722],[130.7750683283456,32.870778985817296],[130.7749913303586,32.870739796122805],[130.7748342046251,32.870669285095644],[130.77468932512534,32.870601340915194],[130.77456309415675,32.870538599768295],[130.774291977889,32.87041053854002],[130.77418107709315,32.87036091612179],[130.77407940632983,32.8703138791655],[130.77357408321544,32.87007348895834],[130.77339239396164,32.86998985623866],[130.77308740425957,32.86984093277279],[130.77277933174028,32.86968159170515],[130.77247130649752,32.86950402819609],[130.7722249420776,32.86935520044911],[130.77194468901138,32.86919070590077],[130.77159670475126,32.868976616461225],[130.77127634457028,32.86879642681917],[130.77102995090976,32.86866061675297],[130.77098981312326,32.86862997312938],[130.77096758398847,32.86861208336111],[130.77087782507195,32.8687367922825],[130.7707384807789,32.86893959516934],[130.7706889156762,32.8690098151242],[130.77050625879866,32.869269805093765],[130.77030547699428,32.86955778882971],[130.77026575535314,32.86959633921474],[130.77025792356778,32.869604232143665],[130.77015661862202,32.86970383403348],[130.7701132996848,32.86976364588199],[130.7700577748392,32.86984307934717],[130.77002751053175,32.86988485226148],[130.77002274061414,32.869894920221675],[130.77002040132302,32.869898847225016],[130.77022040769964,32.87007880485333],[130.7702512544271,32.87010494897271],[130.77026775787638,32.87011717513104],[130.77027674982273,32.87012479042257],[130.7702779190227,32.87012578747426],[130.7702820071277,32.8701310133768],[130.7702901389542,32.87013617023853],[130.77029518255912,32.870140444935004],[130.7703004176108,32.870143986766095],[130.77030975711966,32.87015190244402],[130.77033741958977,32.870170166648094],[130.77040206195113,32.87021188186503],[130.77050843004895,32.8702824095578],[130.7705723663488,32.870325768122065],[130.77058770228268,32.87033620732884],[130.77070786501056,32.87041194562824],[130.77071500410133,32.87041599110549],[130.77072545585335,32.870423321084274],[130.77074079180173,32.87043376822587],[130.7707577499758,32.87044638592003],[130.77076628729907,32.870453649343766],[130.7708279139008,32.87049543839277],[130.7708555765841,32.870513702482185],[130.77105580642404,32.8706441876025],[130.7710828794481,32.87066018050298],[130.77112571994076,32.87068699530008],[130.77123346267345,32.87075487622161],[130.77125858744697,32.87076969847764],[130.77130215917867,32.870798219277276],[130.7713729284465,32.87084002464064],[130.77140125133695,32.87085639940482],[130.77143983297424,32.870880202008344],[130.77144905624368,32.87088538858668],[130.7714532257379,32.870887157339375],[130.77145611884555,32.87088964703607],[130.77147766873352,32.870902730048215],[130.77151338511047,32.87092569971194],[130.77156611011668,32.870961160191285],[130.77157335707616,32.870964211040636],[130.77157929246414,32.870967974882525],[130.77159773236184,32.87098097270314],[130.77167480327688,32.871028038705575],[130.77168092301812,32.87103059494907],[130.77173634332866,32.87106712291504],[130.77177332373316,32.871090653064456],[130.77182874411903,32.871127180989475],[130.77185029411936,32.87114026393743],[130.77188415788203,32.87116633357511],[130.77190259119755,32.8711819560359],[130.7719579916947,32.87122635795906],[130.77198262571892,32.871249786178424],[130.77202569937566,32.871286371222176],[130.7720380196343,32.87129681275117],[130.77204422699057,32.87130199383244],[130.7720903913569,32.871346299460754],[130.77209960784867,32.87135419021214],[130.77210882454395,32.87136200142693],[130.77215500209252,32.871401137196926],[130.77217344216405,32.87141413493253],[130.77217653908937,32.871419389922906],[130.7721888593841,32.87142983143696],[130.77225037996647,32.87147678944853],[130.77225659380332,32.87147942537004],[130.77226892077286,32.8714872421911],[130.7722812544013,32.871492434325845],[130.77233668835433,32.871523792191205],[130.77248457044013,32.87159691436182],[130.77250923090259,32.87161000280863],[130.77264469199295,32.87167530782272],[130.77270635334315,32.8717040520562],[130.77274334755543,32.871722332548565],[130.77278024753275,32.87174061286016],[130.77279879489683,32.87174852037509],[130.77294047049332,32.8718163814277],[130.7730544692705,32.871871307629235],[130.77327014052238,32.87197318392794],[130.77328557791455,32.87198100624185],[130.77329480120503,32.871986272220056],[130.7733163518301,32.87199927537957],[130.7733779193722,32.872028019112996],[130.77338723692355,32.8720332852538],[130.7733964538022,32.87204109637368],[130.7735011159223,32.87209855054783],[130.77350732983982,32.8721011864073],[130.77364284736407,32.87218207954963],[130.77369517856985,32.872210806544615],[130.77371673572208,32.87222126448605],[130.7737229496546,32.87222390033482],[130.77374139653932,32.87223435269017],[130.77378148823456,32.87225788782726],[130.77385848058273,32.87229962340945],[130.7740032417214,32.872377987578275],[130.77401246509564,32.87238325350358],[130.77425885398418,32.87252686015183],[130.77429893955065,32.872552940272236],[130.774320483863,32.87256856794383],[130.77443743515934,32.87264950652687],[130.77452060938805,32.8727069214038],[130.7745421537766,32.872722549037164],[130.77459445284617,32.87276431954513],[130.77475769811556,32.87287651879343],[130.7747730349604,32.87288696544047],[130.77479768315135,32.87290522327046],[130.77482544803337,32.872920941501036],[130.77485311229182,32.87293920470621],[130.7748624236444,32.87294701588621],[130.77492706994676,32.87298880830018],[130.77499482681117,32.873030526695146],[130.77526273105977,32.873202802806],[130.77527823393248,32.87318461663259],[130.775364802925,32.873091077170436],[130.77542357067358,32.87303391574309],[130.7755100938305,32.87295858990048],[130.77560895085827,32.87288845580364],[130.7758623439769,32.872719732835655],[130.77592722458797,32.8726677518901],[130.77597361225446,32.872623612146995],[130.77559164855276,32.87241987684967],[130.77559778778323,32.87241471791778],[130.7756194493531,32.87238349871069]]]},"properties":{"YoutoName":"第１種低層住居専用地域","YoutoCode":1,"FAR":80,"BCR":40,"Pref":"熊本県","Citycode":"43216","Cityname":"合志市","FNDate":"令和8年5月22日","FNDateISO":"2026-05-22","GeomSource":"市町計画図PDF","GeomNote":"計画図からの抽出。都市計画決定図書ではない","GeomAccuracy":"既存用途地域での残差 0.09m","信頼度":"良好","AreaHa":11.52,"AreaHaMaster":11.5,"GeomSourceDoc":"合志市 用途地域の変更 計画図1・2（令和8年5月22日）","外壁の後退距離の限度":"1.0m","建築物の敷地面積の最低限度":"―","建築物の高さの限度":"10.0m","高度地区":"―","都市計画の種類":"熊本都市計画用途地域の変更（合志市決定）","決定理由":"熊本都市計画区域区分の変更に伴い市街化区域に編入する区域について、将来の合理的な土地利用を図るため、用途地域を指定する。なお、用途地域を指定する地域は、すでに市街化を形成した区域で、隣接する既存市街化区域との一体性・連続性を勘案した住居系の用途とし、九州縦貫自動車道沿線、主要地方道熊本大津線沿線、並びに合志市都市計画マスタープランで位置付けた補助幹線道路に接する区域の一部については、市街化区域内における生活利便性等を確保するため、一定の利便施設を許容する用途を指定する。"}}]}