{"type":"FeatureCollection","features":[{"type":"Feature","geometry":{"type":"Point","coordinates":[130.7447657,32.8635372]},"properties":{"FAR":"80","ABBR":"1低","BCR":"40","YoutoName":"第１種低層住居専用地域","R":0.001232}},{"type":"Feature","geometry":{"type":"Point","coordinates":[130.7537118,32.8711957]},"properties":{"FAR":"150","ABBR":"1中高","BCR":"60","YoutoName":"第１種中高層住居専用地域","R":0.002017}},{"type":"Feature","geometry":{"type":"Point","coordinates":[130.7525193,32.8744548]},"properties":{"FAR":"80","ABBR":"1低","BCR":"40","YoutoName":"第１種低層住居専用地域","R":0.000984}},{"type":"Feature","geometry":{"type":"Point","coordinates":[130.7704302,32.8731225]},"properties":{"FAR":"80","ABBR":"1低","BCR":"40","YoutoName":"第１種低層住居専用地域","R":0.001251}},{"type":"Feature","geometry":{"type":"Point","coordinates":[130.7743225,32.8732482]},"properties":{"FAR":"150","ABBR":"2中高","BCR":"60","YoutoName":"第２種中高層住居専用地域","R":0.000518}},{"type":"Feature","geometry":{"type":"Point","coordinates":[130.7744589,32.8715375]},"properties":{"FAR":"80","ABBR":"1低","BCR":"40","YoutoName":"第１種低層住居専用地域","R":0.000912}}]}